{"type": "FeatureCollection", "features": [{"type": "Feature", "properties": {"tipo": "expansao_prioritaria"}, "geometry": {"type": "MultiPolygon", "coordinates": [[[[17.43193138, -8.26768426], [17.42306315, -8.29473561], [17.41157013, -8.31116564], [17.39610312, -8.32556722], [17.37725652, -8.33738669], [17.34426295, -8.3493118], [17.32035063, -8.35294673], [17.27205753, -8.3493118], [17.24953262, -8.34218172], [17.22021736, -8.32556722], [17.01293401, -8.16720028], [16.98963697, -8.14251073], [16.77749527, -7.81756633], [16.77108029, -7.79986835], [16.77008285, -7.77239012], [16.77520421, -7.75445011], [16.79108813, -7.72978106], [16.82530375, -7.70420892], [16.8465957, -7.69566011], [16.88156361, -7.68906877], [17.2898926, -7.68862381], [17.28808895, -7.69280807], [17.30054754, -7.69496788], [17.30467967, -7.70013038], [17.3145641, -7.69795349], [17.31711075, -7.70425313], [17.31589762, -7.71394026], [17.32678829, -7.7133646], [17.33183436, -7.71722078], [17.32629185, -7.72779238], [17.32571092, -7.73942684], [17.31728739, -7.75109509], [17.32580269, -7.76341231], [17.33370703, -7.76631042], [17.32981429, -7.77781057], [17.34000403, -7.78201118], [17.35685761, -7.77725467], [17.36632343, -7.78062162], [17.37505565, -7.7771771], [17.38146533, -7.77857597], [17.38395242, -7.78792523], [17.37524681, -7.81308315], [17.37673788, -7.82232922], [17.38055575, -7.82324031], [17.3902498, -7.81376412], [17.40075104, -7.81989762], [17.40181975, -7.82228283], [17.39229133, -7.83335371], [17.39434781, -7.84073115], [17.39823368, -7.84092424], [17.40796479, -7.83175792], [17.42286699, -7.83368115], [17.42473143, -7.84507668], [17.41990365, -7.85615208], [17.42067379, -7.86489964], [17.42256465, -7.86840386], [17.43253025, -7.8664688], [17.43193138, -8.26768426]]], [[[14.26516546, -12.31926338], [14.28442613, -12.33082868], [14.30040046, -12.34507964], [14.31689766, -12.37027139], [14.32323382, -12.3980867], [14.32150549, -12.41690822], [14.31506588, -12.4351084], [14.30416246, -12.45198762], [14.28921424, -12.46689691], [14.26050172, -12.48433927], [14.21446518, -12.4962193], [14.17797616, -12.49560164], [14.14328994, -12.4868104], [13.71808763, -12.32175599], [13.69882696, -12.31019108], [13.67629529, -12.2879786], [13.66306864, -12.26166504], [13.66028607, -12.23351733], [13.6643898, -12.2149302], [13.67310327, -12.19732058], [13.68609163, -12.18136493], [13.70285574, -12.16767609], [13.74501394, -12.14909423], [13.76878791, -12.14491467], [13.80527693, -12.14553153], [13.83996315, -12.15431163], [14.26516546, -12.31926338]]], [[[13.66818721, -13.23854023], [13.6617476, -13.22028333], [13.66001927, -13.20140324], [13.66635543, -13.17350155], [13.68285263, -13.14823175], [13.69882696, -13.13393671], [13.71808763, -13.12233568], [13.75149378, -13.11092716], [13.79989847, -13.10825762], [13.84593501, -13.12016633], [13.87464754, -13.13765279], [13.89558311, -13.16085667], [14.10778253, -13.49152615], [14.11422214, -13.50980307], [14.11501996, -13.53816672], [14.10961431, -13.55664848], [14.09967445, -13.57395656], [14.07714278, -13.59628098], [14.05788211, -13.60790426], [14.02447596, -13.61933571], [14.00044302, -13.6225269], [13.9522973, -13.61780719], [13.93003473, -13.61007788], [13.9013222, -13.59255801], [13.88038663, -13.56931361], [13.66818721, -13.23854023]]], [[[21.80213853, -11.36119815], [21.77443826, -11.34287497], [21.76034618, -11.32753608], [21.75040633, -11.31037331], [21.74407016, -11.28266565], [21.74579849, -11.26392008], [21.7522381, -11.24579574], [21.77014252, -11.22128407], [21.78690663, -11.2076414], [21.80680226, -11.19678176], [21.84081903, -11.18658939], [21.88932782, -11.18557143], [21.92401404, -11.19432198], [22.34921634, -11.35871406], [22.37691661, -11.37703823], [22.39652546, -11.4007751], [22.4063542, -11.4278815], [22.40701791, -11.4466779], [22.39911677, -11.474161], [22.38821335, -11.49098187], [22.37326514, -11.50583956], [22.35484658, -11.51816274], [22.31053584, -11.53342555], [22.26202705, -11.53444473], [22.22734083, -11.525684], [21.80213853, -11.36119815]]], [[[19.99065349, -16.21608755], [19.95524954, -16.20910983], [19.92394438, -16.19434704], [19.89943399, -16.17307203], [19.88794097, -16.15615787], [19.8808636, -16.13780652], [19.87847387, -16.11872352], [19.87847387, -15.79294397], [19.8808636, -15.77389296], [19.88794097, -15.75557572], [19.90670456, -15.73100043], [20.12218435, -15.56125765], [20.15081163, -15.54449601], [20.19612369, -15.53330848], [20.23183082, -15.53418485], [20.26574719, -15.54298558], [20.6803139, -15.70561548], [20.70850312, -15.72080279], [20.73593386, -15.74927515], [20.94321722, -16.07498552], [20.95184511, -16.09264602], [20.95598704, -16.11128401], [20.95548798, -16.13020214], [20.95036662, -16.14869241], [20.94081462, -16.16606262], [20.92718947, -16.18166233], [20.88989267, -16.20530124], [20.84400722, -16.2160999], [19.99065349, -16.21608755]]], [[[19.70443314, -17.72047546], [19.71087275, -17.73912398], [19.71260108, -17.75841249], [19.70626491, -17.78692414], [19.69632506, -17.8045858], [19.68223298, -17.82037112], [19.65453271, -17.83922831], [19.6092109, -17.85299093], [19.57272188, -17.85362406], [19.53757247, -17.84582428], [19.51639138, -17.8362431], [19.49797281, -17.82356775], [19.47703724, -17.79984795], [19.26483783, -17.46239727], [19.25839822, -17.44377658], [19.2576004, -17.41488587], [19.26300606, -17.39606489], [19.27950325, -17.37029414], [19.29547758, -17.35571614], [19.31473826, -17.34388569], [19.33654509, -17.33525688], [19.37217734, -17.32900428], [19.40856886, -17.33120625], [19.4316985, -17.33730757], [19.45287959, -17.34686297], [19.47129816, -17.35950575], [19.49223373, -17.38316922], [19.70443314, -17.72047546]]], [[[13.47491533, -16.17097917], [13.45061791, -16.19306694], [13.43025399, -16.20421015], [13.39547769, -16.21444646], [13.37081791, -16.21655533], [13.3461167, -16.21477169], [13.3111274, -16.20499501], [13.28136548, -16.18752834], [13.2594836, -16.1639302], [12.83570652, -15.33221785], [12.83086177, -15.3033939], [12.83708741, -15.274737], [12.85382919, -15.24879785], [12.87959664, -15.22788439], [12.90068366, -15.21767648], [12.92393715, -15.21094683], [12.94843318, -15.2079625], [12.98537392, -15.21072559], [13.81450735, -15.37310128], [13.84862975, -15.38422155], [13.8683927, -15.39581699], [13.88484385, -15.41024415], [13.89733495, -15.42693509], [13.90761746, -15.45476029], [13.90844252, -15.47410425], [13.90437768, -15.49319659], [13.89558311, -15.51128486], [13.47491533, -16.17097917]]], [[[15.56639257, -17.27270714], [15.56172593, -17.29145186], [15.5525686, -17.30913147], [15.53121095, -17.33221213], [15.50236725, -17.3494592], [15.46847456, -17.3594137], [15.43239653, -17.36123337], [15.39718146, -17.35476422], [15.36580473, -17.34055365], [15.34834887, -17.32734864], [15.33444668, -17.31172423], [15.32462229, -17.29426999], [15.11402438, -16.79352691], [15.11130613, -16.76451313], [15.11557423, -16.74537439], [15.13067974, -16.71884156], [15.15498208, -16.696971], [15.18634546, -16.68168295], [15.22201353, -16.67431935], [15.27082887, -16.67783692], [15.30421426, -16.69017686], [15.53055292, -16.8660518], [15.5522946, -16.88919538], [15.56459032, -16.91632851], [15.56698005, -16.93548856], [15.56639257, -17.27270714]]], [[[13.86725654, -17.09925171], [13.86971576, -17.07980126], [13.87699618, -17.06112188], [13.88880987, -17.04395195], [13.9139637, -17.02248853], [13.93472148, -17.01186481], [13.95772968, -17.00469662], [13.9820784, -17.00126702], [14.01900342, -17.00338695], [14.6708141, -17.17495016], [14.70983746, -17.19654167], [14.73073896, -17.21954457], [14.73966338, -17.23710141], [14.74417228, -17.2556867], [14.74233787, -17.28398477], [14.73544907, -17.3021122], [14.72430071, -17.31886217], [14.70930534, -17.33361438], [14.69101786, -17.3458224], [14.65892153, -17.35840464], [14.53024993, -17.39163646], [14.218142, -17.39164267], [14.21829308, -17.39712009], [14.2127942, -17.40161864], [14.21501103, -17.40658316], [14.21298787, -17.40874644], [14.15949347, -17.41752056], [14.1532738, -17.42795238], [14.13800471, -17.4316587], [14.12268496, -17.43147225], [14.11505052, -17.42352239], [14.1011035, -17.43821589], [14.05244649, -17.42923731], [14.04661039, -17.42098261], [14.04168326, -17.42002628], [14.03822806, -17.42340561], [14.01757527, -17.41455192], [14.00523606, -17.42089998], [13.99518212, -17.43283096], [13.98722994, -17.43384294], [13.97709917, -17.42793203], [13.95572041, -17.43334543], [13.92998925, -17.41596645], [13.92585926, -17.40918119], [13.92978711, -17.40191313], [13.91398905, -17.38460927], [13.91644374, -17.37882571], [13.90193651, -17.37108426], [13.8992117, -17.36200088], [13.8897859, -17.3592512], [13.86725654, -17.34207473], [13.86725654, -17.09925171]]], [[[14.07052605, -16.68418667], [14.02772926, -16.70222903], [13.99162655, -16.70645315], [13.95552384, -16.70222903], [13.91272705, -16.68418667], [13.88821666, -16.6628593], [13.87672364, -16.64590355], [13.86964627, -16.62750714], [13.86785541, -16.59876687], [13.87261187, -16.5799166], [13.88194199, -16.56216168], [13.90368367, -16.53905676], [14.12981362, -16.36358315], [14.16280719, -16.35129611], [14.21110029, -16.34755109], [14.24650424, -16.3545336], [14.2778094, -16.36930816], [14.29504922, -16.38288386], [14.30859446, -16.39884837], [14.32089018, -16.4259138], [14.32327991, -16.44502598], [14.32089018, -16.46413998], [14.30859446, -16.4912143], [14.28685278, -16.51431364], [14.07052605, -16.68418667]]], [[[12.45713084, -17.10888702], [12.44826261, -17.13687316], [12.43676959, -17.15387202], [12.4122592, -17.1752537], [12.39198732, -17.1859642], [12.35762309, -17.1956872], [12.3333597, -17.19757697], [12.28576536, -17.19009062], [12.26426342, -17.18100261], [12.24541682, -17.1687729], [12.03813346, -17.00495031], [12.01595948, -16.98114824], [12.0037492, -16.95321776], [12.00260744, -16.9236873], [12.00808859, -16.90443241], [12.21537195, -16.4140474], [12.22519634, -16.39667378], [12.24742051, -16.37421977], [12.26641388, -16.36247685], [12.29938559, -16.35080399], [12.32314619, -16.34741032], [12.35922422, -16.34922051], [12.40342377, -16.36409752], [12.42196061, -16.37628451], [12.43715716, -16.39106353], [12.44844053, -16.40787794], [12.45538532, -16.42609424], [12.45772971, -16.44502598], [12.45713084, -17.10888702]]], [[[16.7894528, -7.31695416], [16.77771398, -7.34645684], [16.75205976, -7.37029032], [16.71639577, -7.38482505], [16.68631018, -7.38822783], [16.64664823, -7.38221244], [16.61302445, -7.36508251], [16.59055775, -7.33944696], [16.5826685, -7.30920962], [16.59055775, -7.27897427], [16.61302445, -7.25334354], [16.64664823, -7.23621842], [16.66609069, -7.23172295], [16.69646884, -7.23058542], [16.73516653, -7.23953308], [16.76642628, -7.25908807], [16.78548908, -7.2862744], [16.7894528, -7.31695416]]], [[[23.41181798, -12.72814747], [23.40007917, -12.75813489], [23.37442495, -12.78236107], [23.33876096, -12.79713577], [23.30867537, -12.80059478], [23.26901341, -12.79448], [23.23538963, -12.77706737], [23.21292294, -12.7510097], [23.20503369, -12.72027595], [23.21292294, -12.68954582], [23.23538963, -12.66349691], [23.26901341, -12.64609303], [23.28845588, -12.64152447], [23.31883403, -12.64036845], [23.35753172, -12.64946161], [23.38879147, -12.66933507], [23.40785427, -12.69696527], [23.41181798, -12.72814747]]], [[[21.76425335, -15.96375231], [21.75251453, -15.99416556], [21.72686031, -16.01873648], [21.69119632, -16.03372175], [21.66111073, -16.0372301], [21.62144878, -16.03102812], [21.587825, -16.0133674], [21.5653583, -15.9869391], [21.55746905, -15.95576918], [21.5653583, -15.92460398], [21.587825, -15.8981871], [21.62144878, -15.88053779], [21.64089124, -15.87590486], [21.67126939, -15.87473256], [21.70996708, -15.88395385], [21.74122683, -15.90410766], [21.76028963, -15.93212837], [21.76425335, -15.96375231]]], [[[21.55696999, -16.45302846], [21.54523117, -16.4835155], [21.51957695, -16.50814616], [21.48391296, -16.52316792], [21.45382737, -16.52668481], [21.41416542, -16.52046772], [21.38054164, -16.50276401], [21.35807494, -16.47627149], [21.35018569, -16.44502598], [21.35807494, -16.41378536], [21.38054164, -16.38730468], [21.41416542, -16.36961282], [21.43360788, -16.36496872], [21.46398603, -16.3637936], [21.50268372, -16.37303711], [21.53394347, -16.39323953], [21.55300627, -16.42132795], [21.55696999, -16.45302846]]], [[[21.34968663, -15.47563905], [21.33794781, -15.50598119], [21.31229359, -15.53049455], [21.2766296, -15.54544467], [21.24654401, -15.54894478], [21.20688206, -15.54275735], [21.17325828, -15.52513805], [21.15079158, -15.49877164], [21.14290233, -15.46767456], [21.15079158, -15.43658203], [21.17325828, -15.41022661], [21.20688206, -15.3926183], [21.22632452, -15.38799612], [21.25670267, -15.38682654], [21.29540036, -15.39602643], [21.32666011, -15.41613341], [21.34572291, -15.44408889], [21.34968663, -15.47563905]]], [[[19.69141978, -14.66458536], [19.67968096, -14.69481481], [19.65402674, -14.71923695], [19.61836275, -14.73413136], [19.58827716, -14.73761842], [19.54861521, -14.73145406], [19.51499143, -14.7139004], [19.49252473, -14.68763206], [19.48463548, -14.6566504], [19.49252473, -14.625673], [19.51499143, -14.59941498], [19.54861521, -14.58187162], [19.56805767, -14.57726649], [19.59843582, -14.57610122], [19.63713351, -14.58526719], [19.66839326, -14.60529996], [19.68745606, -14.63315209], [19.69141978, -14.66458536]]], [[[22.59338677, -17.59944186], [22.58164795, -17.63011187], [22.55599373, -17.65489064], [22.52032974, -17.67000284], [22.49024415, -17.67354092], [22.4505822, -17.66728638], [22.41695842, -17.64947611], [22.39449172, -17.62282436], [22.38660247, -17.59139142], [22.39449172, -17.55996381], [22.41695842, -17.53332494], [22.4505822, -17.51552754], [22.47002466, -17.51085577], [22.50040281, -17.50967364], [22.5391005, -17.51897225], [22.57036025, -17.53929521], [22.58942305, -17.5675515], [22.59338677, -17.59944186]]], [[[18.86228636, -17.59944186], [18.85054754, -17.63011187], [18.82489332, -17.65489064], [18.78922933, -17.67000284], [18.75914374, -17.67354092], [18.71948179, -17.66728638], [18.68585801, -17.64947611], [18.66339131, -17.62282436], [18.65550206, -17.59139142], [18.66339131, -17.55996381], [18.68585801, -17.53332494], [18.71948179, -17.51552754], [18.73892425, -17.51085577], [18.7693024, -17.50967364], [18.80800009, -17.51897225], [18.83925984, -17.53929521], [18.85832264, -17.5675515], [18.86228636, -17.59944186]]], [[[18.655003, -16.45302846], [18.64326418, -16.4835155], [18.61760996, -16.50814616], [18.58194597, -16.52316792], [18.55186038, -16.52668481], [18.51219843, -16.52046772], [18.47857465, -16.50276401], [18.45610795, -16.47627149], [18.4482187, -16.44502598], [18.45610795, -16.41378536], [18.47857465, -16.38730468], [18.51219843, -16.36961282], [18.53164089, -16.36496872], [18.56201904, -16.3637936], [18.60071673, -16.37303711], [18.63197648, -16.39323953], [18.65103928, -16.42132795], [18.655003, -16.45302846]]], [[[13.26563574, -14.8265565], [13.25389692, -14.85680792], [13.2282427, -14.88124784], [13.19257871, -14.8961531], [13.16249312, -14.89964271], [13.12283117, -14.89347386], [13.08920739, -14.8759074], [13.06674069, -14.84961995], [13.05885144, -14.81861579], [13.06674069, -14.78761595], [13.08920739, -14.76133895], [13.12283117, -14.74378294], [13.14227363, -14.73917448], [13.17265178, -14.73800837], [13.21134947, -14.74718095], [13.24260922, -14.76722818], [13.26167202, -14.79510046], [13.26563574, -14.8265565]]], [[[12.43650232, -15.31318564], [12.4247635, -15.34350465], [12.39910928, -15.3679993], [12.36344529, -15.38293799], [12.3333597, -15.38643543], [12.29369775, -15.38025274], [12.26007397, -15.3626469], [12.23760727, -15.3363006], [12.22971802, -15.3052272], [12.23760727, -15.27415829], [12.26007397, -15.24782285], [12.29369775, -15.23022786], [12.31314021, -15.22560918], [12.34351836, -15.22444049], [12.38221605, -15.23363342], [12.4134758, -15.25372517], [12.4325386, -15.28165945], [12.43650232, -15.31318564]]]]}}]}