{"type": "FeatureCollection", "features": [{"type": "Feature", "properties": {"versao": "vigente", "fonte": "01_Mancha_Atual.kml"}, "geometry": {"type": "MultiPolygon", "coordinates": [[[[12.2532556, -16.97085779], [12.216648, -16.97036119], [12.1830292, -16.95641539], [12.1575217, -16.93114699], [12.1440073, -16.89840629], [12.1445373, -16.86317929], [12.1590236, -16.83082799], [12.1852566, -16.80627399], [12.2192439, -16.79325219], [12.2558175, -16.79374329], [12.2894166, -16.80767389], [12.3149303, -16.83292629], [12.3284732, -16.86565949], [12.3279772, -16.90089189], [12.3135106, -16.93325859], [12.2872714, -16.95782849], [12.2532556, -16.97085779]]], [[[12.545186, -15.89195059], [12.5318279, -15.76299479], [12.5182705, -15.75290009], [12.5427361, -15.76183509], [12.5828896, -15.74987509], [12.6461115, -15.76183509], [12.6973715, -15.76183509], [12.7315454, -15.74987509], [12.725565, -15.71570109], [12.691391, -15.68152709], [12.6512375, -15.65845969], [12.5316296, -15.56789969], [12.5145426, -15.53885169], [12.5256491, -15.49357129], [12.5598145, -15.45942209], [12.6156197, -15.48476029], [12.7466669, -15.50480459], [12.7530222, -15.51405909], [12.7608032, -15.59965419], [12.7554083, -15.63085079], [12.7770042, -15.71047499], [12.8658257, -15.73407269], [13.0111217, -15.73210529], [13.1772518, -15.69862559], [13.1931314, -15.74051759], [13.1818323, -15.80290029], [13.1605577, -15.82579329], [13.1622915, -15.85998149], [13.1332045, -15.94872569], [13.1393328, -15.97104929], [13.154417, -15.99242309], [13.1780376, -16.00373079], [13.1740217, -16.02697749], [13.1588926, -16.03917879], [13.1319122, -16.04771609], [13.0135832, -16.06454659], [12.9434767, -16.08351899], [12.8776741, -16.12532809], [12.7761412, -16.16405489], [12.7664843, -16.14051249], [12.7479763, -16.14180759], [12.7257071, -16.15212059], [12.7055979, -16.17329029], [12.6567831, -16.19836039], [12.6432285, -16.19065859], [12.6080847, -16.13183019], [12.606616, -16.08798409], [12.6138458, -16.05571559], [12.6061592, -16.02424429], [12.6115427, -15.99477389], [12.545186, -15.89195059]]], [[[11.9138916, -15.73175819], [11.980525, -15.78414439], [11.9960032, -15.77846339], [12.0220022, -15.79114819], [12.0537834, -15.79051019], [12.0828567, -15.80765989], [12.0966988, -15.83691879], [12.101841, -15.87290759], [12.0862598, -15.87707999], [12.0549412, -15.83988089], [12.0285835, -15.82044599], [12.0014534, -15.80895999], [11.9498444, -15.80027869], [11.925705, -15.78836819], [11.8984514, -15.76385569], [11.9138916, -15.73175819]]], [[[12.0656757, -15.78682519], [12.0497751, -15.78049469], [12.0280496, -15.77545839], [12.058733, -15.77792169], [12.0656757, -15.78682519]]], [[[11.9634051, -15.76096729], [11.9827156, -15.76921459], [12.0185952, -15.77454659], [12.0010643, -15.77418519], [11.9757204, -15.76812169], [11.9634051, -15.76096729]]], [[[13.3002472, -15.06552119], [13.3474417, -15.05053519], [13.3662205, -15.03040409], [13.4012938, -15.01717849], [13.4158602, -15.04395099], [13.4322987, -15.05453969], [13.4473381, -15.07706639], [13.4493361, -15.09819029], [13.4658909, -15.10251139], [13.4711037, -15.11002249], [13.4689875, -15.12878419], [13.4805079, -15.14895819], [13.5043755, -15.14316649], [13.50951, -15.15523429], [13.5276775, -15.16927149], [13.5744534, -15.19023609], [13.5718699, -15.25384809], [13.5606709, -15.25310329], [13.5442886, -15.27214809], [13.5404444, -15.28802199], [13.4776182, -15.31126499], [13.4479399, -15.34199909], [13.3852663, -15.38857839], [13.3681335, -15.38253399], [13.2856321, -15.31020929], [13.2465944, -15.26781559], [13.2739697, -15.20172689], [13.2569761, -15.18883989], [13.2670708, -15.15714259], [13.2324867, -15.13192459], [13.2839966, -15.07715229], [13.3002472, -15.06552119]]], [[[12.1391926, -15.12013439], [12.1291256, -15.11763759], [12.1239738, -15.12724109], [12.1162023, -15.12628389], [12.1218624, -15.10414789], [12.2204762, -15.08980179], [12.260561, -15.09415529], [12.2592478, -15.10953899], [12.2483721, -15.11782649], [12.1915827, -15.13251779], [12.1685333, -15.15012549], [12.1728048, -15.16892149], [12.1967201, -15.18347929], [12.2557859, -15.19087119], [12.2518854, -15.20110319], [12.231411, -15.21005339], [12.181572, -15.20966239], [12.1410332, -15.19486899], [12.1562729, -15.16819479], [12.1391926, -15.12013439]]], [[[12.5333376, -15.05785659], [12.5162506, -14.92287059], [12.5427361, -14.91176409], [12.5521336, -14.86392119], [12.570075, -14.83231069], [12.5780354, -14.76047709], [12.5361471, -14.73930739], [12.4239826, -14.71184829], [12.3535023, -14.70397659], [12.3673353, -14.61619189], [12.3439837, -14.59910199], [12.3361788, -14.52136329], [12.3616447, -14.49516579], [12.3891563, -14.40114589], [12.4167442, -14.38582799], [12.4048243, -14.31328299], [12.4274321, -14.30960749], [12.4931841, -14.36327649], [12.5190401, -14.39748859], [12.5388308, -14.38525769], [12.5791311, -14.35653019], [12.6119041, -14.31906889], [12.6065016, -14.26532749], [12.616374, -14.24615959], [12.6537943, -14.21221829], [12.684206, -14.20207209], [12.6993055, -14.18758299], [12.7139416, -14.16680809], [12.7144747, -14.14057729], [12.7261944, -14.11745259], [12.7462301, -14.09280199], [12.7883024, -14.06122679], [12.7906389, -14.03332329], [12.7696333, -13.98891929], [12.7591152, -13.92363449], [12.778758, -13.82935139], [12.7797995, -13.71866229], [12.79953, -13.67801189], [12.8176785, -13.65729999], [12.843379, -13.64303299], [12.9364672, -13.62924479], [12.923295, -13.66706089], [12.9530964, -13.68483539], [13.0376396, -13.71520999], [13.1409206, -13.85038849], [13.1609163, -13.85652069], [13.2037315, -13.84430029], [13.2741318, -13.84349159], [13.2845602, -13.82316589], [13.2552919, -13.74266339], [13.2690048, -13.67218109], [13.2480688, -13.62151999], [13.1942701, -13.65406319], [13.1688099, -13.65637869], [13.1484947, -13.63654229], [13.1334295, -13.59622569], [13.2319298, -13.56753059], [13.3244305, -13.51751609], [13.3376722, -13.50409029], [13.3592501, -13.45430559], [13.3662138, -13.38892459], [13.3302879, -13.32526489], [13.3285027, -13.29151339], [13.3116436, -13.26971719], [13.3082266, -13.20051569], [13.3244591, -13.18684669], [13.3646135, -13.20051569], [13.4092398, -13.23257919], [13.4604797, -13.24172589], [13.5545225, -13.24491789], [13.7345648, -13.35243229], [13.8189487, -13.37323089], [13.8510046, -13.39895729], [13.8787937, -13.43316269], [13.9211864, -13.51444049], [13.9532213, -13.54300789], [13.9920406, -13.59109969], [14.0224477, -13.69754639], [14.0043254, -13.68043939], [13.9777081, -13.66953139], [13.9488489, -13.66941069], [13.9283801, -13.67647359], [13.9016379, -13.69996009], [13.8889918, -13.73991379], [13.8486011, -13.74035669], [13.8176729, -13.75827929], [13.8015148, -13.78166459], [13.7957404, -13.80931319], [13.8043046, -13.84344779], [13.8283288, -13.86960559], [13.8621409, -13.88160569], [13.8954213, -13.87741429], [13.9196261, -13.94204179], [13.9744555, -13.99439979], [13.9750774, -14.06184689], [13.9598479, -14.12158739], [13.9704852, -14.15907329], [13.9655678, -14.19335029], [13.9818643, -14.23221329], [14.0109429, -14.25335269], [13.9799581, -14.27483769], [13.9633045, -14.31355849], [13.9668033, -14.41586859], [13.9858968, -14.47350269], [13.9504452, -14.46767329], [13.7832022, -14.41135689], [13.7201033, -14.40350819], [13.7309341, -14.35866359], [13.7636929, -14.31309699], [13.7674074, -14.26811119], [13.7392225, -14.18315119], [13.6745195, -14.08834359], [13.6441174, -14.10758779], [13.597187, -14.26629829], [13.5008354, -14.30284689], [13.4656687, -14.34887029], [13.4173374, -14.36785319], [13.3716621, -14.40342239], [13.3327103, -14.39463709], [13.3137341, -14.39538859], [13.2969809, -14.40416619], [13.2705269, -14.42471889], [13.2543325, -14.44692519], [13.2762871, -14.46589759], [13.2853308, -14.52196979], [13.2813396, -14.57776639], [13.3081198, -14.63704779], [13.2981434, -14.66363809], [13.2379942, -14.74049279], [13.2067394, -14.76207259], [13.1813765, -14.75412939], [13.141036, -14.72249319], [13.0324621, -14.66145229], [13.0192223, -14.64064219], [13.0291481, -14.61804959], [13.0558567, -14.61691379], [13.0780296, -14.60484409], [13.0860186, -14.59019089], [13.078618, -14.57406709], [13.0599804, -14.55656149], [13.0073233, -14.52007389], [12.9182777, -14.52611829], [12.8960295, -14.51194379], [12.8713179, -14.47262189], [12.7971182, -14.47781749], [12.7931337, -14.44009109], [12.7531691, -14.48196699], [12.7353592, -14.48327729], [12.724473, -14.49386689], [12.7371302, -14.54205319], [12.725234, -14.57314679], [12.7055349, -14.57954599], [12.6421394, -14.57696629], [12.644516, -14.60552979], [12.7316179, -14.63829329], [12.7616501, -14.67830749], [12.7752018, -14.71224879], [12.764472, -14.75756649], [12.8284016, -14.87020019], [12.8637171, -14.88523099], [12.8735256, -14.86948679], [12.8770084, -14.81370259], [12.8625784, -14.73357389], [12.8673182, -14.70403289], [12.8927746, -14.67665859], [12.923069, -14.67447189], [12.985878, -14.70833589], [13.0926476, -14.80080029], [13.1128702, -14.86212639], [13.1164026, -14.92603869], [13.1572971, -14.96110059], [13.1681976, -14.98127749], [13.1685686, -15.02459719], [13.1595421, -15.05489159], [13.1513872, -15.05386729], [13.1201248, -15.07371999], [13.0560322, -15.18027019], [12.9982882, -15.16911979], [12.8400793, -15.17705919], [12.7756481, -15.18987179], [12.7328482, -15.19062419], [12.6700907, -15.17952349], [12.5554609, -15.13072969], [12.5333376, -15.05785659]]], [[[12.9647474, -12.93710709], [12.9744759, -12.92276289], [12.9592943, -12.92148019], [12.9522142, -12.90976999], [12.9529095, -12.89284989], [12.9992971, -12.88428689], [13.0529346, -12.88488099], [13.0998421, -12.89845469], [13.1276255, -12.92588999], [13.1353045, -12.94745829], [13.1181145, -12.98073389], [13.0650959, -12.92740149], [12.9752235, -12.95765779], [12.9647474, -12.93710709]]], [[[13.2914553, -8.75439449], [13.3166585, -8.75898399], [13.3161755, -8.76543199], [13.2820093, -8.76645499], [13.2914553, -8.75439449]]], [[[12.9731196, -7.45195609], [12.9377811, -7.45179279], [12.9051973, -7.43814169], [12.8803304, -7.41308279], [12.8669654, -7.38043249], [12.867134, -7.34516209], [12.8808076, -7.31264019], [12.905903, -7.28781629], [12.9386006, -7.27446819], [12.9739251, -7.27462759], [13.0065018, -7.28827109], [13.0313727, -7.31332309], [13.0447505, -7.34597129], [13.0445959, -7.38124559], [13.0309293, -7.41377519], [13.0058299, -7.43860589], [12.9731196, -7.45195609]]], [[[12.2786596, -6.15054219], [12.2700424, -6.13010449], [12.2725424, -6.11779369], [12.2932884, -6.10650409], [12.2875214, -6.11540789], [12.3095884, -6.11014409], [12.3130875, -6.11973239], [12.2869749, -6.12559559], [12.2869034, -6.13295269], [12.2951107, -6.13513179], [12.2786596, -6.15054219]]], [[[12.2994804, -6.10415409], [12.2972865, -6.10439589], [12.3018396, -6.10195569], [12.2994804, -6.10415409]]], [[[12.3203955, -6.10279749], [12.3077574, -6.10002419], [12.304141, -6.10070949], [12.3181448, -6.09312629], [12.3203955, -6.10279749]]], [[[12.652772, -6.04534289], [12.6421623, -6.05387739], [12.6216775, -6.04579599], [12.6245718, -6.04424859], [12.652772, -6.04534289]]], [[[12.9507914, -5.95653099], [12.9480007, -5.96324389], [12.9473451, -5.95852279], [12.9507914, -5.95653099]]], [[[12.2412116, -5.75128229], [12.1841784, -5.64859529], [12.142844, -5.64057259], [12.1671734, -5.57733059], [12.180975, -5.56577829], [12.2023983, -5.56949419], [12.2203074, -5.55799099], [12.2305651, -5.52841469], [12.2305965, -5.49046089], [12.2216778, -5.44674489], [12.1941891, -5.36987829], [12.1694646, -5.33064239], [12.1738119, -5.30636219], [12.1685457, -5.29232219], [12.1311836, -5.22854999], [12.133502, -5.20278499], [12.0284505, -5.05479009], [12.0366554, -5.05028629], [12.0340481, -5.06243849], [12.0673504, -5.06122399], [12.0753622, -5.08522319], [12.1003828, -5.09333229], [12.1081753, -5.07619429], [12.1274548, -5.06032609], [12.1301422, -5.02357049], [12.1030006, -5.02394289], [12.0928307, -5.06864879], [12.0809956, -5.06598039], [12.0736151, -5.04819489], [12.0599947, -5.04045009], [12.0487995, -5.04307699], [12.0349665, -5.03394839], [12.0215671, -5.04613629], [12.0174131, -5.03720519], [12.0283766, -5.02578689], [12.0102053, -5.02722259], [12.110384, -4.95319459], [12.140275, -4.92226979], [12.1530533, -4.89704519], [12.1665363, -4.88521099], [12.2010903, -4.77433009], [12.2482529, -4.81909469], [12.296361, -4.82146689], [12.3314199, -4.79977269], [12.3475475, -4.77763799], [12.3591242, -4.75361389], [12.3587547, -4.73406419], [12.3723278, -4.72759629], [12.3744936, -4.69590569], [12.3854809, -4.68799879], [12.3869944, -4.66556069], [12.3956947, -4.66020579], [12.4023209, -4.64366579], [12.4586983, -4.60423039], [12.5657873, -4.58808039], [12.6386871, -4.5688028], [12.6849356, -4.5434928], [12.7011204, -4.5093617], [12.7135038, -4.4993577], [12.7272158, -4.4955802], [12.7537699, -4.5183992], [12.7702713, -4.5065932], [12.7247802, -4.4421321], [12.7276812, -4.4219475], [12.7636697, -4.3905984], [12.8020353, -4.4231138], [12.8161602, -4.426703], [12.8671656, -4.4060135], [12.8758163, -4.4479966], [12.8922825, -4.4806175], [12.9758024, -4.5597091], [13.0184422, -4.60617639], [13.020751, -4.61717369], [13.0538342, -4.62393199], [13.0755692, -4.63620759], [13.0803013, -4.64661689], [13.0707216, -4.66880319], [13.0832605, -4.68648669], [13.0523939, -4.67752839], [13.0301399, -4.69270899], [12.9860945, -4.70305349], [12.9234571, -4.73225499], [12.8798637, -4.73223639], [12.8631124, -4.73913289], [12.8571611, -4.75128349], [12.8394794, -4.75522849], [12.8362257, -4.76574519], [12.8210745, -4.77343179], [12.7833138, -4.82253359], [12.7749376, -4.84615229], [12.7766542, -4.86251019], [12.7620125, -4.86719129], [12.7117481, -4.90670679], [12.6978436, -4.93670419], [12.7037001, -4.94804239], [12.6974686, -4.95433329], [12.6717596, -4.95903919], [12.6395655, -4.95091339], [12.6326752, -4.96149299], [12.6354247, -4.96791099], [12.6170158, -4.97150469], [12.6332722, -4.99675989], [12.617629, -5.02234349], [12.5748024, -5.05094909], [12.552309, -5.05046939], [12.5219562, -5.06972409], [12.4921675, -5.06514449], [12.4793091, -5.06927249], [12.451663, -5.10720349], [12.475297, -5.13162949], [12.4964428, -5.13236899], [12.5119114, -5.13967319], [12.5191259, -5.15171619], [12.5147963, -5.18065399], [12.5222311, -5.19362019], [12.514286, -5.36486859], [12.5207064, -5.73460449], [12.2656851, -5.74328469], [12.2412116, -5.75128229]]], [[[23.3643036, -17.57927509], [23.3951022, -17.58558539], [23.4240131, -17.61244199], [23.428154, -17.63928029], [23.378315, -17.64931869], [23.36273, -17.62715719], [23.2508736, -17.54982759], [23.2728043, -17.55754089], [23.3220654, -17.55943299], [23.3643036, -17.57927509]]], [[[22.7526011, -17.59288479], [22.7161636, -17.59431959], [22.6819281, -17.58226439], [22.6551147, -17.55855469], [22.6398093, -17.52680349], [22.6383391, -17.49184949], [22.6509207, -17.45901729], [22.6756306, -17.43330519], [22.7087034, -17.41862429], [22.7451066, -17.41720469], [22.7793055, -17.42925939], [22.8061015, -17.45295329], [22.8214191, -17.48468239], [22.8229236, -17.51962119], [22.8103786, -17.55245389], [22.7856859, -17.57818189], [22.7526011, -17.59288479]]], [[[14.3947916, -17.38809199], [14.5733423, -17.29374689], [14.6015015, -17.29630849], [14.6057673, -17.31508059], [14.5345049, -17.38873099], [14.3947916, -17.38809199]]], [[[14.1579752, -14.06030849], [14.2241888, -14.18242069], [14.2324724, -14.22192479], [14.2292919, -14.27548119], [14.2200975, -14.29585269], [14.1654882, -14.34164619], [14.1163316, -14.40139319], [14.1098131, -14.38297039], [14.1081516, -14.30024019], [14.0897431, -14.27002339], [14.0655196, -14.25417119], [14.0964941, -14.23267429], [14.1328008, -14.18170079], [14.1402049, -14.16174279], [14.1388711, -14.12074559], [14.1488439, -14.07649999], [14.1422969, -14.04768709], [14.1236859, -14.01999749], [14.1579752, -14.06030849]]], [[[14.059646, -13.86395969], [14.0480381, -13.85935759], [14.0354315, -13.82589749], [14.0374026, -13.74668969], [14.0447769, -13.80721569], [14.059646, -13.86395969]]], [[[21.2307491, -13.09849449], [21.2180748, -13.13338179], [21.2040043, -13.14372919], [21.1698208, -13.14789489], [21.1581078, -13.15822789], [21.1292038, -13.15893839], [21.1120853, -13.15787789], [21.096632, -13.14425089], [21.0952492, -13.11971089], [21.1150913, -13.09392929], [21.1362686, -13.08697799], [21.1581554, -13.09429359], [21.2307491, -13.09849449]]], [[[20.8009666, -12.73937559], [20.8307419, -12.85022829], [20.8308067, -12.85879139], [20.8073082, -12.86972899], [20.7866383, -12.86409569], [20.7449074, -12.79744429], [20.7028141, -12.76104739], [20.7708359, -12.71512889], [20.7843952, -12.71622279], [20.8009666, -12.73937559]]], [[[13.413003, -12.59547999], [13.3839731, -12.60237289], [13.4074488, -12.57538989], [13.4484245, -12.54415939], [13.4543157, -12.54895229], [13.4383698, -12.56001569], [13.413003, -12.59547999]]], [[[20.8198147, -12.64585589], [20.756237, -12.48448369], [20.7555103, -12.46506879], [20.7736492, -12.45015619], [20.8060303, -12.45117859], [20.902813, -12.48449419], [20.8954239, -12.51935859], [20.8702641, -12.54001809], [20.8775902, -12.57482239], [20.8918381, -12.59018419], [20.908617, -12.62837509], [20.8993263, -12.64554409], [20.854187, -12.67427249], [20.8334961, -12.66407589], [20.8198147, -12.64585589]]], [[[13.5606227, -12.44929999], [13.5784721, -12.46060089], [13.5709482, -12.47405419], [13.5670519, -12.46133719], [13.5606227, -12.44929999]]], [[[13.5213289, -12.37693879], [13.5500737, -12.35203769], [13.5542698, -12.35596559], [13.5392704, -12.41297719], [13.5435054, -12.43122539], [13.4983194, -12.41636639], [13.5213289, -12.37693879]]], [[[22.8017197, -12.68217089], [22.7988396, -12.56113719], [22.81744, -12.54381279], [22.9191246, -12.53132339], [23.0128098, -12.49689669], [23.0062847, -12.49268909], [23.0182762, -12.46742919], [23.0844746, -12.40672679], [23.1075821, -12.37791059], [23.1212463, -12.34748459], [23.1467476, -12.24438669], [23.1191425, -12.13046259], [23.0773048, -12.04582409], [23.0604248, -11.97803689], [23.0756397, -11.93445299], [23.102705, -11.89758869], [23.1827049, -11.82698149], [23.2425709, -11.74801829], [23.2981205, -11.69537349], [23.3158951, -11.66831019], [23.3310947, -11.58985899], [23.2179298, -11.25412079], [23.2185898, -11.18269539], [23.2356339, -11.14764399], [23.2923946, -11.10469059], [23.3482742, -11.04402539], [23.3619499, -11.01986309], [23.3642098, -10.98586349], [23.4062595, -10.95672799], [23.4677162, -10.94103809], [23.5055695, -10.94626519], [23.534593, -10.95797069], [23.5863476, -10.99415869], [23.6290569, -10.99057959], [23.664402, -11.00723929], [23.7079411, -11.00781629], [23.7454681, -10.99227049], [23.7808266, -11.00615599], [23.8170738, -11.03864669], [23.8547211, -11.03842639], [23.8886299, -11.01886179], [23.9163517, -10.97322779], [23.9604645, -10.93843359], [23.9730892, -10.90533449], [23.988522, -10.89213359], [23.9929432, -10.89525389], [23.9865761, -10.91340639], [24.0156345, -10.93898109], [24.020277, -10.94772909], [24.0151367, -10.96060089], [24.0256004, -10.96935649], [24.0115128, -11.04961009], [24.0186653, -11.09562399], [24.0076981, -11.10986799], [24.0075588, -11.13222889], [24.0318465, -11.13884439], [24.0351276, -11.14970209], [24.0370502, -11.27552699], [24.0416546, -11.29733939], [24.0565739, -11.31283469], [24.067709, -11.34307289], [24.0813563, -11.40044609], [24.0212116, -11.42078019], [23.9465179, -11.47554779], [23.9183407, -11.47480109], [23.9111519, -11.49946779], [23.9069958, -11.52980609], [23.9328804, -11.53344349], [23.9789734, -11.51850989], [24.025366, -11.48598939], [24.0267696, -11.50694469], [24.0364773, -11.52033919], [23.994442, -11.60157009], [23.9907074, -11.63489719], [23.975708, -11.64321519], [23.9711704, -11.65566249], [23.9832153, -11.71472549], [23.9922619, -11.72200679], [23.9918938, -11.71334739], [23.9960953, -11.71799109], [24.0011978, -11.77843859], [24.0156231, -11.80440809], [24.0084038, -11.81565669], [24.0132296, -11.83655359], [23.9808426, -11.85098459], [23.9146461, -11.89845369], [23.9310837, -11.95965669], [23.9325409, -12.04132369], [23.8593788, -12.19314189], [23.8678188, -12.23815059], [23.9066448, -12.27131269], [23.9159756, -12.29974169], [23.9320889, -12.37833879], [23.9283943, -12.46805949], [23.8920975, -12.47941589], [23.8683796, -12.40321159], [23.840786, -12.34019279], [23.8109722, -12.31775279], [23.7802734, -12.31188579], [23.7228012, -12.32293699], [23.7214584, -12.34751419], [23.7325802, -12.37820909], [23.7481918, -12.39627739], [23.7717476, -12.39710329], [23.7890396, -12.41000749], [23.8036118, -12.43551059], [23.8023243, -12.46294119], [23.8117104, -12.49479769], [23.8452625, -12.49433989], [23.8485661, -12.51485439], [23.7549057, -12.64861769], [23.7227497, -12.73127839], [23.6920052, -12.75966639], [23.6597767, -12.77036759], [23.6326351, -12.76843829], [23.5746384, -12.71836379], [23.5481796, -12.72155669], [23.524931, -12.70529169], [23.4459534, -12.63090039], [23.4642868, -12.59926319], [23.5220337, -12.56541629], [23.5507412, -12.55648519], [23.642065, -12.48963169], [23.6351452, -12.46345039], [23.5855427, -12.41897199], [23.5608463, -12.38502119], [23.5783997, -12.29862979], [23.5536652, -12.30686469], [23.4926968, -12.39216609], [23.4351959, -12.51224709], [23.3790436, -12.60887809], [23.3202076, -12.68725299], [23.2807751, -12.72712519], [23.236536, -12.76190759], [23.119957, -12.80721569], [23.0832291, -12.83389469], [23.057888, -12.87357519], [22.9837875, -12.92577549], [22.8670998, -12.97041229], [22.8375378, -12.96501159], [22.8208122, -12.94976899], [22.8116875, -12.92988009], [22.8048286, -12.86143489], [22.7913589, -12.82560249], [22.7893066, -12.76338389], [22.8017197, -12.68217089]]], [[[12.8550873, -7.22393039], [12.8475056, -7.10055539], [12.8299966, -7.02750699], [12.8362474, -7.01637549], [12.82129, -6.97439959], [12.8102665, -6.95457409], [12.7980595, -6.94658369], [12.7414865, -6.85141519], [12.6874325, -6.79169549], [12.6577207, -6.81145489], [12.6142217, -6.81768679], [12.5729229, -6.80268409], [12.54358, -6.76999289], [12.5347682, -6.74497609], [12.5349461, -6.70971299], [12.5440083, -6.68478609], [12.5658512, -6.65823639], [12.3749666, -6.28956029], [12.2954101, -6.17602089], [12.3092775, -6.18245839], [12.3053067, -6.15972689], [12.3134911, -6.15221629], [12.3350029, -6.16969159], [12.3215616, -6.14225379], [12.3542786, -6.13844159], [12.3753834, -6.15435649], [12.3669405, -6.17655179], [12.3784428, -6.18526599], [12.3755894, -6.19718459], [12.3853674, -6.20421549], [12.3870258, -6.21809819], [12.3951387, -6.21193409], [12.3846111, -6.18672609], [12.3884163, -6.17067809], [12.3830109, -6.14571619], [12.3611917, -6.13255359], [12.4036674, -6.13701819], [12.4180317, -6.13473269], [12.4173784, -6.12393379], [12.4352913, -6.12392139], [12.4653177, -6.14478489], [12.4749565, -6.14215369], [12.4570665, -6.12006569], [12.4713469, -6.10990329], [12.4898157, -6.11773399], [12.5012789, -6.14203739], [12.5588741, -6.15314529], [12.5866146, -6.14867689], [12.6151543, -6.15848349], [12.6468039, -6.15291309], [12.5878391, -6.13948869], [12.5681009, -6.14498329], [12.5189667, -6.13490769], [12.5061913, -6.13013939], [12.5092611, -6.11913919], [12.4990206, -6.11210349], [12.4995842, -6.09968999], [12.5249271, -6.12093159], [12.5161951, -6.10872269], [12.5397711, -6.11125469], [12.5233679, -6.10207079], [12.5202436, -6.09282729], [12.5530701, -6.08152059], [12.5596819, -6.08482689], [12.5566034, -6.09720949], [12.6022339, -6.11551759], [12.6070995, -6.10844759], [12.5694504, -6.09346529], [12.5892944, -6.08419179], [12.5961876, -6.07172389], [12.6128063, -6.08298109], [12.6423035, -6.08750389], [12.6764336, -6.08587309], [12.6827755, -6.07973379], [12.6619329, -6.06681489], [12.6572981, -6.07365939], [12.627285, -6.07626719], [12.6026678, -6.06329389], [12.6133935, -6.05022479], [12.6400909, -6.06353379], [12.6578602, -6.04641499], [12.6751585, -6.04512359], [12.6951809, -6.06102749], [12.7373085, -6.06179519], [12.7577372, -6.05561109], [12.794754, -6.06643869], [12.8536158, -6.03679699], [12.8780172, -6.00967309], [12.8982944, -6.00466349], [12.9335213, -5.98000569], [12.944066, -5.97898579], [12.9563293, -5.95836589], [12.9559977, -5.93467289], [13.0029774, -5.90832469], [13.0354614, -5.91470859], [13.0909557, -5.90731759], [13.0991468, -5.91593979], [13.1282282, -5.91882559], [13.1312828, -5.90711399], [13.1542702, -5.89587209], [13.1925697, -5.89126249], [13.2213135, -5.87593889], [13.2299662, -5.88479659], [13.2464905, -5.88130659], [13.2858086, -5.89859289], [13.3026619, -5.91630459], [13.3274193, -5.91682669], [13.3289862, -5.92329739], [13.3397846, -5.91927769], [13.3480024, -5.92536689], [13.3618116, -5.91654209], [13.3787384, -5.88447809], [13.4023409, -5.88682889], [13.431796, -5.86969979], [13.5069304, -5.86876149], [13.5485468, -5.87898249], [13.5729752, -5.87407539], [13.8292685, -5.87507199], [13.8658673, -5.86227279], [13.917373, -5.85552239], [13.9514189, -5.85785289], [13.9884067, -5.84337989], [13.9950134, -5.81527099], [14.0146422, -5.78596129], [14.0439743, -5.76640399], [14.0785453, -5.75957579], [14.1211003, -5.77032359], [14.1483061, -5.79275489], [14.164872, -5.82390569], [14.1670631, -5.86712929], [14.1772575, -5.86160799], [14.2315931, -5.88922309], [14.2952003, -5.88230089], [14.3660202, -5.89604139], [14.4586296, -5.90117549], [14.5312187, -5.89548569], [14.5951385, -5.91024729], [14.6937874, -5.88274339], [14.9613686, -5.87348029], [15.5258722, -5.87689069], [15.6701059, -5.87010149], [15.8569479, -5.88074539], [16.3659401, -5.86469319], [16.3843365, -5.86756179], [16.4146042, -5.89220089], [16.454607, -5.89630509], [16.4781761, -5.88280919], [16.5116882, -5.87844469], [16.5728464, -5.90784449], [16.5687943, -5.94860889], [16.5906391, -5.95473429], [16.5821762, -5.96925739], [16.5924721, -5.98346229], [16.5988293, -6.00957679], [16.5936203, -6.03984019], [16.6076736, -6.04063219], [16.5993366, -6.06487849], [16.631916, -6.06994479], [16.6080589, -6.07535409], [16.6067257, -6.08570719], [16.611578, -6.09166569], [16.6479263, -6.09979299], [16.6455231, -6.12739559], [16.6595287, -6.12434859], [16.6706238, -6.13786839], [16.6977806, -6.14603139], [16.7215443, -6.16593549], [16.7211494, -6.17996309], [16.7291987, -6.18794259], [16.7112179, -6.19997599], [16.70825, -6.20874689], [16.7153034, -6.22459529], [16.7094784, -6.29083779], [16.717123, -6.30345059], [16.7209072, -6.33226679], [16.6965313, -6.33052439], [16.6822853, -6.33761879], [16.6918843, -6.35560969], [16.6882057, -6.36426969], [16.6945145, -6.36672729], [16.6842079, -6.39172219], [16.6911511, -6.39657109], [16.6934738, -6.41022829], [16.7176791, -6.40970809], [16.7001381, -6.43456889], [16.7183176, -6.45704229], [16.7167606, -6.48596999], [16.7227554, -6.49732729], [16.7425158, -6.51183849], [16.7552299, -6.53539939], [16.7382469, -6.57784409], [16.7417068, -6.59011079], [16.760355, -6.60430429], [16.7562466, -6.65767339], [16.7686958, -6.70765689], [16.7726116, -6.71923259], [16.8052959, -6.73788399], [16.8138256, -6.80818179], [16.8211918, -6.82000399], [16.843977, -6.82520059], [16.8520317, -6.88347479], [16.883791, -6.88386109], [16.9097958, -6.90547799], [16.9183083, -6.93278649], [16.9111691, -6.95308729], [16.9240532, -6.97232819], [16.909544, -6.99420929], [16.9128321, -7.02143439], [16.8810749, -7.05235859], [16.8704777, -7.08475689], [16.8666286, -7.14800789], [16.8755093, -7.21024179], [16.8549938, -7.25566859], [16.8375721, -7.26691009], [16.7706356, -7.24175309], [16.7145786, -7.23493479], [16.6050854, -7.26178169], [16.5195827, -7.24778219], [16.4355755, -7.26684949], [16.412302, -7.28484729], [16.3544903, -7.35550169], [16.3456402, -7.37764739], [16.3525887, -7.45186899], [16.3956528, -7.49740119], [16.4592304, -7.51063439], [16.5955181, -7.55825999], [16.6856899, -7.58084389], [16.7438908, -7.62476919], [16.7880707, -7.69022989], [16.8045521, -7.74116329], [16.7980194, -7.76677469], [16.8226357, -7.81493429], [16.861269, -7.84667869], [16.8908062, -7.84980489], [16.9393768, -7.86907859], [16.989603, -7.90433549], [17.0183926, -7.93939779], [17.0142078, -7.96218539], [17.0284977, -7.99940349], [17.0608196, -8.02707579], [17.06534, -8.04937169], [17.0768681, -8.06259729], [17.0464706, -8.10684779], [17.0956593, -8.12895769], [17.1054401, -8.14445109], [17.1056023, -8.22435569], [17.185154, -8.33061699], [17.2472286, -8.33797069], [17.2757416, -8.32335569], [17.2909126, -8.30578229], [17.3213654, -8.24551869], [17.3923836, -8.19355389], [17.3964863, -8.18388179], [17.3808346, -8.18090919], [17.3699207, -8.15571589], [17.3802605, -8.04450799], [17.4000759, -8.02126029], [17.4256039, -8.01745699], [17.4674511, -7.99322699], [17.4899521, -7.95395609], [17.4837646, -7.99999999], [17.5075397, -8.01320079], [17.5325928, -8.04393859], [17.5171986, -8.04654119], [17.504734, -8.06883809], [17.505476, -8.08283329], [17.528265, -8.09248829], [17.529377, -8.10188289], [17.5603333, -8.12745089], [17.6202679, -8.13163659], [17.7249279, -8.10159869], [17.7572899, -8.10317039], [17.8083191, -8.11799139], [17.8442688, -8.09421439], [17.8827, -8.08313079], [17.954347, -8.08899579], [17.9819641, -8.11271569], [18.0, -8.09760089], [18.1003609, -8.09905719], [18.1034698, -8.08732889], [18.091795, -8.06649489], [18.0981979, -8.04018399], [18.1351719, -8.03478619], [18.1630494, -8.00556409], [18.2169762, -7.98945379], [18.2613068, -7.99390789], [18.2730597, -7.98994609], [18.3127022, -8.01761629], [18.322337, -8.01470809], [18.3540211, -8.02652929], [18.3659665, -8.02199319], [18.3756599, -8.02732559], [18.418835, -7.99999999], [18.5273247, -7.99999999], [18.535759, -7.96003289], [18.53232, -7.92037629], [18.6353416, -7.92552849], [18.7640659, -7.92150759], [18.7759991, -7.98649929], [18.806715, -8.00275419], [19.374403, -7.99999999], [19.3566513, -7.91270689], [19.3438566, -7.89830819], [19.3643856, -7.86125849], [19.3616314, -7.81190249], [19.3866825, -7.78268149], [19.4009228, -7.71389909], [19.4092922, -7.70086619], [19.3978577, -7.65096809], [19.3776894, -7.61686129], [19.3702679, -7.59022989], [19.3848114, -7.57385919], [19.4663105, -7.57375239], [19.4837341, -7.55645659], [19.482363, -7.54897459], [19.4938698, -7.53302379], [19.4864657, -7.51579319], [19.4915199, -7.50370839], [19.5136833, -7.49590209], [19.5311552, -7.47051719], [19.5493011, -7.47360229], [19.5447426, -7.45703319], [19.5264407, -7.44140039], [19.5328941, -7.43157959], [19.5209656, -7.42460059], [19.4944248, -7.36797859], [19.5034771, -7.35540389], [19.4871597, -7.31349559], [19.5050507, -7.20909359], [19.495575, -7.17779059], [19.5034447, -7.17003009], [19.5168137, -7.12238499], [19.5347214, -7.08678149], [19.562788, -7.05744459], [19.5473385, -7.03024719], [19.54376, -7.00701309], [19.6567516, -7.01091959], [19.692255, -7.00428579], [19.8294239, -7.00722839], [20.0405445, -7.00049349], [20.2977943, -7.00574969], [20.3166599, -6.95645999], [20.3214779, -6.92052939], [20.3270054, -6.91868729], [20.6254821, -6.91784869], [20.6184711, -6.97555589], [20.58951, -7.00599669], [20.5752563, -7.06957669], [20.5515842, -7.11264799], [20.5436115, -7.14408159], [20.5362206, -7.21930409], [20.5416832, -7.28142979], [20.556698, -7.28137619], [20.5571117, -7.28683809], [20.5697975, -7.29143519], [20.6861954, -7.29159779], [20.7979641, -7.28203149], [20.8619995, -7.29346799], [21.0171261, -7.28515959], [21.2247353, -7.29096599], [21.6181976, -7.28075649], [21.7843399, -7.28764869], [21.7871342, -7.30289029], [21.8197441, -7.32755139], [21.8382359, -7.38577939], [21.8288059, -7.40287489], [21.8533222, -7.42722399], [21.8556652, -7.44246579], [21.8430309, -7.45907779], [21.8569069, -7.47502709], [21.836359, -7.52000329], [21.8532772, -7.55706119], [21.851593, -7.57306099], [21.8426075, -7.58305219], [21.8476734, -7.60487559], [21.8282127, -7.62216569], [21.8238068, -7.65302899], [21.8103294, -7.66183659], [21.8110352, -7.68225239], [21.7965984, -7.71386339], [21.7954655, -7.73078059], [21.7860432, -7.74051279], [21.7836132, -7.76000209], [21.7680435, -7.77742429], [21.7778492, -7.81726739], [21.7641945, -7.83106899], [21.7620564, -7.84535649], [21.7706738, -7.89362719], [21.7680664, -7.90744499], [21.7454662, -7.92802379], [21.7454491, -7.93879939], [21.7597542, -7.95990229], [21.769146, -8.00134469], [21.7814541, -8.01175399], [21.7879467, -8.03109839], [21.8139687, -8.05613799], [21.854845, -8.14398769], [21.8885157, -8.17980919], [21.8778572, -8.19723419], [21.8959732, -8.25732609], [21.8961258, -8.29108049], [21.9361706, -8.32450959], [21.9192772, -8.35650439], [21.918108, -8.38359169], [21.9428616, -8.42652889], [21.9507179, -8.45071219], [21.9498138, -8.47412869], [21.9596435, -8.49584599], [21.9423847, -8.53055949], [21.9459541, -8.56224939], [21.9377346, -8.56492039], [21.9305229, -8.59177679], [21.9226017, -8.59997369], [21.9351402, -8.60730299], [21.9174118, -8.63108539], [21.9152059, -8.66896529], [21.8957348, -8.70071979], [21.9037893, -8.76050059], [21.8941708, -8.80530449], [21.8808708, -8.81797119], [21.8814659, -8.83366399], [21.869545, -8.84796999], [21.8703195, -8.88130919], [21.8615551, -8.90953729], [21.8654062, -8.92371599], [21.8525162, -8.97908119], [21.8505592, -9.02270979], [21.8555688, -9.04000059], [21.8413982, -9.06286999], [21.8436451, -9.11915399], [21.8609562, -9.17216869], [21.8629487, -9.22713089], [21.8486366, -9.24623969], [21.8296895, -9.30759729], [21.8116875, -9.33195589], [21.8118031, -9.36360529], [21.7928905, -9.42043209], [21.834837, -9.46495819], [21.8299007, -9.49732209], [21.835741, -9.51645759], [21.8681679, -9.56571869], [21.866478, -9.59788609], [21.8753548, -9.61497879], [21.8708057, -9.63079739], [21.8778915, -9.64120769], [21.875927, -9.65314389], [21.9375343, -9.69050119], [21.94837, -9.75241469], [21.9765205, -9.76591299], [22.0063992, -9.76216599], [22.002203, -9.78462699], [22.0123615, -9.81575109], [22.0254059, -9.83517739], [22.0446396, -9.83649249], [22.0732689, -9.87766169], [22.0956917, -9.88589759], [22.1166534, -9.87526799], [22.1301746, -9.89423269], [22.1526909, -9.89165879], [22.1913643, -9.92692089], [22.1893425, -9.94736669], [22.2087402, -9.98684119], [22.1982021, -9.99894329], [22.2186642, -10.02209849], [22.2125149, -10.03653619], [22.2250004, -10.07089519], [22.2226715, -10.15871619], [22.2357063, -10.18342209], [22.2361946, -10.20941159], [22.2823397, -10.26889349], [22.2821407, -10.30175399], [22.3067913, -10.32769969], [22.3279533, -10.38512039], [22.3258054, -10.41053299], [22.3121223, -10.42556379], [22.3095651, -10.44736879], [22.2968979, -10.45241639], [22.2949722, -10.48062799], [22.2776737, -10.51628489], [22.314003, -10.54191589], [22.3182868, -10.57625179], [22.3114452, -10.58678339], [22.3189888, -10.64493469], [22.3140965, -10.67617699], [22.3242226, -10.69005389], [22.3339405, -10.75774769], [22.3240551, -10.77473399], [22.3097668, -10.78405229], [22.288147, -10.78496839], [22.2563133, -10.79752539], [22.220662, -10.82147179], [22.2095222, -10.82196809], [22.2021435, -10.83606309], [22.1805782, -10.84918499], [22.1733379, -10.86856939], [22.181963, -10.90744779], [22.2078876, -10.95411869], [22.2068329, -10.99804309], [22.2206383, -11.04737759], [22.2042198, -11.08219149], [22.2129459, -11.11517239], [22.2499294, -11.14383129], [22.2618637, -11.17960739], [22.2547329, -11.22987499], [22.2255917, -11.22069069], [22.1611652, -11.12581629], [22.1112728, -11.11879539], [22.0489197, -11.09758089], [22.0232639, -11.10863689], [22.0265446, -11.13946339], [22.042532, -11.15875629], [22.0268307, -11.16459849], [21.9290867, -11.12306589], [21.9022344, -11.10015659], [21.91479, -11.05823519], [21.9111689, -11.03745809], [21.8972174, -11.01304879], [21.8615829, -10.99067929], [21.8100053, -10.99199449], [21.7497377, -11.01999879], [21.715497, -11.06379449], [21.6559933, -11.10544779], [21.6004771, -11.16773679], [21.5893075, -11.20088479], [21.5927268, -11.22873019], [21.6116002, -11.25828109], [21.6355809, -11.27333159], [21.6049671, -11.29213619], [21.5687771, -11.30836109], [21.4838562, -11.31859399], [21.4593277, -11.32902239], [21.4369965, -11.32401279], [21.4141159, -11.33697609], [21.3663311, -11.33953569], [21.3162766, -11.33154959], [21.2424488, -11.33822539], [21.1508865, -11.39753059], [21.1163883, -11.41026689], [21.0841541, -11.41327569], [21.0625877, -11.42994309], [21.0368404, -11.43748759], [21.0085239, -11.49131489], [20.9458599, -11.50586799], [20.8190689, -11.49723429], [20.8003292, -11.50187589], [20.8080864, -11.52012729], [20.8351612, -11.53144929], [20.8487682, -11.54682159], [20.8168488, -11.59550189], [20.7969265, -11.59957599], [20.786768, -11.57447719], [20.7522354, -11.57394979], [20.7587891, -11.60142989], [20.7794533, -11.61849209], [20.8989773, -11.66830159], [20.9434433, -11.72524359], [20.9436951, -11.75780299], [20.940361, -11.78238009], [20.9163494, -11.79104899], [20.8903904, -11.77515979], [20.8749809, -11.75637049], [20.8308964, -11.75025839], [20.8055096, -11.73150249], [20.7921295, -11.74869349], [20.7564011, -11.76138879], [20.736784, -11.81115629], [20.6868286, -11.89187149], [20.687067, -11.92671389], [20.714777, -11.94032859], [20.7254391, -11.95285889], [20.6905785, -12.09577559], [20.6966915, -12.13002489], [20.7420025, -12.21896839], [20.7677879, -12.28855419], [20.76717, -12.34364989], [20.7411404, -12.34690479], [20.6863308, -12.33395669], [20.6054478, -12.29195499], [20.5602036, -12.30008699], [20.5262108, -12.32017329], [20.4654026, -12.38201999], [20.4382114, -12.45918659], [20.3937626, -12.50783729], [20.375721, -12.54385569], [20.3609962, -12.64496419], [20.3854408, -12.69572729], [20.4299393, -12.74872109], [20.4826088, -12.78626819], [20.7575989, -12.92472079], [20.7995491, -12.93769839], [20.8333015, -12.95755289], [20.8950214, -13.01040459], [20.9147053, -13.03944019], [20.9353657, -13.11813349], [20.936594, -13.15508269], [20.9787865, -13.23839469], [20.9916096, -13.29256439], [21.0605087, -13.41725059], [21.0802193, -13.44455529], [21.2110844, -13.55235199], [21.3094654, -13.65169999], [21.3615608, -13.72559259], [21.3699591, -13.78875399], [21.3820508, -13.75931769], [21.3996345, -13.73930779], [21.4223999, -13.72514849], [21.4573823, -13.71738859], [21.5096137, -13.73150759], [21.5356567, -13.75561919], [21.5478531, -13.77914199], [21.5523456, -13.81392819], [21.5427677, -13.84907649], [21.5207704, -13.87678069], [21.4895907, -13.89414999], [21.453976, -13.89853639], [21.4193536, -13.88926889], [21.3910009, -13.86775749], [21.3740953, -13.83987509], [21.3794193, -13.93031019], [21.3597336, -14.04108239], [21.3701153, -14.07581809], [21.4008427, -14.07051279], [21.4409294, -14.05374239], [21.4560394, -14.02456379], [21.4722366, -13.92407229], [21.5010166, -13.90279389], [21.5290623, -13.92772579], [21.5449295, -13.97725769], [21.5391884, -14.05543989], [21.513401, -14.14229109], [21.4901695, -14.18862719], [21.4829121, -14.23429389], [21.4904366, -14.27759079], [21.4886131, -14.33405589], [21.4998875, -14.39728069], [21.5138283, -14.42912769], [21.5262146, -14.48378659], [21.5242119, -14.52142719], [21.5334949, -14.56127739], [21.5359592, -14.63080879], [21.530632, -14.69240279], [21.4758663, -14.73319819], [21.4421921, -14.74764349], [21.3205853, -14.74832149], [21.2551098, -14.72358699], [21.2195129, -14.72262949], [21.1958847, -14.73414799], [21.1771183, -14.75931839], [21.1649399, -14.79186339], [21.1764927, -14.82429219], [21.2709656, -14.90473459], [21.3264732, -14.93863009], [21.3747139, -15.01927569], [21.3964558, -15.12170309], [21.3916321, -15.17755599], [21.383131, -15.22146419], [21.3399429, -15.32914729], [21.3864269, -15.38319299], [21.4492455, -15.48647399], [21.5445023, -15.67662619], [21.5848885, -15.72760679], [21.7372036, -15.83419129], [21.7837677, -15.90045549], [21.7960396, -15.93394369], [21.8153458, -15.95657059], [21.8526821, -16.04734039], [21.9190884, -16.12365909], [21.9773884, -16.16589159], [21.9997234, -16.16737559], [22.0031643, -16.20798489], [22.05723, -16.26012799], [22.0750027, -16.26710699], [22.0693798, -16.29505729], [22.1093944, -16.34675359], [22.1278167, -16.40673429], [22.1288872, -16.45065879], [22.1389683, -16.48310009], [22.1251602, -16.49801829], [22.1543102, -16.50010679], [22.1786346, -16.53418159], [22.2148337, -16.55954269], [22.2257729, -16.57684709], [22.2611871, -16.58513019], [22.2831516, -16.62413409], [22.3536091, -16.68361659], [22.3552132, -16.69922449], [22.3802094, -16.71027429], [22.4823456, -16.82017329], [22.4976787, -16.82895379], [22.4969578, -16.83647159], [22.5159645, -16.85717959], [22.686367, -17.01700399], [22.6941009, -17.02550439], [22.6886864, -17.03339199], [22.6927319, -17.03936579], [22.7120323, -17.04521309], [22.7244282, -17.06467059], [22.7361565, -17.07048419], [22.7370529, -17.08121679], [22.7858887, -17.12252239], [22.8053642, -17.15907569], [22.8064384, -17.17241289], [22.8764019, -17.20326229], [23.0109548, -17.29297779], [23.0106239, -17.30571559], [23.0671947, -17.36713079], [23.0847836, -17.41015619], [23.1285262, -17.43625329], [23.1295414, -17.44571879], [23.1472607, -17.46040149], [23.1417637, -17.46797939], [23.1467915, -17.47165109], [23.1872425, -17.48286819], [23.2159557, -17.52158159], [23.0423622, -17.40440749], [23.0214081, -17.36490629], [22.9777946, -17.33075139], [22.9291248, -17.31821059], [22.7852859, -17.30492399], [22.6272392, -17.31153679], [22.6059818, -17.32312579], [22.5652313, -17.31953429], [22.5372028, -17.32717129], [22.4585171, -17.30631829], [22.3801308, -17.27203749], [22.1968231, -17.24554439], [22.0977173, -17.21397589], [21.906292, -17.11037639], [21.8320847, -17.10635949], [21.802681, -17.09747699], [21.7273502, -17.09968949], [21.6921844, -17.11127659], [21.6636734, -17.13019749], [21.5887165, -17.11136439], [21.5195999, -17.07714649], [21.4795456, -17.07851599], [21.264677, -17.12455179], [21.1675797, -17.16988749], [21.1377354, -17.17741199], [21.0826626, -17.17312429], [21.038847, -17.15515329], [21.0003414, -17.12750049], [21.0090809, -17.09907339], [21.040102, -17.08985139], [21.0694084, -17.09028819], [21.1059799, -17.10091019], [21.190876, -17.09766769], [21.2701759, -17.07114979], [21.3975124, -17.00402449], [21.4381351, -17.00095559], [21.4856071, -17.02566909], [21.6224689, -17.07822039], [21.7114353, -17.06515499], [21.7307987, -17.03038599], [21.7551117, -17.01148409], [21.7896996, -17.00329969], [21.8887711, -17.04122539], [21.9088955, -17.02290919], [21.8696308, -16.93288419], [21.818119, -16.86848829], [21.7867832, -16.84427639], [21.7016106, -16.75678249], [21.6464176, -16.73384279], [21.5715656, -16.71499059], [21.4818363, -16.63937949], [21.401947, -16.58925439], [21.3784351, -16.56494519], [21.286068, -16.51655769], [21.1502953, -16.48312949], [21.1238403, -16.45994759], [21.0586624, -16.37155529], [21.0095215, -16.34391019], [20.9025478, -16.31763079], [20.8541946, -16.31213379], [20.8588276, -16.29392049], [20.9366436, -16.25437159], [21.0393505, -16.27156259], [21.1160431, -16.31443209], [21.1527615, -16.35349269], [21.2146511, -16.40436169], [21.2041283, -16.36120219], [21.1966972, -16.26172639], [21.1975365, -16.22134399], [21.2165661, -16.21556279], [21.2406044, -16.23705289], [21.2521725, -16.26372339], [21.2572365, -16.36320879], [21.2728329, -16.43874549], [21.2987099, -16.46305659], [21.4391823, -16.48786539], [21.563055, -16.58092309], [21.5903301, -16.62167739], [21.6905575, -16.67105099], [21.7959595, -16.69876099], [21.8297138, -16.72693819], [21.8933353, -16.80773929], [21.9606171, -16.94472309], [21.9798698, -17.00762369], [22.0271072, -17.11062049], [22.0716114, -17.13128849], [22.1806145, -17.14291949], [22.2329559, -17.16747469], [22.2728405, -17.19950289], [22.3667526, -17.19813729], [22.4171658, -17.21018409], [22.5194263, -17.25127409], [22.6754951, -17.24299429], [22.733345, -17.22937389], [22.8336334, -17.25448609], [22.8664017, -17.24450109], [22.7614498, -17.17343519], [22.7278938, -17.13972469], [22.6437664, -17.02526659], [22.598362, -16.94050409], [22.5292969, -16.91615299], [22.400631, -16.85766409], [22.3523941, -16.82399749], [22.3580132, -16.79611019], [22.3190823, -16.74133109], [22.2675514, -16.63265799], [22.2058125, -16.56439779], [22.1504993, -16.53773879], [22.1163673, -16.50787349], [22.1010094, -16.48483469], [22.0838108, -16.42500109], [22.0531979, -16.37857439], [22.0003777, -16.35054589], [21.9857292, -16.32165719], [21.9761391, -16.26542849], [21.9542675, -16.22976299], [21.8949127, -16.20062069], [21.876215, -16.18141749], [21.851738, -16.12414169], [21.8311386, -16.09357069], [21.7384033, -16.00374979], [21.7000256, -15.98010829], [21.6855717, -15.94606399], [21.6710777, -15.94615839], [21.658329, -15.92291159], [21.6222477, -15.88900089], [21.5856953, -15.86703679], [21.4985619, -15.84764769], [21.3972969, -15.84424689], [21.3658466, -15.82159899], [21.3862762, -15.81187059], [21.397131, -15.76343439], [21.3838253, -15.61380479], [21.3288555, -15.49193099], [21.2696934, -15.42653179], [21.2387848, -15.42782969], [21.2152462, -15.45584959], [21.2156258, -15.49912169], [21.231472, -15.54231259], [21.2682457, -15.59677789], [21.240036, -15.63620279], [21.2116108, -15.65171619], [21.1693993, -15.65647789], [21.1384106, -15.65093519], [21.0977421, -15.62664889], [21.0829678, -15.63867089], [21.0644112, -15.69738579], [21.0443287, -15.71625899], [20.9822083, -15.76320269], [20.90238, -15.78571699], [20.8123531, -15.73655989], [20.6673183, -15.67957499], [20.6279831, -15.67116259], [20.5684376, -15.66565039], [20.3185368, -15.67197129], [20.2780247, -15.66351599], [20.2080898, -15.60501479], [20.1066017, -15.53572079], [20.0654602, -15.51528069], [20.0237904, -15.50736049], [19.8048668, -15.49387359], [19.759346, -15.47595409], [19.7766304, -15.41986269], [19.7973232, -15.38967419], [19.8554668, -15.36060049], [20.031744, -15.30178259], [20.0464783, -15.27556509], [20.0366993, -15.21805099], [20.004343, -15.15941909], [19.986454, -15.14405629], [19.8680782, -15.10428139], [19.8382435, -15.06954859], [19.8321037, -15.01941589], [19.8670597, -15.00116249], [19.9051018, -15.01139159], [19.9253521, -15.02618789], [19.943121, -15.01591679], [19.9435921, -14.98799799], [19.9345932, -14.96635529], [19.8599777, -14.86669249], [19.7784176, -14.79948809], [19.6827145, -14.74764629], [19.628603, -14.70831779], [19.6184635, -14.69121649], [19.6395035, -14.59830759], [19.636467, -14.57664489], [19.6150894, -14.56638149], [19.5812931, -14.56466389], [19.5161686, -14.59485239], [19.4990196, -14.61023519], [19.4676914, -14.64498899], [19.4429245, -14.69741059], [19.4335346, -14.73559189], [19.4342003, -14.76294899], [19.4584618, -14.95785899], [19.4515858, -15.05015469], [19.4314384, -15.06552219], [19.3886948, -15.07118509], [19.3135395, -15.04655649], [19.2770939, -15.09271339], [19.2635174, -15.13314249], [19.3316059, -15.29669759], [19.2992516, -15.44927879], [19.3064671, -15.48515889], [19.3127403, -15.63204959], [19.2709599, -15.85453989], [19.273428, -15.89551349], [19.26404, -15.96321199], [19.2766819, -16.02581019], [19.3132362, -16.11971469], [19.3270779, -16.17774769], [19.3099613, -16.25507349], [19.2631321, -16.38921359], [19.2191925, -16.49716759], [19.1430645, -16.65448759], [19.1413593, -16.70562739], [19.1594257, -16.79372599], [19.2127266, -16.86368559], [19.3498707, -16.99221989], [19.6284618, -17.17464639], [19.7579632, -17.25183869], [19.8084183, -17.30063439], [19.8726559, -17.34883879], [19.971283, -17.45146749], [20.0373802, -17.50019069], [20.0776958, -17.53928379], [20.1208725, -17.54943469], [20.1779861, -17.58962249], [20.2584572, -17.62521359], [20.321476, -17.64437099], [20.4351044, -17.70649719], [20.5011311, -17.72277259], [20.5781193, -17.76395029], [20.684412, -17.79140659], [20.7458191, -17.82748599], [20.8053379, -17.84938619], [20.8667717, -17.88487049], [20.9220428, -17.89769169], [21.0489464, -17.86937899], [21.1509113, -17.87231249], [21.3522034, -17.91550829], [21.4775505, -17.97658919], [21.5153989, -18.00481769], [21.424722, -18.02196629], [21.4166756, -18.01391979], [21.3852868, -18.00839089], [21.356945, -17.98661419], [21.3219604, -17.98575969], [21.281004, -17.96528239], [21.2673512, -17.96613499], [21.2417526, -17.95504189], [21.2195663, -17.93371009], [21.1572781, -17.93456269], [21.138504, -17.94138909], [21.1180248, -17.93797679], [21.1009617, -17.95077509], [21.0710945, -17.94651029], [21.0607554, -17.95258419], [21.0050585, -17.95883359], [20.980648, -17.95504189], [20.9439564, -17.96698759], [20.9277439, -17.98490719], [20.8944664, -17.99344059], [20.8517704, -18.02759549], [20.8168678, -18.03462219], [20.7627869, -18.02204129], [20.7502613, -18.00879859], [20.719059, -18.01279829], [20.6758556, -17.98674199], [20.6461601, -17.97808069], [20.5916119, -17.97508049], [20.5475963, -17.98318969], [20.477457, -17.94383619], [20.4582024, -17.91246219], [20.3595597, -17.89235219], [20.3167915, -17.86459349], [20.2997284, -17.86886019], [20.2950334, -17.87590339], [20.2673035, -17.87056729], [20.2596245, -17.87398149], [20.2502384, -17.89275359], [20.2408504, -17.89616579], [20.234024, -17.88933939], [20.1700287, -17.88080599], [20.1657619, -17.88933939], [20.1137123, -17.91237829], [20.0829945, -17.89531329], [20.059103, -17.89189909], [20.030265, -17.90236129], [19.9968128, -17.88933939], [19.9776363, -17.89021489], [19.9391136, -17.86487389], [19.9131889, -17.86630059], [19.8953667, -17.87822909], [19.7988491, -17.87654109], [19.7715454, -17.89531329], [19.7628231, -17.90857509], [19.7414837, -17.90682789], [19.7212009, -17.88251299], [19.7041359, -17.87824629], [19.711761, -17.88673929], [19.7049294, -17.88626479], [19.6776848, -17.85862159], [19.6631775, -17.85350229], [19.6136875, -17.86630059], [19.5871544, -17.86485099], [19.5687964, -17.87306969], [19.512146, -17.86288829], [19.4998495, -17.87302669], [19.4583912, -17.86288829], [19.406179, -17.86770299], [19.4194286, -17.84256349], [19.4203589, -17.80753009], [19.4084817, -17.78179529], [19.3820217, -17.75953459], [19.7114296, -17.78342819], [19.8145332, -17.78282739], [19.9938545, -17.80083469], [20.0520763, -17.81550979], [20.2917881, -17.79811099], [20.3542557, -17.81838989], [20.549139, -17.91483879], [20.5833836, -17.92380909], [20.6649494, -17.92355919], [20.6407757, -17.89699359], [20.4284897, -17.81124879], [20.2890034, -17.72950739], [20.0511055, -17.61419489], [19.9687462, -17.55188939], [19.8382549, -17.42660519], [19.6923695, -17.31485559], [19.6132202, -17.26944539], [19.489193, -17.21263499], [19.3328114, -17.11202049], [19.295145, -17.06102939], [19.2518845, -17.01936529], [19.1728611, -16.95904919], [19.1315212, -16.90048029], [19.1117325, -16.85784149], [19.0853214, -16.77484889], [19.0792828, -16.72994999], [19.0999889, -16.59871669], [19.1606579, -16.46808619], [19.1939011, -16.37319559], [19.1700001, -16.34984589], [19.1288223, -16.33726879], [19.0930462, -16.34459689], [19.0644131, -16.34283829], [18.9820442, -16.29262919], [18.8853645, -16.20141029], [18.8441715, -16.11029819], [18.8227005, -16.08350559], [18.7839298, -15.99635789], [18.7325821, -15.90948769], [18.6993256, -15.93977929], [18.6618023, -15.92265699], [18.6600132, -15.93510249], [18.6379738, -15.95323749], [18.6247997, -16.00452419], [18.5414562, -16.00126459], [18.5158844, -16.01373289], [18.5193996, -16.02792169], [18.509222, -16.11947249], [18.4781914, -16.17794039], [18.4393578, -16.28925699], [18.4363117, -16.36885069], [18.4165611, -16.44779969], [18.3902721, -16.48237229], [18.3540401, -16.49569699], [18.3234577, -16.46503639], [18.2554626, -16.44313239], [18.2250671, -16.42082019], [18.161871, -16.39380069], [18.0969696, -16.32979769], [18.0636845, -16.27389909], [18.0310879, -16.18159679], [18.0090923, -16.15474889], [18.004385, -16.12799069], [17.9818153, -16.09430689], [17.9379539, -15.99792289], [17.916605, -15.95968339], [17.8524914, -15.88136199], [17.8221264, -15.87890619], [17.7624474, -15.92008589], [17.6114826, -15.99707129], [17.5290375, -16.00939559], [17.5258999, -16.09605219], [17.5364151, -16.15073009], [17.5294647, -16.40317539], [17.5396385, -16.54877659], [17.587635, -16.64344789], [17.6204166, -16.65957829], [17.6805706, -16.70486069], [17.7115021, -16.74255939], [17.7004852, -16.77522469], [17.9363441, -16.92308429], [18.2291222, -17.13623809], [18.1399555, -16.96536639], [18.0206681, -16.80528839], [18.0080059, -16.83467339], [17.9825348, -16.85995729], [17.9489487, -16.87392589], [17.9214868, -16.87561969], [17.8863218, -16.86589059], [17.8639835, -16.85041789], [17.8189142, -16.78301309], [17.7958226, -16.71616049], [17.7967861, -16.68967759], [17.8056838, -16.66460469], [17.8435892, -16.62701529], [17.8693315, -16.61773319], [17.9023368, -16.61677039], [17.8696955, -16.55289579], [17.842047, -16.57069499], [17.8063192, -16.57805409], [17.7703909, -16.57166109], [17.7397391, -16.55248959], [17.7230741, -16.53142029], [17.7117781, -16.49749159], [17.684302, -16.46356259], [17.6726692, -16.42113619], [17.6793179, -16.38648849], [17.7059111, -16.35089529], [17.7557934, -16.33018339], [17.8061577, -16.33837409], [17.8023396, -16.32532879], [17.7675334, -16.24957799], [17.7517303, -16.27817799], [17.7316487, -16.29623719], [17.6981289, -16.31015369], [17.6707387, -16.31180249], [17.6356867, -16.30201309], [17.6134365, -16.28649999], [17.5968107, -16.26541479], [17.5857802, -16.23182479], [17.5867805, -16.20533799], [17.5956943, -16.18027219], [17.6335673, -16.14272729], [17.6592638, -16.13347869], [17.6957164, -16.13302079], [17.7216516, -16.14162029], [17.748674, -16.16208929], [17.7647305, -16.14424899], [17.8039932, -16.17065049], [17.8555832, -16.26763919], [17.8893318, -16.35767939], [17.9247437, -16.50626369], [17.9561958, -16.57919499], [18.0597115, -16.74852559], [18.1085835, -16.80445289], [18.186058, -16.91958239], [18.2045765, -16.92478179], [18.2255116, -16.91408539], [18.2566204, -16.89207459], [18.3032913, -16.84570119], [18.3284016, -16.83217619], [18.3540783, -16.84591869], [18.3528442, -16.88227079], [18.3294983, -16.91625399], [18.2822247, -16.96091839], [18.2409458, -16.98515509], [18.2307472, -17.01009749], [18.2474289, -17.04992489], [18.3196526, -17.15585709], [18.462492, -17.32048989], [18.4971752, -17.37340349], [18.546236, -17.43203159], [18.6450195, -17.52314759], [18.667778, -17.55612559], [18.6947346, -17.58116909], [18.8217831, -17.67909239], [18.8637428, -17.69905279], [19.0046139, -17.73340609], [19.0561562, -17.73124309], [19.0777454, -17.74149129], [19.1988068, -17.73545649], [19.3230069, -17.75466529], [19.2870367, -17.77883839], [19.2665519, -17.82688749], [19.2476292, -17.82022289], [19.2285461, -17.82712939], [19.194746, -17.82188989], [19.1781788, -17.81039999], [19.1686096, -17.81479069], [19.12883, -17.81184959], [19.1178379, -17.82176779], [19.1159534, -17.83305359], [19.0893764, -17.83916409], [19.0932645, -17.80636019], [19.079523, -17.77220979], [19.0518849, -17.74923389], [19.0235958, -17.74164359], [18.987525, -17.74752709], [18.963447, -17.76366019], [18.9473012, -17.78823909], [18.942642, -17.82230549], [18.9218483, -17.82236289], [18.883276, -17.80657199], [18.8639878, -17.80514419], [18.8489944, -17.79698389], [18.8363457, -17.77841189], [18.7910961, -17.76729429], [18.7766171, -17.74257469], [18.7495098, -17.74193759], [18.7264996, -17.71451189], [18.6206532, -17.63723369], [18.6153469, -17.61116979], [18.599987, -17.59239769], [18.5641729, -17.58304579], [18.5479374, -17.56679919], [18.5351372, -17.52925489], [18.5206299, -17.51901439], [18.5120983, -17.50280189], [18.4771137, -17.48317719], [18.4728489, -17.45587159], [18.448103, -17.42173959], [18.4216499, -17.39358139], [18.3863926, -17.38685039], [16.9795722, -17.39585639], [15.7683792, -17.39312169], [15.7548618, -17.32273669], [15.7240934, -17.22925569], [15.7257481, -17.18442539], [15.6634178, -17.08028789], [15.6303816, -17.03727149], [15.5876513, -17.00718119], [15.5269547, -16.98082349], [15.4120331, -16.88725279], [15.4160652, -16.84753989], [15.4902134, -16.78831669], [15.5288754, -16.74905779], [15.5629244, -16.74893759], [15.5929565, -16.73342319], [15.6017208, -16.69546319], [15.6119785, -16.57226369], [15.5272446, -16.34884829], [15.4938774, -16.23636819], [15.4594259, -16.17049219], [15.4253769, -16.06990809], [15.3980007, -16.06668849], [15.3734627, -16.12835879], [15.3561745, -16.12868879], [15.3277435, -16.11293219], [15.3210506, -16.12478449], [15.3155146, -16.19126129], [15.3045492, -16.23047449], [15.3221416, -16.34036249], [15.318182, -16.37328909], [15.2998247, -16.41283419], [15.2688885, -16.45617869], [15.2309837, -16.48236079], [15.1967802, -16.49778939], [15.1436043, -16.50270649], [15.0888443, -16.53885649], [14.9950838, -16.68354029], [14.9129868, -16.75106049], [14.8480635, -16.82734109], [14.8086691, -16.91365239], [14.7322598, -17.12601089], [14.673563, -17.21819499], [14.6222553, -17.24077419], [14.5933456, -17.26345629], [14.5302896, -17.27888869], [14.4890547, -17.27480129], [14.4362726, -17.24213029], [14.3773251, -17.22240069], [14.3286486, -17.19659039], [14.270421, -17.20921519], [14.2341185, -17.19666289], [14.2393341, -17.20754239], [14.2110462, -17.21840289], [14.1929159, -17.19140049], [14.1974201, -17.17103769], [14.2385254, -17.14336399], [14.2568474, -17.11869809], [14.260601, -17.06878659], [14.253108, -17.03843119], [14.3186903, -16.98402399], [14.3327274, -16.96495059], [14.337883, -16.94004439], [14.3292351, -16.91887659], [14.3296785, -16.88934329], [14.311388, -16.83391759], [14.2945118, -16.72509189], [14.2818041, -16.69645689], [14.2358227, -16.65700909], [14.2242918, -16.63009449], [14.2294416, -16.60574339], [14.2625055, -16.55174829], [14.2203131, -16.50041389], [14.2113447, -16.39847949], [14.2471275, -16.38602639], [14.3300266, -16.32003779], [14.2814999, -16.28312109], [14.2275419, -16.22359659], [14.2055197, -16.18225479], [14.1763744, -16.17775729], [14.1510553, -16.15739819], [14.1367598, -16.12269399], [14.105669, -16.08661269], [14.0179958, -15.75551989], [14.0574656, -15.70671179], [14.1016703, -15.69177059], [14.1084614, -15.64322379], [14.099473, -15.64712239], [14.076396, -15.63873669], [14.0667324, -15.57251359], [14.0300169, -15.47861479], [14.1303396, -15.42331979], [14.1443195, -15.42255399], [14.1523237, -15.38612369], [14.1868, -15.34800529], [14.1951571, -15.32481769], [14.1515646, -15.32003779], [14.0733824, -15.33970929], [13.9893665, -15.31482319], [13.9293489, -15.30772969], [13.9195967, -15.29188819], [13.9022818, -15.29669189], [13.8666859, -15.18436909], [13.8367796, -15.16044619], [13.7790709, -15.12972549], [13.76229, -15.10319419], [13.7629004, -15.09436039], [13.7310972, -15.08607199], [13.6918583, -15.05340479], [13.6619864, -15.00733569], [13.6366692, -15.01643179], [13.5709724, -15.01473899], [13.5446835, -14.97928709], [13.5173903, -14.97817519], [13.4886665, -14.99070929], [13.4688206, -14.97150419], [13.465003, -14.88593669], [13.4899502, -14.81803889], [13.5455503, -14.79463769], [13.6091394, -14.78905299], [13.7023821, -14.74925899], [13.7182846, -14.72106269], [13.7979431, -14.63992599], [13.8321814, -14.63341819], [13.8200034, -14.68858989], [13.7720202, -14.74662529], [13.7675561, -14.78838419], [13.7785079, -14.81451119], [13.79307, -14.83031259], [13.8328576, -14.84658499], [13.8752334, -14.83860519], [13.9041554, -14.81412709], [13.9514826, -14.76091529], [13.9702695, -14.70266729], [13.9849632, -14.68468159], [13.9956433, -14.67765009], [14.0434824, -14.67270969], [14.0745247, -14.65476659], [14.0875815, -14.63777059], [14.0961052, -14.61079949], [14.0933798, -14.58270519], [14.0803815, -14.55850309], [14.1149836, -14.54146579], [14.1384172, -14.52135939], [14.1924534, -14.43793389], [14.2352009, -14.31550879], [14.2819853, -14.27697939], [14.3413172, -14.10974599], [14.3285093, -14.05533119], [14.3153057, -14.02771849], [14.2913971, -14.00391099], [14.2351561, -13.96640869], [14.2092209, -13.91673469], [14.2306175, -13.91440959], [14.3003502, -13.87969019], [14.3651419, -13.85799309], [14.4878378, -13.83954519], [14.4963427, -13.82371229], [14.4565363, -13.71290869], [14.423089, -13.77739239], [14.4039888, -13.78961749], [14.3837481, -13.79897209], [14.3518066, -13.79956249], [14.3060398, -13.79134849], [14.3084316, -13.77369979], [14.2366505, -13.75018309], [14.1860094, -13.69792369], [14.1438704, -13.63211059], [14.113905, -13.62072469], [14.0990629, -13.62502099], [14.1551142, -13.74644759], [14.1553631, -13.76870629], [14.1363592, -13.77407169], [14.1165075, -13.75773429], [14.0840931, -13.71320719], [14.0769272, -13.67997649], [13.9648981, -13.44105529], [13.9652805, -13.41708759], [13.9862366, -13.39920999], [14.0056286, -13.40527819], [14.0240297, -13.39933869], [14.0178156, -13.38152789], [14.0210114, -13.36617469], [14.0608931, -13.34578609], [14.0511894, -13.32448669], [13.9076834, -13.32695959], [13.876811, -13.30125999], [13.846983, -13.24817279], [13.8738861, -13.19102099], [13.8773375, -13.16025729], [13.8617744, -13.13769529], [13.8675117, -13.11154079], [13.896553, -13.06698419], [13.9419107, -13.03414819], [13.9683199, -13.00552079], [14.0477362, -12.83054449], [14.0895557, -12.69417759], [14.1134214, -12.69925499], [14.1288662, -12.69096949], [14.1293411, -12.66013719], [14.1687794, -12.66199109], [14.2174606, -12.67599869], [14.2463675, -12.66810609], [14.2779245, -12.69020649], [14.3214073, -12.73779959], [14.3387136, -12.84317679], [14.3347578, -12.87165929], [14.3566847, -12.90401839], [14.3737764, -12.90431499], [14.411231, -12.88269139], [14.4633636, -12.86473849], [14.51789, -12.86575509], [14.5349493, -12.97215559], [14.5559883, -12.98564049], [14.5963402, -12.96746919], [14.6065893, -12.95108029], [14.6182928, -12.91472909], [14.6126051, -12.88037009], [14.6956577, -12.86117939], [14.7212362, -12.84389309], [14.7286901, -12.79657169], [14.7177153, -12.75475309], [14.7018948, -12.74821379], [14.6675882, -12.71453379], [14.6666498, -12.69681449], [14.6955099, -12.69728569], [14.7034664, -12.67514229], [14.6634645, -12.67106439], [14.6362801, -12.67747019], [14.6092749, -12.67074299], [14.6015635, -12.67461299], [14.6059837, -12.69581699], [14.5844402, -12.72001549], [14.5321035, -12.71285819], [14.4695854, -12.67639449], [14.4575357, -12.65391539], [14.5221987, -12.62131689], [14.5485144, -12.59263129], [14.5545301, -12.54133029], [14.5232801, -12.50254059], [14.4535208, -12.44024279], [14.4508486, -12.42134859], [14.4611292, -12.40210439], [14.5128098, -12.36813929], [14.5942116, -12.35408209], [14.620677, -12.35509009], [14.6458197, -12.36692999], [14.7424192, -12.44846629], [14.8181114, -12.46681309], [14.8604488, -12.47033789], [14.9470816, -12.46255109], [14.9661427, -12.44456859], [14.9346857, -12.37211609], [14.87113, -12.37226579], [14.8624668, -12.35956379], [14.8550549, -12.34116939], [14.9114647, -12.30092909], [14.9151545, -12.28841969], [14.8911772, -12.27719209], [14.7747679, -12.27192119], [14.7505407, -12.28009989], [14.7386179, -12.29190249], [14.7044573, -12.29477689], [14.6336298, -12.26848319], [14.5875044, -12.28599739], [14.5671387, -12.22739319], [14.5678368, -12.17713739], [14.594943, -12.08790399], [14.5982037, -12.06453699], [14.5913887, -12.04728599], [14.5457392, -12.03281119], [14.4483528, -12.01973439], [14.3975172, -11.99886509], [14.3801718, -11.97914029], [14.3885622, -11.92729849], [14.3816452, -11.91803839], [14.3647184, -11.91031739], [14.3123465, -11.91568569], [14.2447987, -11.95333959], [14.2445335, -11.97104449], [14.2585325, -11.97814939], [14.3108244, -11.97907259], [14.3176727, -11.99290369], [14.3045015, -12.00924019], [14.2867546, -12.01692489], [14.2419939, -12.02298639], [14.1839094, -12.04471779], [14.1254644, -12.02530859], [14.1492605, -12.00765709], [14.1270752, -11.94622139], [14.1142759, -11.88649079], [14.1270752, -11.83273409], [14.1586475, -11.75593849], [14.1714458, -11.68938259], [14.2106972, -11.64245219], [14.2431221, -11.61514659], [14.2234964, -11.55883029], [14.2380018, -11.54603099], [14.2456818, -11.51701929], [14.2431221, -11.48203469], [14.2081375, -11.40353299], [14.2106972, -11.34636309], [14.2354422, -11.32417769], [14.2678671, -11.33185669], [14.2772532, -11.35404209], [14.3165045, -11.37110809], [14.3463697, -11.36854839], [14.3514891, -11.33868309], [14.3386898, -11.30455209], [14.3122377, -11.27724649], [14.2721338, -11.26018049], [14.2380018, -11.23543639], [14.2057447, -11.19273849], [14.1897602, -11.12559699], [14.2227021, -11.07150859], [14.1836122, -11.04968819], [14.1501141, -11.12792209], [14.1449947, -11.24567509], [14.1554899, -11.29811099], [14.14466, -11.31619929], [14.1470156, -11.35395339], [14.1386242, -11.36579989], [14.150588, -11.38887209], [14.1316671, -11.43709659], [14.1397028, -11.44867039], [14.1810837, -11.46656129], [14.2003613, -11.51090339], [14.1613932, -11.52677059], [14.1481552, -11.54824159], [14.1568975, -11.59068199], [14.1479921, -11.59737679], [14.1369486, -11.62860009], [14.0851355, -11.71450039], [14.0655336, -11.80441189], [14.0724039, -11.85367109], [14.0667286, -11.87870599], [14.0414181, -11.88166709], [14.0000076, -11.89975259], [13.9932842, -11.91619489], [14.0109453, -11.95137309], [14.0219631, -11.96071819], [13.9711733, -12.01347449], [13.9749203, -12.02313519], [13.9085035, -11.96316619], [13.8768482, -11.92200369], [13.8658524, -11.91740889], [13.8494377, -12.01746079], [13.824811, -12.08554459], [13.8137903, -12.11218259], [13.7620163, -12.17090699], [13.7832413, -12.03775599], [13.8421907, -11.83014969], [13.8464622, -11.67722319], [13.8421907, -11.56701179], [13.8507347, -11.46107389], [13.8678217, -11.34146599], [13.8849077, -11.27397249], [13.8932009, -11.15332979], [13.9006119, -11.14081669], [13.8887863, -11.03830809], [13.8920364, -11.01837059], [13.9094591, -10.99015239], [13.886507, -10.96169469], [13.873064, -10.92372509], [13.8295336, -10.90807629], [13.7272282, -10.76775169], [13.7241039, -10.75235559], [13.7387285, -10.74582389], [13.775651, -10.70370009], [13.7795095, -10.69318489], [13.7747784, -10.66921329], [13.6535778, -10.52315619], [13.6230736, -10.47800919], [13.5415039, -10.40434739], [13.5346527, -10.38143059], [13.548831, -10.36323549], [13.5486879, -10.33850099], [13.5298662, -10.28046319], [13.4950562, -10.24497699], [13.521452, -10.26811219], [13.5260706, -10.26987929], [13.5226133, -10.26336869], [13.535368, -10.26880649], [13.4798717, -10.21238709], [13.4594167, -10.17578979], [13.4465799, -10.12929059], [13.4107056, -10.07790089], [13.3977642, -10.07859089], [13.3658199, -10.04941079], [13.3575706, -10.02460959], [13.3137798, -9.97829059], [13.3391857, -9.96811289], [13.3469849, -9.94921589], [13.3237265, -9.90668559], [13.3189468, -9.86240769], [13.2698517, -9.78282359], [13.2016656, -9.69295579], [13.2018871, -9.67710019], [13.2358818, -9.65694709], [13.2415552, -9.62955859], [13.1984529, -9.55009459], [13.2072496, -9.52530569], [13.1766367, -9.46611019], [13.1797724, -9.41554449], [13.1559525, -9.34065719], [13.1257358, -9.29682179], [13.0813332, -9.21105379], [13.0039577, -9.09871669], [13.0132971, -9.09015659], [13.021862, -9.09127619], [13.028039, -9.07240389], [13.0529423, -9.05070779], [13.1043644, -8.95121769], [13.1447088, -8.95506889], [13.1849709, -8.98226689], [13.2199162, -8.98759409], [13.2380052, -9.00963159], [13.2629762, -9.02305379], [13.2923165, -9.02626389], [13.3256616, -9.01457579], [13.3458257, -8.99471069], [13.3568063, -8.96868549], [13.3571632, -8.93915939], [13.3470018, -8.91401389], [13.3815543, -8.88233029], [13.3898037, -8.84001979], [13.4292182, -8.82798959], [13.4530685, -8.80203399], [13.4614163, -8.77505919], [13.4587511, -8.74695989], [13.4404897, -8.71648029], [13.4092245, -8.69801989], [13.4140368, -8.63914679], [13.3882637, -8.61285019], [13.373558, -8.58190249], [13.3585424, -8.48754689], [13.3475885, -8.46669289], [13.3519526, -8.46184729], [13.4207916, -8.48447509], [13.4550953, -8.54913429], [13.4780788, -8.56388189], [13.5353518, -8.57818509], [13.6590872, -8.57953549], [13.717411, -8.60124869], [13.7478685, -8.62183379], [13.7740211, -8.65717789], [13.8199997, -8.68890949], [13.7785492, -8.70009419], [13.7523918, -8.70015239], [13.7309055, -8.66375539], [13.66471, -8.66016099], [13.6516056, -8.64448169], [13.6325312, -8.63838959], [13.5674362, -8.63303949], [13.5653124, -8.66102029], [13.5769787, -8.69266319], [13.6198454, -8.77004909], [13.6565723, -8.79876519], [13.6980906, -8.81957819], [13.7744865, -8.84163859], [13.8376675, -8.89026829], [13.9480141, -9.08583899], [13.9122528, -9.07732439], [13.8442308, -9.08318499], [13.7708102, -9.05049469], [13.6982367, -9.04258729], [13.6771003, -9.04562659], [13.6418832, -9.06883119], [13.6266409, -9.10055369], [13.6282423, -9.13567199], [13.6463139, -9.16589309], [13.6698727, -9.18166209], [13.7212784, -9.18930089], [13.8081855, -9.22617799], [13.8910293, -9.22381319], [13.9337437, -9.24587999], [13.9743548, -9.24240519], [14.0186777, -9.36778549], [14.040885, -9.40076159], [14.0771313, -9.43056679], [14.086874, -9.51700779], [14.0761471, -9.53223509], [14.1570358, -9.57942299], [14.1816053, -9.61243249], [14.1960649, -9.62012199], [14.2171526, -9.61364649], [14.2681227, -9.55743219], [14.306157, -9.54237429], [14.3277149, -9.49496419], [14.2905446, -9.49898459], [14.2488933, -9.48409099], [14.229125, -9.46622439], [14.1828264, -9.39637139], [14.176435, -9.35288189], [14.1914384, -9.31153499], [14.2242883, -9.28209229], [14.2600713, -9.27183809], [14.2433529, -9.26280019], [14.1981392, -9.21000579], [14.177803, -9.16851039], [14.1772575, -9.12737659], [14.1554842, -9.02759839], [14.1276932, -8.98025799], [14.0405779, -8.89526369], [13.983489, -8.82680419], [13.9094143, -8.76789859], [13.9082279, -8.73286439], [13.8720093, -8.59912109], [13.8615398, -8.52754589], [13.8223451, -8.40696179], [13.8510106, -8.39283579], [13.8721239, -8.36465679], [13.8774034, -8.32989329], [13.8656061, -8.29675589], [13.8456245, -8.27673749], [13.8194748, -8.26585829], [13.7908894, -8.26578559], [13.7641449, -8.27689729], [13.6135387, -8.00945469], [13.4829273, -7.81618359], [13.4600706, -7.79745149], [13.4129677, -7.77364969], [13.3596306, -7.70976689], [13.2352943, -7.63352729], [13.2111883, -7.58964779], [13.212184, -7.56684829], [13.194582, -7.48431539], [13.1421528, -7.40787979], [13.1127062, -7.34164089], [13.0611048, -7.25438309], [13.0398798, -7.18319459], [13.0484314, -7.06647679], [13.0190992, -7.05841539], [13.0058699, -7.07342769], [13.0098953, -7.05593059], [12.9953251, -7.03165819], [12.9687243, -6.94097659], [12.970192, -6.92846539], [12.9250927, -6.92777109], [12.9425688, -7.01934579], [12.9340248, -7.17312859], [12.9083939, -7.22438809], [12.8615742, -7.28010029], [12.8507128, -7.24758959], [12.8550873, -7.22393039]]], [[[13.4971399, -10.23593429], [13.5139639, -10.25232589], [13.4953321, -10.23822979], [13.4971399, -10.23593429]]], [[[16.5802746, -7.33623309], [16.6252937, -7.35208989], [16.6868534, -7.40460589], [16.7453423, -7.48845199], [16.7646904, -7.54111669], [16.7927418, -7.59158329], [16.8451653, -7.63600399], [16.9176617, -7.61785079], [16.9699154, -7.59379429], [16.9886036, -7.56543969], [17.0193577, -7.44764179], [17.0316086, -7.43006849], [17.0886002, -7.39803599], [17.0752602, -7.38368029], [17.0382614, -7.37708569], [16.996151, -7.35390189], [16.9784374, -7.31439349], [16.9877626, -7.28372149], [16.9873466, -7.29540919], [16.99333, -7.30052089], [17.0043755, -7.30496409], [17.0064736, -7.29989959], [17.0305481, -7.29786919], [17.0452271, -7.32119129], [17.0648365, -7.32747939], [17.0764637, -7.34278389], [17.1096306, -7.34621329], [17.1161018, -7.35715129], [17.1083927, -7.41759439], [17.1136341, -7.42541889], [17.1329689, -7.42486759], [17.1491613, -7.40990579], [17.1608238, -7.42519379], [17.1790161, -7.42671389], [17.1879006, -7.43665829], [17.1753707, -7.44796229], [17.125782, -7.46110679], [17.0812416, -7.45616479], [17.0356979, -7.52934929], [17.0057144, -7.61236759], [16.9440613, -7.65916439], [16.8733215, -7.67277809], [16.7986774, -7.66123629], [16.7658062, -7.63867279], [16.7411156, -7.60591789], [16.7074184, -7.53428409], [16.6919155, -7.51473709], [16.6800461, -7.47127009], [16.6490784, -7.42875429], [16.5597935, -7.36910009], [16.5622959, -7.34232229], [16.5802746, -7.33623309]]]]}}]}