{"type": "FeatureCollection", "features": [{"type": "Feature", "properties": {"versao": "revisada_proposta", "fonte": "04_Mancha_Solos_Vermelhos_Revisada_Proposta.kml"}, "geometry": {"type": "MultiPolygon", "coordinates": [[[[12.5182705, -15.75290009], [12.5427361, -15.76183509], [12.5828896, -15.74987509], [12.6461115, -15.76183509], [12.6973715, -15.76183509], [12.7315454, -15.74987509], [12.725565, -15.71570109], [12.691391, -15.68152709], [12.6512375, -15.65845969], [12.5316296, -15.56789969], [12.5145426, -15.53885169], [12.5256491, -15.49357129], [12.5598145, -15.45942209], [12.6156197, -15.48476029], [12.7466669, -15.50480459], [12.7530222, -15.51405909], [12.7608032, -15.59965419], [12.7554083, -15.63085079], [12.7770042, -15.71047499], [12.8658257, -15.73407269], [13.0111217, -15.73210529], [13.03623052, -15.7266657], [12.83570652, -15.33221785], [12.83171413, -15.29369452], [12.84155482, -15.26566758], [12.87959664, -15.22788439], [12.91209574, -15.2138568], [12.94843318, -15.2079625], [13.24864061, -15.26226989], [13.2739697, -15.20172689], [13.2569761, -15.18883989], [13.2670708, -15.15714259], [13.2324867, -15.13192459], [13.3002472, -15.06552119], [13.3474417, -15.05053519], [13.3662205, -15.03040409], [13.4012938, -15.01717849], [13.4158602, -15.04395099], [13.4322987, -15.05453969], [13.4473381, -15.07706639], [13.4493361, -15.09819029], [13.4658909, -15.10251139], [13.4711037, -15.11002249], [13.4689875, -15.12878419], [13.4805079, -15.14895819], [13.5043755, -15.14316649], [13.50951, -15.15523429], [13.5276775, -15.16927149], [13.5744534, -15.19023609], [13.5718699, -15.25384809], [13.5606709, -15.25310329], [13.5442886, -15.27214809], [13.5404444, -15.28802199], [13.486494, -15.30884918], [13.83774541, -15.37963324], [13.88484385, -15.41024415], [13.90761746, -15.45476029], [13.9070158, -15.48372948], [13.89558311, -15.51128486], [13.4810164, -16.16247093], [13.45061791, -16.19306694], [13.40748436, -16.21195257], [13.37081791, -16.21655533], [13.33405863, -16.21243636], [13.30048287, -16.19996328], [13.27308323, -16.18024923], [13.25430182, -16.1550531], [13.17785646, -16.00477927], [13.1740217, -16.02697749], [13.1588926, -16.03917879], [13.0750875, -16.05846209], [13.0135832, -16.06454659], [12.9434767, -16.08351899], [12.8776741, -16.12532809], [12.7761412, -16.16405489], [12.7664843, -16.14051249], [12.7479763, -16.14180759], [12.7257071, -16.15212059], [12.7055979, -16.17329029], [12.6567831, -16.19836039], [12.6432285, -16.19065859], [12.6080847, -16.13183019], [12.606616, -16.08798409], [12.6138458, -16.05571559], [12.6061592, -16.02424429], [12.6115427, -15.99477389], [12.545186, -15.89195059], [12.5318279, -15.76299479], [12.5182705, -15.75290009]]], [[[11.9138916, -15.73175819], [11.980525, -15.78414439], [11.9960032, -15.77846339], [12.0220022, -15.79114819], [12.0537834, -15.79051019], [12.0828567, -15.80765989], [12.0966988, -15.83691879], [12.101841, -15.87290759], [12.0862598, -15.87707999], [12.0549412, -15.83988089], [12.0285835, -15.82044599], [12.0014534, -15.80895999], [11.9498444, -15.80027869], [11.925705, -15.78836819], [11.8984514, -15.76385569], [11.9138916, -15.73175819]]], [[[12.0280496, -15.77545839], [12.058733, -15.77792169], [12.0689105, -15.78868989], [12.0280496, -15.77545839]]], [[[11.9634051, -15.76096729], [12.0185952, -15.77454659], [12.0010643, -15.77418519], [11.9757204, -15.76812169], [11.9634051, -15.76096729]]], [[[12.1162023, -15.12628389], [12.1218624, -15.10414789], [12.2204762, -15.08980179], [12.260561, -15.09415529], [12.2592478, -15.10953899], [12.2483721, -15.11782649], [12.1915827, -15.13251779], [12.1685333, -15.15012549], [12.1728048, -15.16892149], [12.1967201, -15.18347929], [12.2557859, -15.19087119], [12.2518854, -15.20110319], [12.231411, -15.21005339], [12.181572, -15.20966239], [12.14314924, -15.19535147], [12.1523978, -15.18487358], [12.1558034, -15.15976036], [12.1391926, -15.12013439], [12.1291256, -15.11763759], [12.1239738, -15.12724109], [12.1162023, -15.12628389]]], [[[12.5427361, -14.91176409], [12.5521336, -14.86392119], [12.570075, -14.83231069], [12.5780354, -14.76047709], [12.5361471, -14.73930739], [12.4239826, -14.71184829], [12.3535023, -14.70397659], [12.3673353, -14.61619189], [12.3439837, -14.59910199], [12.3361788, -14.52136329], [12.3616447, -14.49516579], [12.3891563, -14.40114589], [12.4167442, -14.38582799], [12.4048243, -14.31328299], [12.4274321, -14.30960749], [12.4931841, -14.36327649], [12.5190401, -14.39748859], [12.5388308, -14.38525769], [12.5791311, -14.35653019], [12.6119041, -14.31906889], [12.6065016, -14.26532749], [12.616374, -14.24615959], [12.6537943, -14.21221829], [12.684206, -14.20207209], [12.6993055, -14.18758299], [12.7139416, -14.16680809], [12.7144747, -14.14057729], [12.7261944, -14.11745259], [12.7462301, -14.09280199], [12.7883024, -14.06122679], [12.7906389, -14.03332329], [12.7696333, -13.98891929], [12.7591152, -13.92363449], [12.778758, -13.82935139], [12.7797995, -13.71866229], [12.7861204, -13.69825739], [12.8176785, -13.65729999], [12.843379, -13.64303299], [12.9364672, -13.62924479], [12.923295, -13.66706089], [12.9530964, -13.68483539], [13.0376396, -13.71520999], [13.1409206, -13.85038849], [13.1609163, -13.85652069], [13.2037315, -13.84430029], [13.2741318, -13.84349159], [13.2845602, -13.82316589], [13.2552919, -13.74266339], [13.2690048, -13.67218109], [13.2480688, -13.62151999], [13.1942701, -13.65406319], [13.1688099, -13.65637869], [13.1484947, -13.63654229], [13.1334295, -13.59622569], [13.2319298, -13.56753059], [13.3244305, -13.51751609], [13.3376722, -13.50409029], [13.3592501, -13.45430559], [13.3662138, -13.38892459], [13.3302879, -13.32526489], [13.3285027, -13.29151339], [13.3116436, -13.26971719], [13.3082266, -13.20051569], [13.3244591, -13.18684669], [13.3646135, -13.20051569], [13.4092398, -13.23257919], [13.4604797, -13.24172589], [13.5545225, -13.24491789], [13.6398506, -13.29270169], [13.6697159, -13.31830019], [13.74204937, -13.35430338], [13.6643898, -13.22953442], [13.66001927, -13.20140324], [13.67077852, -13.16467185], [13.69882696, -13.13393671], [13.75149378, -13.11092716], [13.81191824, -13.1099019], [13.86352809, -13.12970051], [13.8778725, -13.09118179], [13.896553, -13.06698419], [13.9419107, -13.03414819], [13.9683199, -13.00552079], [14.0477362, -12.83054449], [14.0895557, -12.69417759], [14.1134214, -12.69925499], [14.1288662, -12.69096949], [14.1293411, -12.66013719], [14.1687794, -12.66199109], [14.2174606, -12.67599869], [14.2463675, -12.66810609], [14.3023319, -12.71290969], [14.3214073, -12.73779959], [14.3387136, -12.84317679], [14.3347578, -12.87165929], [14.3566847, -12.90401839], [14.3737764, -12.90431499], [14.411231, -12.88269139], [14.4633636, -12.86473849], [14.51789, -12.86575509], [14.5349493, -12.97215559], [14.5559883, -12.98564049], [14.579092, -12.97803119], [14.5963402, -12.96746919], [14.6065893, -12.95108029], [14.6182928, -12.91472909], [14.6126051, -12.88037009], [14.6956577, -12.86117939], [14.7212362, -12.84389309], [14.7280922, -12.81602289], [14.7245102, -12.77542019], [14.7177153, -12.75475309], [14.7018948, -12.74821379], [14.6675882, -12.71453379], [14.6666498, -12.69681449], [14.6955099, -12.69728569], [14.7034664, -12.67514229], [14.6634645, -12.67106439], [14.6362801, -12.67747019], [14.6092749, -12.67074299], [14.6015635, -12.67461299], [14.6059837, -12.69581699], [14.5844402, -12.72001549], [14.5321035, -12.71285819], [14.4695854, -12.67639449], [14.4575357, -12.65391539], [14.5221987, -12.62131689], [14.5485144, -12.59263129], [14.5545301, -12.54133029], [14.5232801, -12.50254059], [14.4535208, -12.44024279], [14.4508486, -12.42134859], [14.4611292, -12.40210439], [14.5128098, -12.36813929], [14.5942116, -12.35408209], [14.620677, -12.35509009], [14.6458197, -12.36692999], [14.7424192, -12.44846629], [14.8181114, -12.46681309], [14.8604488, -12.47033789], [14.9470816, -12.46255109], [14.9661427, -12.44456859], [14.9346857, -12.37211609], [14.87113, -12.37226579], [14.8624668, -12.35956379], [14.8550549, -12.34116939], [14.9114647, -12.30092909], [14.9151545, -12.28841969], [14.8911772, -12.27719209], [14.7747679, -12.27192119], [14.7505407, -12.28009989], [14.7386179, -12.29190249], [14.7044573, -12.29477689], [14.6336298, -12.26848319], [14.5875044, -12.28599739], [14.5671387, -12.22739319], [14.5678368, -12.17713739], [14.594943, -12.08790399], [14.5982037, -12.06453699], [14.5913887, -12.04728599], [14.5457392, -12.03281119], [14.4483528, -12.01973439], [14.3975172, -11.99886509], [14.3801718, -11.97914029], [14.3885622, -11.92729849], [14.37346991, -11.91430928], [14.37381297, -11.91394479], [14.37424127, -11.91298111], [14.37463388, -11.91144636], [14.37516926, -11.91076821], [14.3758831, -11.90959038], [14.37670401, -11.90787716], [14.37723939, -11.90719902], [14.37795323, -11.90677071], [14.3789883, -11.9064138], [14.37995198, -11.90605688], [14.38102273, -11.90548581], [14.38298579, -11.90520027], [14.38373532, -11.90502181], [14.38434208, -11.90470058], [14.39297953, -11.89766928], [14.39380044, -11.89681267], [14.39415736, -11.89617022], [14.3944072, -11.89542069], [14.39483551, -11.89470685], [14.39858316, -11.89206565], [14.39993945, -11.89038813], [14.40079606, -11.88899614], [14.40308034, -11.88667617], [14.40379418, -11.88578387], [14.40668522, -11.88428481], [14.41187245, -11.87916897], [14.41553087, -11.87702745], [14.417137, -11.87643259], [14.41832673, -11.87592695], [14.41968065, -11.87510247], [14.42060269, -11.87423991], [14.4214355, -11.87310967], [14.42220883, -11.87183071], [14.42271446, -11.87177122], [14.42220881, -11.87183071], [14.41968064, -11.87510246], [14.41553086, -11.87702745], [14.41187244, -11.87916896], [14.40379417, -11.88578386], [14.38434207, -11.90470058], [14.38102272, -11.9054858], [14.37795322, -11.90677071], [14.37723938, -11.90719901], [14.376704, -11.90787716], [14.37516925, -11.91076821], [14.37463387, -11.91144635], [14.3734699, -11.91430928], [14.3647184, -11.91031739], [14.3123465, -11.91568569], [14.2447987, -11.95333959], [14.2445335, -11.97104449], [14.2585325, -11.97814939], [14.3108244, -11.97907259], [14.3176727, -11.99290369], [14.3045015, -12.00924019], [14.30438485, -12.0092907], [14.30378542, -12.00917082], [14.30314296, -12.00917082], [14.29789625, -12.01017019], [14.29443414, -12.01124095], [14.2910434, -12.01259724], [14.28990126, -12.01313262], [14.28772406, -12.01348954], [14.28643915, -12.01395353], [14.285761, -12.01470306], [14.28411917, -12.01709442], [14.2835078, -12.01748163], [14.2419939, -12.02298639], [14.1839094, -12.04471779], [14.1254644, -12.02530859], [14.1492605, -12.00765709], [14.14415583, -11.98610226], [14.14932272, -11.98626851], [14.1520353, -11.98612574], [14.14415583, -11.98610225], [14.12566249, -11.9396285], [14.1456286, -11.93530125], [14.12566249, -11.93962849], [14.1142759, -11.88649079], [14.1270752, -11.83273409], [14.1586475, -11.75593849], [14.1714458, -11.68938259], [14.2106972, -11.64245219], [14.2431221, -11.61514659], [14.2234964, -11.55883029], [14.2380018, -11.54603099], [14.2456818, -11.51701929], [14.2431221, -11.48203469], [14.2081375, -11.40353299], [14.2106972, -11.34636309], [14.2354422, -11.32417769], [14.2678671, -11.33185669], [14.2772532, -11.35404209], [14.3165045, -11.37110809], [14.3463697, -11.36854839], [14.3514891, -11.33868309], [14.3386898, -11.30455209], [14.3122377, -11.27724649], [14.2721338, -11.26018049], [14.2380018, -11.23543639], [14.2057447, -11.19273849], [14.1897602, -11.12559699], [14.2227021, -11.07150859], [14.1836122, -11.04968819], [14.1501141, -11.12792209], [14.1449947, -11.24567509], [14.1554899, -11.29811099], [14.14466, -11.31619929], [14.1470156, -11.35395339], [14.1386242, -11.36579989], [14.150588, -11.38887209], [14.1316671, -11.43709659], [14.1397028, -11.44867039], [14.1810837, -11.46656129], [14.2003613, -11.51090339], [14.1613932, -11.52677059], [14.1481552, -11.54824159], [14.1568975, -11.59068199], [14.1479921, -11.59737679], [14.1369486, -11.62860009], [14.0851355, -11.71450039], [14.0655336, -11.80441189], [14.0724039, -11.85367109], [14.0667286, -11.87870599], [14.0172024, -11.88978859], [14.0000076, -11.89975259], [13.9932842, -11.91619489], [14.0109453, -11.95137309], [14.0219631, -11.96071819], [13.9711733, -12.01347449], [13.9749203, -12.02313519], [13.9085035, -11.96316619], [13.8768482, -11.92200369], [13.8658524, -11.91740889], [13.8595276, -11.97537609], [13.8370781, -12.05435749], [13.8137903, -12.11218259], [13.7864273, -12.14428769], [13.83996315, -12.15431163], [14.27516297, -12.32467993], [14.3069578, -12.35304469], [14.32018445, -12.37936719], [14.32296702, -12.40753015], [14.31506588, -12.4351084], [14.28921424, -12.46689691], [14.24961459, -12.48861013], [14.20229561, -12.49693969], [14.16606049, -12.4935561], [13.71808763, -12.32175599], [13.69038737, -12.30336999], [13.66635543, -12.27075717], [13.66028607, -12.23351733], [13.67909063, -12.18909593], [13.71245741, -12.16184998], [13.7642167, -12.14553771], [13.7832413, -12.03775599], [13.8421907, -11.83014969], [13.84768317, -11.7676813], [13.84235898, -11.783091], [13.8464622, -11.67722319], [13.8421907, -11.56701179], [13.8507347, -11.46107389], [13.8678217, -11.34146599], [13.8849077, -11.27397249], [13.8932009, -11.15332979], [13.9006119, -11.14081669], [13.8887863, -11.03830809], [13.8920364, -11.01837059], [13.9094591, -10.99015239], [13.886507, -10.96169469], [13.873064, -10.92372509], [13.8295336, -10.90807629], [13.7272282, -10.76775169], [13.7241039, -10.75235559], [13.74331066, -10.7469072], [13.75226026, -10.72670039], [13.77230039, -10.71380377], [13.78219443, -10.69810993], [13.7747784, -10.66921329], [13.6230736, -10.47800919], [13.54058717, -10.40157372], [13.53507119, -10.38114813], [13.548831, -10.36323549], [13.5486879, -10.33850099], [13.5226133, -10.26336869], [13.535368, -10.26880649], [13.4798717, -10.21238709], [13.4594167, -10.17578979], [13.4465799, -10.12929059], [13.4107056, -10.07790089], [13.3977642, -10.07859089], [13.3658199, -10.04941079], [13.3575706, -10.02460959], [13.3137798, -9.97829059], [13.3391857, -9.96811289], [13.3469849, -9.94921589], [13.3237265, -9.90668559], [13.3189468, -9.86240769], [13.2698517, -9.78282359], [13.2016656, -9.69295579], [13.2018871, -9.67710019], [13.2358818, -9.65694709], [13.2415552, -9.62955859], [13.19935862, -9.55293537], [13.2072496, -9.52530569], [13.1766367, -9.46611019], [13.1797724, -9.41554449], [13.15810796, -9.34392674], [13.1257358, -9.29682179], [13.0813332, -9.21105379], [13.0039577, -9.09871669], [13.01722863, -9.10135541], [13.028039, -9.07240389], [13.05298179, -9.05219679], [13.07805474, -8.99996665], [13.09061178, -8.99246562], [13.0939201, -8.9752251], [13.09457962, -8.98138182], [13.10464414, -8.95872594], [13.11212375, -8.95487675], [13.14746032, -8.95731751], [13.1849709, -8.98226689], [13.2199162, -8.98759409], [13.2380052, -9.00963159], [13.2640783, -9.02336529], [13.2993842, -9.02525519], [13.3256616, -9.01457579], [13.3458257, -8.99471069], [13.3568063, -8.96868549], [13.3571632, -8.93915939], [13.3470018, -8.91401389], [13.3815543, -8.88233029], [13.3898037, -8.84001979], [13.4230814, -8.83161319], [13.4493744, -8.80810749], [13.4614163, -8.77505919], [13.45873879, -8.74528838], [13.46036248, -8.74527967], [13.4614479, -8.7449896], [13.46178629, -8.74522421], [13.46168748, -8.74680087], [13.46192017, -8.7501014], [13.46240147, -8.75095313], [13.46330009, -8.75137019], [13.46548322, -8.75193026], [13.46578817, -8.75262816], [13.4661092, -8.7531577], [13.46812143, -8.75411515], [13.46928008, -8.76057357], [13.47582381, -8.76936577], [13.47614649, -8.76949722], [13.47755837, -8.76861485], [13.47790407, -8.76876171], [13.47828252, -8.77031734], [13.47875001, -8.77079387], [13.47920364, -8.77089522], [13.48007407, -8.77069202], [13.48083742, -8.77032762], [13.48139953, -8.77024567], [13.48178387, -8.7703544], [13.4821508, -8.77096067], [13.48337764, -8.77206037], [13.48394609, -8.77231529], [13.48454808, -8.77223124], [13.48338005, -8.77205799], [13.48178629, -8.77035201], [13.48140195, -8.77024329], [13.48083984, -8.77032524], [13.47920606, -8.77089284], [13.47875243, -8.77079149], [13.47790649, -8.76875932], [13.47756079, -8.76861247], [13.47582622, -8.76936339], [13.47349341, -8.76208107], [13.4692825, -8.76057119], [13.46812384, -8.75411277], [13.46548564, -8.75192787], [13.46240388, -8.75095075], [13.4617887, -8.74522183], [13.46145031, -8.74498721], [13.45874121, -8.74528599], [13.45828714, -8.74565302], [13.4404897, -8.71648029], [13.4102911, -8.6982935], [13.4140368, -8.63914679], [13.3882637, -8.61285019], [13.373558, -8.58190249], [13.36950396, -8.53536914], [13.34808912, -8.46764596], [13.38307, -8.46960159], [13.4207916, -8.48447509], [13.4550953, -8.54913429], [13.505208, -8.57414439], [13.5974522, -8.58229729], [13.6590872, -8.57953549], [13.717411, -8.60124869], [13.7478685, -8.62183379], [13.7740211, -8.65717789], [13.8199997, -8.68890949], [13.7785492, -8.70009419], [13.7523918, -8.70015239], [13.7309055, -8.66375539], [13.66471, -8.66016099], [13.6516056, -8.64448169], [13.6325312, -8.63838959], [13.5674362, -8.63303949], [13.5653124, -8.66102029], [13.5769787, -8.69266319], [13.6198454, -8.77004909], [13.6565723, -8.79876519], [13.6980906, -8.81957819], [13.7744865, -8.84163859], [13.8376675, -8.89026829], [13.88166849, -8.9677603], [13.88153556, -8.96776317], [13.87478635, -8.96825916], [13.87117105, -8.96855608], [13.85872162, -8.95651529], [13.83916517, -8.9527689], [13.8276283, -8.95615419], [13.8217096, -8.95581955], [13.81924881, -8.95707734], [13.82762589, -8.95615657], [13.83916276, -8.95277128], [13.85871921, -8.95651767], [13.87116864, -8.96855847], [13.88166982, -8.9677626], [13.9480141, -9.08583899], [13.9122528, -9.07732439], [13.8442308, -9.08318499], [13.7708102, -9.05049469], [13.6982367, -9.04258729], [13.6771003, -9.04562659], [13.6418832, -9.06883119], [13.6266409, -9.10055369], [13.6282423, -9.13567199], [13.6463139, -9.16589309], [13.6698727, -9.18166209], [13.7212784, -9.18930089], [13.8081855, -9.22617799], [13.8910293, -9.22381319], [13.9337437, -9.24587999], [13.9743548, -9.24240519], [14.0186777, -9.36778549], [14.040885, -9.40076159], [14.0771313, -9.43056679], [14.086874, -9.51700779], [14.0761471, -9.53223509], [14.14084274, -9.57047742], [14.1401424, -9.58028035], [14.14043233, -9.5888807], [14.14110867, -9.5928427], [14.14458746, -9.60308582], [14.14806616, -9.6094637], [14.15124083, -9.61397945], [14.14111109, -9.59284031], [14.1408449, -9.57047861], [14.1570358, -9.57942299], [14.1816053, -9.61243249], [14.1960649, -9.62012199], [14.2171526, -9.61364649], [14.2681227, -9.55743219], [14.306157, -9.54237429], [14.3277149, -9.49496419], [14.2905446, -9.49898459], [14.2488933, -9.48409099], [14.229125, -9.46622439], [14.1828264, -9.39637139], [14.176435, -9.35288189], [14.1914384, -9.31153499], [14.2242883, -9.28209229], [14.2600713, -9.27183809], [14.2433529, -9.26280019], [14.1981392, -9.21000579], [14.177803, -9.16851039], [14.1772575, -9.12737659], [14.1554842, -9.02759839], [14.1276932, -8.98025799], [14.0405779, -8.89526369], [13.983489, -8.82680419], [13.9094143, -8.76789859], [13.9082279, -8.73286439], [13.8720093, -8.59912109], [13.8615398, -8.52754589], [13.8223451, -8.40696179], [13.8510106, -8.39283579], [13.8721239, -8.36465679], [13.877733, -8.33698569], [13.8692533, -8.30285619], [13.8513372, -8.28098339], [13.8194748, -8.26585829], [13.7908894, -8.26578559], [13.7641449, -8.27689729], [13.6135387, -8.00945469], [13.4829273, -7.81618359], [13.4600706, -7.79745149], [13.4129677, -7.77364969], [13.3596306, -7.70976689], [13.2352943, -7.63352729], [13.2111883, -7.58964779], [13.212184, -7.56684829], [13.194582, -7.48431539], [13.1421528, -7.40787979], [13.1127062, -7.34164089], [13.0611048, -7.25438309], [13.0398798, -7.18319459], [13.0484314, -7.06647679], [13.0190992, -7.05841539], [13.0058699, -7.07342769], [13.0098953, -7.05593059], [12.9953251, -7.03165819], [12.9687243, -6.94097659], [12.970192, -6.92846539], [12.9250927, -6.92777109], [12.9425688, -7.01934579], [12.9340248, -7.17312859], [12.9083939, -7.22438809], [12.86289597, -7.27853872], [12.85551652, -7.26926215], [12.8523153, -7.24477796], [12.85740888, -7.22169713], [12.8452711, -7.14478249], [12.85017577, -7.10932251], [12.832325, -7.04632469], [12.8299966, -7.02750699], [12.8362474, -7.01637549], [12.8174057, -6.96490529], [12.7980595, -6.94658369], [12.7414865, -6.85141519], [12.6874325, -6.79169549], [12.68309442, -6.79564288], [12.65674525, -6.77056532], [12.56187092, -6.66278268], [12.5658512, -6.65823639], [12.550437, -6.62052919], [12.5081587, -6.55130479], [12.3983722, -6.33146081], [12.3416719, -6.23848299], [12.2954101, -6.17602089], [12.3092775, -6.18245839], [12.3053067, -6.15972689], [12.3134911, -6.15221629], [12.3350029, -6.16969159], [12.3238526, -6.13942579], [12.3542786, -6.13844159], [12.3753834, -6.15435649], [12.3669405, -6.17655179], [12.3784428, -6.18526599], [12.3755894, -6.19718459], [12.3853674, -6.20421549], [12.3870258, -6.21809819], [12.3951387, -6.21193409], [12.3846111, -6.18672609], [12.3884163, -6.17067809], [12.3830109, -6.14571619], [12.3611917, -6.13255359], [12.4036674, -6.13701819], [12.4180317, -6.13473269], [12.4173784, -6.12393379], [12.4352913, -6.12392139], [12.4653177, -6.14478489], [12.4749565, -6.14215369], [12.4570665, -6.12006569], [12.4713469, -6.10990329], [12.4898157, -6.11773399], [12.5012789, -6.14203739], [12.5588741, -6.15314529], [12.5866146, -6.14867689], [12.6151543, -6.15848349], [12.6330271, -6.15733669], [12.6468039, -6.15291309], [12.5878391, -6.13948869], [12.5681009, -6.14498329], [12.5061913, -6.13013939], [12.5092611, -6.11913919], [12.4990206, -6.11210349], [12.4995842, -6.09968999], [12.5249271, -6.12093159], [12.5161951, -6.10872269], [12.5397711, -6.11125469], [12.5233679, -6.10207079], [12.5202436, -6.09282729], [12.5530701, -6.08152059], [12.5596819, -6.08482689], [12.5566034, -6.09720949], [12.6022339, -6.11551759], [12.6070995, -6.10844759], [12.5694504, -6.09346529], [12.5892944, -6.08419179], [12.5961876, -6.07172389], [12.6128063, -6.08298109], [12.6423035, -6.08750389], [12.6764336, -6.08587309], [12.6827755, -6.07973379], [12.6619329, -6.06681489], [12.6572981, -6.07365939], [12.627285, -6.07626719], [12.6026678, -6.06329389], [12.6133935, -6.05022479], [12.6400909, -6.06353379], [12.6578602, -6.04641499], [12.6751585, -6.04512359], [12.6951809, -6.06102749], [12.7373085, -6.06179519], [12.7577372, -6.05561109], [12.794754, -6.06643869], [12.8536158, -6.03679699], [12.8780172, -6.00967309], [12.8982944, -6.00466349], [12.9335213, -5.98000569], [12.944066, -5.97898579], [12.9563293, -5.95836589], [12.9559977, -5.93467289], [13.0029774, -5.90832469], [13.0354614, -5.91470859], [13.0909557, -5.90731759], [13.0991468, -5.91593979], [13.1282282, -5.91882559], [13.1312828, -5.90711399], [13.1542702, -5.89587209], [13.1925697, -5.89126249], [13.2213135, -5.87593889], [13.2299662, -5.88479659], [13.2464905, -5.88130659], [13.2858086, -5.89859289], [13.3026619, -5.91630459], [13.3274193, -5.91682669], [13.3289862, -5.92329739], [13.3397846, -5.91927769], [13.3480024, -5.92536689], [13.3618116, -5.91654209], [13.3787384, -5.88447809], [13.4023409, -5.88682889], [13.431796, -5.86969979], [13.5069304, -5.86876149], [13.5317736, -5.87834449], [13.55446165, -5.87665028], [13.56187637, -5.88698401], [13.58291321, -5.87560346], [13.8292685, -5.87507199], [13.8658673, -5.86227279], [13.917373, -5.85552239], [13.9514189, -5.85785289], [14.00379595, -5.83398818], [14.03264684, -5.83949393], [14.03036141, -5.84894778], [14.04047904, -5.85242745], [14.05762023, -5.84390455], [14.06198571, -5.84880931], [14.08098864, -5.84162041], [14.10049228, -5.84352088], [14.10431857, -5.83741165], [14.11705556, -5.84407296], [14.13672612, -5.83611506], [14.14448132, -5.84987033], [14.15943962, -5.84425941], [14.16101884, -5.85059066], [14.16716913, -5.84305894], [14.1670631, -5.86712929], [14.1772575, -5.86160799], [14.2315931, -5.88922309], [14.2952003, -5.88230089], [14.3660202, -5.89604139], [14.4586296, -5.90117549], [14.5312187, -5.89548569], [14.5951385, -5.91024729], [14.6937874, -5.88274339], [14.9613686, -5.87348029], [15.5258722, -5.87689069], [15.6701059, -5.87010149], [15.8569479, -5.88074539], [16.3659401, -5.86469319], [16.3843365, -5.86756179], [16.4146042, -5.89220089], [16.454607, -5.89630509], [16.4781761, -5.88280919], [16.5116882, -5.87844469], [16.5728464, -5.90784449], [16.5687943, -5.94860889], [16.5906391, -5.95473429], [16.5821762, -5.96925739], [16.59657619, -5.99838059], [16.59808246, -6.01663181], [16.58827396, -6.0326729], [16.59515933, -6.03259613], [16.5936203, -6.03984019], [16.6076736, -6.04063219], [16.5977924, -6.05161321], [16.5993366, -6.06487849], [16.631916, -6.06994479], [16.6080589, -6.07535409], [16.6067257, -6.08570719], [16.611578, -6.09166569], [16.6441117, -6.09706119], [16.649107, -6.10691549], [16.6429501, -6.11728949], [16.6455231, -6.12739559], [16.6595287, -6.12434859], [16.6706238, -6.13786839], [16.6885567, -6.13940239], [16.7215443, -6.16593549], [16.72254619, -6.19132209], [16.70365418, -6.20402936], [16.71523645, -6.22440125], [16.70355708, -6.2674694], [16.7199074, -6.32950991], [16.68683906, -6.32839696], [16.67553287, -6.33429153], [16.6918843, -6.35560969], [16.67876984, -6.38666707], [16.6911511, -6.39657109], [16.6934738, -6.41022829], [16.7176791, -6.40970809], [16.69563233, -6.42029568], [16.71972315, -6.46421804], [16.70552672, -6.47703746], [16.7518644, -6.52463874], [16.73538618, -6.5572194], [16.73065102, -6.58244088], [16.75770839, -6.60698591], [16.75364966, -6.64742716], [16.76157343, -6.67255196], [16.7608969, -6.70072071], [16.7726116, -6.71923259], [16.80554165, -6.74078772], [16.79835203, -6.76397342], [16.81052768, -6.80871488], [16.8211918, -6.82000399], [16.84216521, -6.82559163], [16.8372849, -6.87646924], [16.8575554, -6.88743019], [16.88297058, -6.88394382], [16.90317877, -6.89980761], [16.90961522, -6.92357855], [16.90072469, -6.94541776], [16.91874686, -6.96914149], [16.89712481, -6.98784], [16.90287439, -7.01982579], [16.91251506, -7.02171022], [16.8810749, -7.05235859], [16.8704777, -7.08475689], [16.8666286, -7.14800789], [16.8755093, -7.21024179], [16.8631687, -7.24262999], [16.8375721, -7.26691009], [16.7706356, -7.24175309], [16.72263261, -7.23530763], [16.75205976, -7.24813706], [16.77771398, -7.27196543], [16.7894528, -7.30146522], [16.78548908, -7.33214599], [16.76642628, -7.35933665], [16.74389041, -7.3749099], [16.70652967, -7.38670938], [16.66932649, -7.38707536], [16.7453423, -7.48845199], [16.7646904, -7.54111669], [16.7927418, -7.59158329], [16.84376168, -7.63751906], [16.93013466, -7.6165924], [16.9699154, -7.59379429], [16.99655141, -7.55440339], [16.99196197, -7.55510124], [16.9974483, -7.53660863], [17.00250544, -7.53561854], [17.00314124, -7.53393298], [16.99744972, -7.53635592], [16.9999352, -7.50621799], [17.0193577, -7.44764179], [17.0316086, -7.43006849], [17.0886002, -7.39803599], [17.0752602, -7.38368029], [17.0382614, -7.37708569], [16.996151, -7.35390189], [16.9784374, -7.31439349], [16.98438595, -7.29482768], [17.0043755, -7.30496409], [17.0064736, -7.29989959], [17.02852821, -7.29798462], [17.03243694, -7.31249032], [17.05859004, -7.32555168], [17.0764637, -7.34278389], [17.10340084, -7.34546371], [17.10899659, -7.35513105], [17.10239749, -7.37789154], [17.10976474, -7.39174198], [17.10090985, -7.41413524], [17.10641605, -7.42319802], [17.1279106, -7.42626949], [17.14580567, -7.4133103], [17.1608238, -7.42519379], [17.1780956, -7.4265564], [17.18365433, -7.440134], [17.17628132, -7.44742014], [17.125782, -7.46110679], [17.0812416, -7.45616479], [17.0356979, -7.52934929], [17.0057144, -7.61236759], [16.9440613, -7.65916439], [16.8733215, -7.67277809], [16.7986774, -7.66123629], [16.7658062, -7.63867279], [16.7411156, -7.60591789], [16.7074184, -7.53428409], [16.6919155, -7.51473709], [16.6800461, -7.47127009], [16.6490784, -7.42875429], [16.5597935, -7.36910009], [16.5622959, -7.34232229], [16.58994978, -7.33815152], [16.58316756, -7.30146522], [16.60373126, -7.26161936], [16.5195827, -7.24778219], [16.4355755, -7.26684949], [16.412302, -7.28484729], [16.3544903, -7.35550169], [16.3456402, -7.37764739], [16.3525887, -7.45186899], [16.3956528, -7.49740119], [16.4592304, -7.51063439], [16.5955181, -7.55825999], [16.6856899, -7.58084389], [16.7594185, -7.64146419], [16.7656517, -7.66320229], [16.7880707, -7.69022989], [16.79814853, -7.72270075], [16.83567816, -7.69954071], [16.88156361, -7.68906877], [17.2898926, -7.68862381], [17.28808895, -7.69280807], [17.30467967, -7.70013038], [17.3145641, -7.69795349], [17.31589762, -7.71394026], [17.33183436, -7.71722078], [17.31728739, -7.75109509], [17.33370703, -7.76631042], [17.32981429, -7.77781057], [17.34000403, -7.78201118], [17.38146533, -7.77857597], [17.37673788, -7.82232922], [17.3902498, -7.81376412], [17.40075104, -7.81989762], [17.39229133, -7.83335371], [17.39434781, -7.84073115], [17.40796479, -7.83175792], [17.42286699, -7.83368115], [17.42067379, -7.86489964], [17.43253025, -7.8664688], [17.43253025, -8.01444635], [17.4674511, -7.99322699], [17.48269291, -7.96928462], [17.48108785, -8.00203839], [17.50190801, -8.00897785], [17.53184944, -8.04530684], [17.51668057, -8.04605767], [17.50194248, -8.06814585], [17.505476, -8.08283329], [17.528265, -8.09248829], [17.529377, -8.10188289], [17.5603333, -8.12745089], [17.6290569, -8.13122939], [17.687439, -8.10829349], [17.7249279, -8.10159869], [17.7572899, -8.10317039], [17.8083191, -8.11799139], [17.8442688, -8.09421439], [17.88246049, -8.08316923], [17.94978537, -8.08897363], [17.9819641, -8.11271569], [17.99982533, -8.09774727], [18.1003609, -8.09905719], [18.10527612, -8.08554713], [18.0953683, -8.07752429], [18.09262612, -8.05908676], [18.10039475, -8.04956013], [18.0981979, -8.04018399], [18.14053012, -8.03684788], [18.15753968, -8.01323112], [18.1763415, -8.01110413], [18.18108342, -8.00009094], [18.2169762, -7.98945379], [18.2613068, -7.99390789], [18.2730597, -7.98994609], [18.3019102, -8.00605269], [18.3042412, -8.01381019], [18.3540211, -8.02652929], [18.3659665, -8.02199319], [18.3756599, -8.02732559], [18.41585704, -8.00124204], [18.53322888, -8.00155513], [18.52807206, -7.99702899], [18.535759, -7.96003289], [18.53232, -7.92037629], [18.6353416, -7.92552849], [18.7640659, -7.92150759], [18.7759991, -7.98649929], [18.806715, -8.00275419], [19.3809695, -8.00106325], [19.3578717, -7.93744183], [19.35975338, -7.90753963], [19.34387686, -7.89860667], [19.36685963, -7.85822526], [19.36179787, -7.81170938], [19.3862705, -7.78470088], [19.40165888, -7.71351176], [19.412906, -7.70096126], [19.4056105, -7.67049263], [19.3702679, -7.59022989], [19.3848114, -7.57385919], [19.474361, -7.57379401], [19.487291, -7.55807351], [19.49701, -7.52511788], [19.4882569, -7.51151032], [19.4915199, -7.50370839], [19.5136833, -7.49590209], [19.5311552, -7.47051719], [19.5493011, -7.47360229], [19.54507513, -7.45193863], [19.5289635, -7.44421576], [19.5328941, -7.43157959], [19.51746105, -7.41485175], [19.52182138, -7.39479138], [19.50694275, -7.39088163], [19.50173612, -7.37031638], [19.4951396, -7.36710852], [19.50566337, -7.35240288], [19.4871597, -7.31349559], [19.49529462, -7.30779801], [19.4883785, -7.30224849], [19.49788825, -7.28117451], [19.49437519, -7.2653909], [19.5075235, -7.24669263], [19.50136769, -7.22572187], [19.50661375, -7.20554288], [19.49794035, -7.17378424], [19.53734297, -7.08482149], [19.562788, -7.05744459], [19.54729679, -7.03004077], [19.55065888, -7.01615888], [19.54536905, -7.00670762], [19.5532303, -7.00521519], [19.6567516, -7.01091959], [19.692255, -7.00428579], [19.8294239, -7.00722839], [20.01825424, -7.00142886], [20.2977943, -7.00574969], [20.30493313, -6.99854426], [20.3166599, -6.95645999], [20.3214779, -6.92052939], [20.3270054, -6.91868729], [20.6254336, -6.91797831], [20.6184711, -6.97555589], [20.58951, -7.00599669], [20.5752563, -7.06957669], [20.5515842, -7.11264799], [20.5436115, -7.14408159], [20.5362206, -7.21930409], [20.5416832, -7.28142979], [20.55564871, -7.28137992], [20.55158225, -7.28478476], [20.5697975, -7.29143519], [20.6861954, -7.29159779], [20.75820096, -7.28510351], [20.81212711, -7.28485434], [20.8619995, -7.29346799], [21.0171261, -7.28515959], [21.2247353, -7.29096599], [21.38421128, -7.28455671], [21.7805882, -7.28389309], [21.78892372, -7.30837894], [21.82144709, -7.33140897], [21.8382359, -7.38577939], [21.8288059, -7.40287489], [21.8533222, -7.42722399], [21.8556652, -7.44246579], [21.8430309, -7.45907779], [21.8569069, -7.47502709], [21.836359, -7.52000329], [21.8532829, -7.55375049], [21.8523369, -7.57011889], [21.8426075, -7.58305219], [21.8476734, -7.60487559], [21.8282127, -7.62216569], [21.8238068, -7.65302899], [21.8103294, -7.66183659], [21.8110352, -7.68225239], [21.7965984, -7.71386339], [21.7954655, -7.73078059], [21.7860432, -7.74051279], [21.7836132, -7.76000209], [21.7680435, -7.77742429], [21.7778492, -7.81726739], [21.7641945, -7.83106899], [21.7620564, -7.84535649], [21.7706738, -7.89362719], [21.7680664, -7.90744499], [21.7447529, -7.93294189], [21.7597542, -7.95990229], [21.76297455, -7.99935827], [21.7755865, -8.01203973], [21.77545475, -8.02755801], [21.78958498, -8.03318601], [21.81928938, -8.06763756], [21.83662032, -8.10414813], [21.83166238, -8.11498663], [21.84511063, -8.12346425], [21.85003788, -8.14169488], [21.88419488, -8.17518526], [21.88518368, -8.18302938], [21.8735965, -8.19364019], [21.89279875, -8.25089003], [21.89366353, -8.29214338], [21.93067843, -8.31504839], [21.93386719, -8.32751489], [21.91513704, -8.34487804], [21.91873368, -8.39186035], [21.9370477, -8.41417591], [21.94909257, -8.44570897], [21.94360705, -8.4782749], [21.95172237, -8.5012154], [21.92865702, -8.52583685], [21.94331484, -8.53951564], [21.94116331, -8.55996503], [21.92537289, -8.56666009], [21.92780747, -8.57681889], [21.91963395, -8.59048464], [21.93003727, -8.59209839], [21.9226017, -8.59997369], [21.93114926, -8.60368466], [21.92977243, -8.60890363], [21.91062281, -8.62291707], [21.9057622, -8.6341917], [21.9139738, -8.66444896], [21.90568363, -8.66779806], [21.90698796, -8.6783481], [21.8911684, -8.70662148], [21.89585295, -8.78347608], [21.88355428, -8.81607189], [21.87116904, -8.8232221], [21.87806415, -8.83549668], [21.86067965, -8.85191576], [21.86772245, -8.87591413], [21.85407104, -8.90179637], [21.86035227, -8.91376205], [21.84525627, -9.02678668], [21.85499782, -9.04095811], [21.83497267, -9.0598435], [21.83973831, -9.07500372], [21.8350594, -9.10404338], [21.84030543, -9.10818805], [21.84253698, -9.14363492], [21.84957051, -9.14606356], [21.85691882, -9.16476085], [21.85789198, -9.22764389], [21.83934229, -9.25200435], [21.83877184, -9.27237379], [21.82357491, -9.28949449], [21.82180673, -9.3153333], [21.80838714, -9.33047714], [21.80402497, -9.35047567], [21.809769, -9.35763372], [21.80344525, -9.36521383], [21.80898652, -9.37128705], [21.79046612, -9.40742825], [21.79119731, -9.4177508], [21.83086503, -9.45925874], [21.82649661, -9.47817722], [21.83106517, -9.50744459], [21.8647405, -9.55918597], [21.86045747, -9.59449122], [21.87128401, -9.61049309], [21.86438358, -9.62283655], [21.87102898, -9.62504678], [21.87349422, -9.6486152], [21.89448376, -9.6678381], [21.93585202, -9.68859912], [21.93235221, -9.69904494], [21.9417439, -9.71589469], [21.94837, -9.75241469], [21.9765205, -9.76591299], [22.00065908, -9.76288605], [21.99822826, -9.77857103], [22.0077, -9.79226109], [22.01333784, -9.81943827], [22.0254059, -9.83517739], [22.0415446, -9.83409026], [22.0732689, -9.87766169], [22.0956917, -9.88589759], [22.1166534, -9.87526799], [22.1301746, -9.89423269], [22.1526909, -9.89165879], [22.18621973, -9.91910885], [22.1910084, -9.93186871], [22.18667301, -9.9406843], [22.20373851, -9.98516863], [22.19329863, -9.99474596], [22.20263206, -10.01172937], [22.21250683, -10.01682141], [22.20587978, -10.04170647], [22.22176293, -10.0694313], [22.21558915, -10.07497962], [22.21321238, -10.09426816], [22.22197708, -10.10931106], [22.22059699, -10.12432546], [22.21424383, -10.1223743], [22.22240629, -10.13361936], [22.21621879, -10.14062477], [22.21548422, -10.15898836], [22.23081916, -10.17335663], [22.23610061, -10.21637634], [22.252903, -10.22761729], [22.25681144, -10.24453012], [22.27782658, -10.26059691], [22.2843674, -10.28870986], [22.28002489, -10.29790053], [22.29406371, -10.31851261], [22.3016649, -10.32003319], [22.29941714, -10.32732527], [22.30565089, -10.3259942], [22.30295694, -10.33216476], [22.31114229, -10.34655456], [22.30483672, -10.35152763], [22.31484712, -10.35477516], [22.31516358, -10.37070608], [22.32237019, -10.373127], [22.32819121, -10.38776104], [22.3176532, -10.40017548], [22.31904426, -10.41092839], [22.30608843, -10.42315934], [22.30052343, -10.45079513], [22.2902139, -10.45863508], [22.28409734, -10.49617506], [22.27133153, -10.50695402], [22.30786813, -10.53343111], [22.31595733, -10.56567515], [22.30884274, -10.58181385], [22.31501216, -10.59917306], [22.30938014, -10.61456426], [22.31839641, -10.63580221], [22.3117194, -10.63895842], [22.31479114, -10.64733153], [22.30715747, -10.66457208], [22.32775157, -10.70503004], [22.32011099, -10.72125888], [22.33336791, -10.7394907], [22.3277071, -10.76030782], [22.30380972, -10.781831], [22.26796099, -10.78447456], [22.26325395, -10.79326921], [22.2235587, -10.80918734], [22.18820198, -10.83719249], [22.19011738, -10.84329925], [22.17272157, -10.85056392], [22.16753305, -10.8647644], [22.181963, -10.90744779], [22.20574379, -10.94437608], [22.2067822, -10.97672621], [22.20190602, -10.98370639], [22.21816945, -11.02959287], [22.2146376, -11.06164359], [22.2042198, -11.08219149], [22.2129459, -11.11517239], [22.2499294, -11.14383129], [22.2549877, -11.15786169], [22.2637577, -11.18870639], [22.25383, -11.21339699], [22.25471695, -11.22943921], [22.2255917, -11.22069069], [22.1611652, -11.12581629], [22.1112728, -11.11879539], [22.0489197, -11.09758089], [22.0232639, -11.10863689], [22.0265446, -11.13946339], [22.042532, -11.15875629], [22.0268307, -11.16459849], [21.9290867, -11.12306589], [21.9022344, -11.10015659], [21.91479, -11.05823519], [21.9111689, -11.03745809], [21.8972174, -11.01304879], [21.8615829, -10.99067929], [21.8100053, -10.99199449], [21.7497377, -11.01999879], [21.715497, -11.06379449], [21.6559933, -11.10544779], [21.6004771, -11.16773679], [21.5893075, -11.20088479], [21.5927268, -11.22873019], [21.6116002, -11.25828109], [21.6355809, -11.27333159], [21.6049671, -11.29213619], [21.5687771, -11.30836109], [21.4838562, -11.31859399], [21.4593277, -11.32902239], [21.4369965, -11.32401279], [21.4141159, -11.33697609], [21.3663311, -11.33953569], [21.3162766, -11.33154959], [21.2424488, -11.33822539], [21.1508865, -11.39753059], [21.1163883, -11.41026689], [21.0841541, -11.41327569], [21.0625877, -11.42994309], [21.0368404, -11.43748759], [21.0085239, -11.49131489], [20.9458599, -11.50586799], [20.8190689, -11.49723429], [20.8003292, -11.50187589], [20.8080864, -11.52012729], [20.8351612, -11.53144929], [20.8487682, -11.54682159], [20.8168488, -11.59550189], [20.7969265, -11.59957599], [20.786768, -11.57447719], [20.7522354, -11.57394979], [20.7587891, -11.60142989], [20.7794533, -11.61849209], [20.8989773, -11.66830159], [20.9434433, -11.72524359], [20.9436951, -11.75780299], [20.940361, -11.78238009], [20.9163494, -11.79104899], [20.8903904, -11.77515979], [20.8749809, -11.75637049], [20.8308964, -11.75025839], [20.8055096, -11.73150249], [20.7921295, -11.74869349], [20.7564011, -11.76138879], [20.736784, -11.81115629], [20.6868286, -11.89187149], [20.687067, -11.92671389], [20.714777, -11.94032859], [20.7254391, -11.95285889], [20.6905785, -12.09577559], [20.6966915, -12.13002489], [20.7420025, -12.21896839], [20.7677879, -12.28855419], [20.76717, -12.34364989], [20.7411404, -12.34690479], [20.6863308, -12.33395669], [20.6054478, -12.29195499], [20.5602036, -12.30008699], [20.5262108, -12.32017329], [20.4654026, -12.38201999], [20.4382114, -12.45918659], [20.3937626, -12.50783729], [20.375721, -12.54385569], [20.3609962, -12.64496419], [20.3854408, -12.69572729], [20.4299393, -12.74872109], [20.4826088, -12.78626819], [20.7575989, -12.92472079], [20.7995491, -12.93769839], [20.8333015, -12.95755289], [20.8950214, -13.01040459], [20.9147053, -13.03944019], [20.9353657, -13.11813349], [20.936594, -13.15508269], [20.9787865, -13.23839469], [20.9916096, -13.29256439], [21.0605087, -13.41725059], [21.0802193, -13.44455529], [21.2110844, -13.55235199], [21.3094654, -13.65169999], [21.3615608, -13.72559259], [21.3699591, -13.78875399], [21.3820508, -13.75931769], [21.3996345, -13.73930779], [21.4223999, -13.72514849], [21.4573823, -13.71738859], [21.5096137, -13.73150759], [21.5356567, -13.75561919], [21.5478531, -13.77914199], [21.5523456, -13.81392819], [21.5427677, -13.84907649], [21.5207704, -13.87678069], [21.4895907, -13.89414999], [21.453976, -13.89853639], [21.4193536, -13.88926889], [21.3910009, -13.86775749], [21.3740953, -13.83987509], [21.3794193, -13.93031019], [21.3597336, -14.04108239], [21.3701153, -14.07581809], [21.4008427, -14.07051279], [21.4409294, -14.05374239], [21.4560394, -14.02456379], [21.4722366, -13.92407229], [21.5010166, -13.90279389], [21.5290623, -13.92772579], [21.5449295, -13.97725769], [21.5391884, -14.05543989], [21.513401, -14.14229109], [21.4901695, -14.18862719], [21.4829121, -14.23429389], [21.4904366, -14.27759079], [21.4886131, -14.33405589], [21.4998875, -14.39728069], [21.5138283, -14.42912769], [21.5262146, -14.48378659], [21.5242119, -14.52142719], [21.5334949, -14.56127739], [21.5359592, -14.63080879], [21.530632, -14.69240279], [21.4758663, -14.73319819], [21.4421921, -14.74764349], [21.3205853, -14.74832149], [21.2551098, -14.72358699], [21.2195129, -14.72262949], [21.1958847, -14.73414799], [21.1771183, -14.75931839], [21.1649399, -14.79186339], [21.1764927, -14.82429219], [21.2709656, -14.90473459], [21.3264732, -14.93863009], [21.3747139, -15.01927569], [21.3964558, -15.12170309], [21.3916321, -15.17755599], [21.383131, -15.22146419], [21.3399429, -15.32914729], [21.3864269, -15.38319299], [21.4492455, -15.48647399], [21.5445023, -15.67662619], [21.5848885, -15.72760679], [21.7372036, -15.83419129], [21.7837677, -15.90045549], [21.7960396, -15.93394369], [21.8153458, -15.95657059], [21.8526821, -16.04734039], [21.9190884, -16.12365909], [21.9773884, -16.16589159], [21.9997234, -16.16737559], [21.9988459, -16.20641071], [22.05723, -16.26012799], [22.0750027, -16.26710699], [22.0693798, -16.29505729], [22.1093944, -16.34675359], [22.1278167, -16.40673429], [22.13040593, -16.44275871], [22.12481571, -16.44480185], [22.1389683, -16.48310009], [22.12098666, -16.48957945], [22.13311346, -16.49088662], [22.1251602, -16.49801829], [22.1543102, -16.50010679], [22.16569546, -16.51613871], [22.16076892, -16.52194234], [22.1739553, -16.52626859], [22.18537627, -16.54589992], [22.2148337, -16.55954269], [22.21874301, -16.573575], [22.2611871, -16.58513019], [22.2639531, -16.60174588], [22.27922471, -16.61949646], [22.27684534, -16.62492124], [22.2899038, -16.62557869], [22.3536091, -16.68361659], [22.35061842, -16.69895474], [22.3802094, -16.71027429], [22.49283716, -16.82672067], [22.49088821, -16.83470991], [22.5455857, -16.88019799], [22.621088, -16.95934869], [22.68467717, -17.01526897], [22.69297255, -17.02426418], [22.68545103, -17.0312929], [22.6927319, -17.03936579], [22.7120323, -17.04521309], [22.72173541, -17.05539904], [22.71727141, -17.05762062], [22.73395057, -17.06926876], [22.72859511, -17.07450648], [22.7858887, -17.12252239], [22.8064384, -17.17241289], [22.8764019, -17.20326229], [23.00499723, -17.28828819], [22.99714114, -17.29936978], [23.01085923, -17.30430218], [23.04361295, -17.34673451], [23.0587692, -17.35506819], [23.08669523, -17.41245044], [23.12596998, -17.43405709], [23.12420025, -17.44569374], [23.14373303, -17.45966153], [23.13635201, -17.46595429], [23.1872425, -17.48286819], [23.2159557, -17.52158159], [23.0423622, -17.40440749], [23.0214081, -17.36490629], [22.9777946, -17.33075139], [22.9291248, -17.31821059], [22.7852859, -17.30492399], [22.6272392, -17.31153679], [22.6059818, -17.32312579], [22.5652313, -17.31953429], [22.5372028, -17.32717129], [22.4585171, -17.30631829], [22.3801308, -17.27203749], [22.1968231, -17.24554439], [22.0977173, -17.21397589], [21.906292, -17.11037639], [21.8320847, -17.10635949], [21.802681, -17.09747699], [21.7273502, -17.09968949], [21.6921844, -17.11127659], [21.6636734, -17.13019749], [21.5887165, -17.11136439], [21.5195999, -17.07714649], [21.4795456, -17.07851599], [21.264677, -17.12455179], [21.1675797, -17.16988749], [21.1377354, -17.17741199], [21.0826626, -17.17312429], [21.038847, -17.15515329], [21.0003414, -17.12750049], [21.0090809, -17.09907339], [21.040102, -17.08985139], [21.0694084, -17.09028819], [21.1059799, -17.10091019], [21.190876, -17.09766769], [21.2701759, -17.07114979], [21.3975124, -17.00402449], [21.4381351, -17.00095559], [21.4856071, -17.02566909], [21.6224689, -17.07822039], [21.7114353, -17.06515499], [21.7307987, -17.03038599], [21.7551117, -17.01148409], [21.7896996, -17.00329969], [21.8887711, -17.04122539], [21.9088955, -17.02290919], [21.8696308, -16.93288419], [21.818119, -16.86848829], [21.7867832, -16.84427639], [21.7016106, -16.75678249], [21.6464176, -16.73384279], [21.5715656, -16.71499059], [21.4818363, -16.63937949], [21.401947, -16.58925439], [21.3784351, -16.56494519], [21.286068, -16.51655769], [21.1502953, -16.48312949], [21.1238403, -16.45994759], [21.0586624, -16.37155529], [21.0095215, -16.34391019], [20.9025478, -16.31763079], [20.8541946, -16.31213379], [20.8588276, -16.29392049], [20.9366436, -16.25437159], [21.0393505, -16.27156259], [21.1160431, -16.31443209], [21.1527615, -16.35349269], [21.2146511, -16.40436169], [21.2041283, -16.36120219], [21.1966972, -16.26172639], [21.1975365, -16.22134399], [21.2165661, -16.21556279], [21.2406044, -16.23705289], [21.2521725, -16.26372339], [21.2572365, -16.36320879], [21.2728329, -16.43874549], [21.2987099, -16.46305659], [21.35692001, -16.47372845], [21.35068475, -16.43702382], [21.36242357, -16.40654389], [21.38807779, -16.3819258], [21.42374178, -16.3669147], [21.46398603, -16.3637936], [21.49348932, -16.36961282], [21.54000228, -16.39967324], [21.55696999, -16.43702382], [21.55300627, -16.46872683], [21.5271131, -16.50276401], [21.48606744, -16.52256043], [21.563055, -16.58092309], [21.5903301, -16.62167739], [21.6905575, -16.67105099], [21.7959595, -16.69876099], [21.8297138, -16.72693819], [21.8933353, -16.80773929], [21.9606171, -16.94472309], [21.9798698, -17.00762369], [22.0271072, -17.11062049], [22.0716114, -17.13128849], [22.1806145, -17.14291949], [22.2329559, -17.16747469], [22.2728405, -17.19950289], [22.3667526, -17.19813729], [22.4171658, -17.21018409], [22.5194263, -17.25127409], [22.6754951, -17.24299429], [22.733345, -17.22937389], [22.8336334, -17.25448609], [22.8664017, -17.24450109], [22.7614498, -17.17343519], [22.7278938, -17.13972469], [22.6437664, -17.02526659], [22.598362, -16.94050409], [22.5292969, -16.91615299], [22.400631, -16.85766409], [22.3523941, -16.82399749], [22.3580132, -16.79611019], [22.3190823, -16.74133109], [22.2675514, -16.63265799], [22.2058125, -16.56439779], [22.1504993, -16.53773879], [22.1163673, -16.50787349], [22.1010094, -16.48483469], [22.0838108, -16.42500109], [22.0531979, -16.37857439], [22.0003777, -16.35054589], [21.9857292, -16.32165719], [21.9761391, -16.26542849], [21.9542675, -16.22976299], [21.8949127, -16.20062069], [21.876215, -16.18141749], [21.851738, -16.12414169], [21.8311386, -16.09357069], [21.74152266, -16.00713015], [21.70996708, -16.02760961], [21.66111073, -16.0372301], [21.61225438, -16.02760961], [21.57493582, -16.00102244], [21.5594605, -15.97165887], [21.56193183, -15.93212837], [21.58099463, -15.90410766], [21.61323964, -15.88358779], [21.5856953, -15.86703679], [21.5307693, -15.85314559], [21.3972969, -15.84424689], [21.3658466, -15.82159899], [21.3862762, -15.81187059], [21.397131, -15.76343439], [21.3926983, -15.67181969], [21.3838253, -15.61380479], [21.33555835, -15.50910723], [21.29540036, -15.53934687], [21.23605196, -15.54851458], [21.2682457, -15.59677789], [21.240036, -15.63620279], [21.2116108, -15.65171619], [21.1693993, -15.65647789], [21.1384106, -15.65093519], [21.0977421, -15.62664889], [21.0829678, -15.63867089], [21.0644112, -15.69738579], [21.0443287, -15.71625899], [20.9822083, -15.76320269], [20.90238, -15.78571699], [20.8123531, -15.73655989], [20.6673183, -15.67957499], [20.58156382, -15.66686548], [20.6902908, -15.70999169], [20.72389037, -15.73404594], [20.94321722, -16.07498552], [20.95598704, -16.11128401], [20.95036662, -16.14869241], [20.92718947, -16.18166233], [20.90026708, -16.20048766], [20.86761683, -16.21245481], [20.8319773, -16.21655876], [20.00284388, -16.21655876], [19.95524954, -16.20910983], [19.914901, -16.18789859], [19.89315932, -16.16483685], [19.87907274, -16.12831096], [19.87847387, -15.79294397], [19.8838292, -15.76459765], [19.914901, -15.7239017], [20.13198053, -15.55440013], [20.0654602, -15.51528069], [20.0237904, -15.50736049], [19.8048668, -15.49387359], [19.759346, -15.47595409], [19.7766304, -15.41986269], [19.7973232, -15.38967419], [19.8554668, -15.36060049], [20.031744, -15.30178259], [20.0464783, -15.27556509], [20.0366993, -15.21805099], [20.004343, -15.15941909], [19.986454, -15.14405629], [19.8680782, -15.10428139], [19.8382435, -15.06954859], [19.8321037, -15.01941589], [19.8670597, -15.00116249], [19.9051018, -15.01139159], [19.9253521, -15.02618789], [19.943121, -15.01591679], [19.9435921, -14.98799799], [19.9345932, -14.96635529], [19.8599777, -14.86669249], [19.7784176, -14.79948809], [19.6474684, -14.72303726], [19.60849665, -14.73606236], [19.56805767, -14.73606236], [19.53069693, -14.72397079], [19.49687336, -14.69481481], [19.48662693, -14.67244418], [19.48513454, -14.64871572], [19.49252473, -14.625673], [19.51499143, -14.59941498], [19.53942081, -14.58526719], [19.5781185, -14.57610122], [19.6377137, -14.58553873], [19.636467, -14.57664489], [19.6150894, -14.56638149], [19.5812931, -14.56466389], [19.5161686, -14.59485239], [19.4990196, -14.61023519], [19.4676914, -14.64498899], [19.4429245, -14.69741059], [19.4335346, -14.73559189], [19.4342003, -14.76294899], [19.4584618, -14.95785899], [19.4515858, -15.05015469], [19.4314384, -15.06552219], [19.3886948, -15.07118509], [19.3135395, -15.04655649], [19.2770939, -15.09271339], [19.2635174, -15.13314249], [19.3316059, -15.29669759], [19.2992516, -15.44927879], [19.3064671, -15.48515889], [19.3127403, -15.63204959], [19.2709599, -15.85453989], [19.273428, -15.89551349], [19.26404, -15.96321199], [19.2766819, -16.02581019], [19.3132362, -16.11971469], [19.3270779, -16.17774769], [19.3099613, -16.25507349], [19.2631321, -16.38921359], [19.2191925, -16.49716759], [19.1430645, -16.65448759], [19.1413593, -16.70562739], [19.1594257, -16.79372599], [19.2127266, -16.86368559], [19.3498707, -16.99221989], [19.6284618, -17.17464639], [19.7579632, -17.25183869], [19.8084183, -17.30063439], [19.8726559, -17.34883879], [19.971283, -17.45146749], [20.0373802, -17.50019069], [20.0776958, -17.53928379], [20.1208725, -17.54943469], [20.1779861, -17.58962249], [20.2584572, -17.62521359], [20.321476, -17.64437099], [20.4351044, -17.70649719], [20.5011311, -17.72277259], [20.5781193, -17.76395029], [20.684412, -17.79140659], [20.7458191, -17.82748599], [20.8053379, -17.84938619], [20.8667717, -17.88487049], [20.9220428, -17.89769169], [21.0489464, -17.86937899], [21.1509113, -17.87231249], [21.3522034, -17.91550829], [21.4775505, -17.97658919], [21.5153989, -18.00481769], [21.424722, -18.02196629], [21.4166756, -18.01391979], [21.3852868, -18.00839089], [21.36156527, -17.98489019], [21.3219604, -17.98575969], [21.281004, -17.96528239], [21.2673512, -17.96613499], [21.24203191, -17.95513904], [21.22393567, -17.93503135], [21.21009215, -17.9293635], [21.18287809, -17.93611855], [21.11370399, -17.93422097], [21.09725551, -17.94938538], [21.06621546, -17.94411397], [21.05613349, -17.95216419], [21.0050585, -17.95883359], [20.980648, -17.95504189], [20.9439564, -17.96698759], [20.92375885, -17.98615957], [20.8876487, -17.99989106], [20.8703539, -17.99976043], [20.86279944, -18.00699152], [20.86230616, -18.02046465], [20.8517704, -18.02759549], [20.8168678, -18.03462219], [20.75739837, -18.01581518], [20.74506405, -18.00150001], [20.719059, -18.01279829], [20.6758556, -17.98674199], [20.64227029, -17.97688793], [20.58974507, -17.97455423], [20.5475963, -17.98318969], [20.50568981, -17.95935352], [20.50351276, -17.95272441], [20.49524899, -17.95451034], [20.477457, -17.94383619], [20.4582024, -17.91246219], [20.36415831, -17.89385428], [20.32318474, -17.86224108], [20.30309671, -17.8649063], [20.2950334, -17.87590339], [20.27553575, -17.86603733], [20.26385615, -17.86831782], [20.2464432, -17.89296678], [20.22909928, -17.88418634], [20.1706022, -17.87697977], [20.16384078, -17.88898299], [20.10957405, -17.91065275], [20.09091256, -17.89474138], [20.05828033, -17.88540921], [20.0386238, -17.90043259], [20.0184574, -17.90126229], [19.9979019, -17.887334], [19.9776363, -17.89021489], [19.9391136, -17.86487389], [19.91852312, -17.86219536], [19.91015896, -17.86297891], [19.8986625, -17.87667759], [19.88606614, -17.87835273], [19.81127145, -17.86871197], [19.77206146, -17.89093226], [19.76189774, -17.90849932], [19.7428429, -17.9063583], [19.72558488, -17.87628859], [19.70863775, -17.87360859], [19.70662619, -17.88420898], [19.68450762, -17.855358], [19.67005256, -17.84828731], [19.62999392, -17.85067504], [19.62282507, -17.86097192], [19.61390125, -17.85823696], [19.60827564, -17.86575975], [19.58125043, -17.85638415], [19.56804524, -17.87303842], [19.5124157, -17.86078304], [19.5026682, -17.87133869], [19.46026523, -17.8612693], [19.43487972, -17.86826724], [19.4069343, -17.86668187], [19.4210538, -17.83565979], [19.4203589, -17.80753009], [19.4084817, -17.78179529], [19.3820217, -17.75953459], [19.45563449, -17.76589128], [19.26975389, -17.47124404], [19.25693669, -17.43418206], [19.26300606, -17.39606489], [19.28703799, -17.36269443], [19.32537385, -17.33914733], [19.37217734, -17.32900428], [19.40856886, -17.33120625], [19.44258563, -17.34167347], [19.48624637, -17.3747506], [19.70443314, -17.72047546], [19.71233428, -17.74873431], [19.70758183, -17.78318811], [19.8145332, -17.78282739], [19.9356709, -17.79351999], [20.0520763, -17.81550979], [20.2917881, -17.79811099], [20.3542557, -17.81838989], [20.549139, -17.91483879], [20.5833836, -17.92380909], [20.6649494, -17.92355919], [20.6407757, -17.89699359], [20.4284897, -17.81124879], [20.2890034, -17.72950739], [20.0511055, -17.61419489], [19.9687462, -17.55188939], [19.8382549, -17.42660519], [19.6923695, -17.31485559], [19.6132202, -17.26944539], [19.489193, -17.21263499], [19.3328114, -17.11202049], [19.295145, -17.06102939], [19.2518845, -17.01936529], [19.1728611, -16.95904919], [19.1315212, -16.90048029], [19.1117325, -16.85784149], [19.0853214, -16.77484889], [19.0792828, -16.72994999], [19.0999889, -16.59871669], [19.1606579, -16.46808619], [19.1939011, -16.37319559], [19.1700001, -16.34984589], [19.1288223, -16.33726879], [19.0930462, -16.34459689], [19.0644131, -16.34283829], [18.9820442, -16.29262919], [18.8853645, -16.20141029], [18.8441715, -16.11029819], [18.8227005, -16.08350559], [18.7839298, -15.99635789], [18.7325821, -15.90948769], [18.6993256, -15.93977929], [18.6618023, -15.92265699], [18.6600132, -15.93510249], [18.6379738, -15.95323749], [18.6247997, -16.00452419], [18.5414562, -16.00126459], [18.5158844, -16.01373289], [18.5193996, -16.02792169], [18.509222, -16.11947249], [18.4781914, -16.17794039], [18.4393578, -16.28925699], [18.4363117, -16.36885069], [18.4165611, -16.44779969], [18.3902721, -16.48237229], [18.3540401, -16.49569699], [18.3234577, -16.46503639], [18.2554626, -16.44313239], [18.2250671, -16.42082019], [18.161871, -16.39380069], [18.0969696, -16.32979769], [18.0636845, -16.27389909], [18.0310879, -16.18159679], [18.0090923, -16.15474889], [18.004385, -16.12799069], [17.9818153, -16.09430689], [17.9379539, -15.99792289], [17.916605, -15.95968339], [17.8524914, -15.88136199], [17.8221264, -15.87890619], [17.7624474, -15.92008589], [17.6114826, -15.99707129], [17.5290375, -16.00939559], [17.5258999, -16.09605219], [17.5364151, -16.15073009], [17.5294647, -16.40317539], [17.5396385, -16.54877659], [17.587635, -16.64344789], [17.6204166, -16.65957829], [17.6805706, -16.70486069], [17.7115021, -16.74255939], [17.7004852, -16.77522469], [17.9363441, -16.92308429], [18.2291222, -17.13623809], [18.1399555, -16.96536639], [18.0206681, -16.80528839], [18.0080059, -16.83467339], [17.9825348, -16.85995729], [17.9489487, -16.87392589], [17.9214868, -16.87561969], [17.8863218, -16.86589059], [17.8639835, -16.85041789], [17.8189142, -16.78301309], [17.7958226, -16.71616049], [17.7967861, -16.68967759], [17.8056838, -16.66460469], [17.8435892, -16.62701529], [17.8693315, -16.61773319], [17.9023368, -16.61677039], [17.8696955, -16.55289579], [17.842047, -16.57069499], [17.8063192, -16.57805409], [17.7703909, -16.57166109], [17.7397391, -16.55248959], [17.7230741, -16.53142029], [17.7117781, -16.49749159], [17.684302, -16.46356259], [17.6726692, -16.42113619], [17.6793179, -16.38648849], [17.7059111, -16.35089529], [17.7557934, -16.33018339], [17.8061577, -16.33837409], [17.8023396, -16.32532879], [17.7675334, -16.24957799], [17.7517303, -16.27817799], [17.7316487, -16.29623719], [17.6981289, -16.31015369], [17.6707387, -16.31180249], [17.6356867, -16.30201309], [17.6134365, -16.28649999], [17.5968107, -16.26541479], [17.5857802, -16.23182479], [17.5867805, -16.20533799], [17.5956943, -16.18027219], [17.6335673, -16.14272729], [17.6592638, -16.13347869], [17.6957164, -16.13302079], [17.7216516, -16.14162029], [17.748674, -16.16208929], [17.7647305, -16.14424899], [17.8039932, -16.17065049], [17.8555832, -16.26763919], [17.8893318, -16.35767939], [17.9247437, -16.50626369], [17.9561958, -16.57919499], [18.0597115, -16.74852559], [18.1085835, -16.80445289], [18.186058, -16.91958239], [18.2045765, -16.92478179], [18.2255116, -16.91408539], [18.2566204, -16.89207459], [18.3032913, -16.84570119], [18.3284016, -16.83217619], [18.3540783, -16.84591869], [18.3528442, -16.88227079], [18.3294983, -16.91625399], [18.2822247, -16.96091839], [18.2409458, -16.98515509], [18.2307472, -17.01009749], [18.2474289, -17.04992489], [18.3196526, -17.15585709], [18.462492, -17.32048989], [18.4971752, -17.37340349], [18.546236, -17.43203159], [18.6450195, -17.52314759], [18.66665446, -17.5544974], [18.69339416, -17.52791396], [18.73892425, -17.51085577], [18.78922933, -17.51281334], [18.83242947, -17.53332494], [18.85832264, -17.5675515], [18.86079397, -17.60741512], [18.83925984, -17.64350227], [18.80368065, -17.66545849], [18.8637428, -17.69905279], [19.0046139, -17.73340609], [19.0561562, -17.73124309], [19.0777454, -17.74149129], [19.1988068, -17.73545649], [19.3230069, -17.75466529], [19.2870367, -17.77883839], [19.27116102, -17.82063615], [19.26351145, -17.82437165], [19.24820262, -17.8133229], [19.2285461, -17.82712939], [19.17531306, -17.80587504], [19.1686096, -17.81479069], [19.13988401, -17.80674888], [19.12044066, -17.81599082], [19.11252296, -17.83534427], [19.09071255, -17.83532439], [19.0932645, -17.80636019], [19.079523, -17.77220979], [19.0518849, -17.74923389], [19.0235958, -17.74164359], [18.987525, -17.74752709], [18.963447, -17.76366019], [18.947641, -17.78739339], [18.93914962, -17.81915699], [18.8997955, -17.81706999], [18.87803578, -17.80024243], [18.86296059, -17.80400289], [18.84395327, -17.78977362], [18.83770404, -17.77256301], [18.78976085, -17.76595902], [18.77474081, -17.73571285], [18.74567084, -17.73840214], [18.73805278, -17.71948357], [18.6207065, -17.6322659], [18.61896776, -17.60104587], [18.60777424, -17.59903495], [18.59903726, -17.58429413], [18.56304931, -17.5812407], [18.5395162, -17.54493089], [18.53621567, -17.52246185], [18.52101412, -17.51470879], [18.51585914, -17.5013507], [18.49750652, -17.48692629], [18.47952957, -17.48372699], [18.47494158, -17.44968529], [18.46357334, -17.44422844], [18.45288904, -17.4222134], [18.41983192, -17.38949129], [15.76817334, -17.39030575], [15.7548618, -17.32273669], [15.7240934, -17.22925569], [15.7257481, -17.18442539], [15.6634178, -17.08028789], [15.6303816, -17.03727149], [15.56698005, -16.99820422], [15.56698005, -17.26315544], [15.55769087, -17.30046773], [15.52231905, -17.33869291], [15.48016258, -17.35697153], [15.43239653, -17.36123337], [15.37566422, -17.34608903], [15.34834887, -17.32734864], [15.32462229, -17.29426999], [15.11733893, -16.80289924], [15.11099309, -16.77423904], [15.11557423, -16.74537439], [15.13784902, -16.71092828], [15.17526629, -16.68595131], [15.22201353, -16.67431935], [15.27082887, -16.67783692], [15.30421426, -16.69017686], [15.45965004, -16.81008738], [15.5288754, -16.74905779], [15.5629244, -16.74893759], [15.5929565, -16.73342319], [15.6017208, -16.69546319], [15.6119785, -16.57226369], [15.5272446, -16.34884829], [15.4938774, -16.23636819], [15.4594259, -16.17049219], [15.4253769, -16.06990809], [15.3980007, -16.06668849], [15.3734627, -16.12835879], [15.3561745, -16.12868879], [15.3277435, -16.11293219], [15.3210506, -16.12478449], [15.3155146, -16.19126129], [15.3045492, -16.23047449], [15.3221416, -16.34036249], [15.318182, -16.37328909], [15.2998247, -16.41283419], [15.2688885, -16.45617869], [15.1967802, -16.49778939], [15.1436043, -16.50270649], [15.0888443, -16.53885649], [14.9950838, -16.68354029], [14.9129868, -16.75106049], [14.8480635, -16.82734109], [14.8086691, -16.91365239], [14.7470827, -17.09160229], [14.69438736, -17.18593314], [14.73073896, -17.21954457], [14.74417228, -17.2556867], [14.73944569, -17.29317963], [14.71725234, -17.32652413], [14.67011501, -17.35503393], [14.53024993, -17.39163646], [14.218142, -17.39164267], [14.21298787, -17.40874644], [14.15949347, -17.41752056], [14.1532738, -17.42795238], [14.13800471, -17.4316587], [14.12268496, -17.43147225], [14.11505052, -17.42352239], [14.1011035, -17.43821589], [14.05244649, -17.42923731], [14.04661039, -17.42098261], [14.03822806, -17.42340561], [14.01757527, -17.41455192], [13.99518212, -17.43283096], [13.97709917, -17.42793203], [13.95572041, -17.43334543], [13.92998925, -17.41596645], [13.92585926, -17.40918119], [13.92978711, -17.40191313], [13.91398905, -17.38460927], [13.91644374, -17.37882571], [13.86725654, -17.34207473], [13.86787287, -17.0894778], [13.88880987, -17.04395195], [13.93472148, -17.01186481], [13.96979586, -17.00250248], [14.00680472, -17.00171146], [14.25998652, -17.06629708], [14.253108, -17.03843119], [14.3186903, -16.98402399], [14.3327274, -16.96495059], [14.337883, -16.94004439], [14.3292351, -16.91887659], [14.3296785, -16.88934329], [14.311388, -16.83391759], [14.2945118, -16.72509189], [14.2818041, -16.69645689], [14.2358227, -16.65700909], [14.2242918, -16.63009449], [14.2294416, -16.60574339], [14.2574892, -16.56757739], [14.2625055, -16.55174829], [14.25548717, -16.53903155], [14.07956943, -16.67772234], [14.02772926, -16.70222903], [13.97943616, -16.70598078], [13.92253027, -16.68992097], [13.88821666, -16.6628593], [13.86785541, -16.61798829], [13.87261187, -16.5799166], [13.89548723, -16.54618404], [14.1200104, -16.36930816], [14.15131556, -16.3545336], [14.1989099, -16.34707956], [14.23501261, -16.35129611], [14.27438057, -16.36730573], [14.3300266, -16.32003779], [14.2814999, -16.28312109], [14.2275419, -16.22359659], [14.2055197, -16.18225479], [14.1763744, -16.17775729], [14.1510553, -16.15739819], [14.1367598, -16.12269399], [14.11698359, -16.09946931], [14.1646398, -16.08044483], [14.11696379, -16.09946923], [14.11694648, -16.09970022], [14.105669, -16.08661269], [14.0179958, -15.75551989], [14.0574656, -15.70671179], [14.1016703, -15.69177059], [14.1084614, -15.64322379], [14.099473, -15.64712239], [14.076396, -15.63873669], [14.0667324, -15.57251359], [14.0300169, -15.47861479], [14.1303396, -15.42331979], [14.1443195, -15.42255399], [14.1523237, -15.38612369], [14.1868, -15.34800529], [14.1951571, -15.32481769], [14.1515646, -15.32003779], [14.0733824, -15.33970929], [13.9893665, -15.31482319], [13.9293489, -15.30772969], [13.9195967, -15.29188819], [13.9022818, -15.29669189], [13.8666859, -15.18436909], [13.8367796, -15.16044619], [13.7790709, -15.12972549], [13.76229, -15.10319419], [13.7629004, -15.09436039], [13.7310972, -15.08607199], [13.6918583, -15.05340479], [13.6619864, -15.00733569], [13.6366692, -15.01643179], [13.5709724, -15.01473899], [13.5446835, -14.97928709], [13.5173903, -14.97817519], [13.4886665, -14.99070929], [13.4688206, -14.97150419], [13.465003, -14.88593669], [13.4899502, -14.81803889], [13.5455503, -14.79463769], [13.6091394, -14.78905299], [13.7023821, -14.74925899], [13.7182846, -14.72106269], [13.7979431, -14.63992599], [13.8321814, -14.63341819], [13.8200034, -14.68858989], [13.7720202, -14.74662529], [13.7675561, -14.78838419], [13.7785079, -14.81451119], [13.79307, -14.83031259], [13.8185785, -14.84374629], [13.8401428, -14.84697009], [13.8617406, -14.84396409], [13.8873915, -14.83078799], [13.9471105, -14.76659599], [13.9608985, -14.74177219], [13.9702695, -14.70266729], [13.9849632, -14.68468159], [13.9956433, -14.67765009], [14.0503572, -14.67034679], [14.0794424, -14.64952709], [14.0907246, -14.63136679], [14.0964918, -14.60371189], [14.0933798, -14.58270519], [14.0803815, -14.55850309], [14.1149836, -14.54146579], [14.1384172, -14.52135939], [14.1924534, -14.43793389], [14.2352009, -14.31550879], [14.2819853, -14.27697939], [14.3413172, -14.10974599], [14.3285093, -14.05533119], [14.3153057, -14.02771849], [14.2913971, -14.00391099], [14.2351561, -13.96640869], [14.2092209, -13.91673469], [14.2306175, -13.91440959], [14.3003502, -13.87969019], [14.3651419, -13.85799309], [14.4878378, -13.83954519], [14.4963427, -13.82371229], [14.4565363, -13.71290869], [14.423089, -13.77739239], [14.4039888, -13.78961749], [14.3837481, -13.79897209], [14.3518066, -13.79956249], [14.3060398, -13.79134849], [14.3084316, -13.77369979], [14.2366505, -13.75018309], [14.1860094, -13.69792369], [14.1438704, -13.63211059], [14.113905, -13.62072469], [14.0990629, -13.62502099], [14.1551142, -13.74644759], [14.1553631, -13.76870629], [14.1363592, -13.77407169], [14.1165075, -13.75773429], [14.0840931, -13.71320719], [14.0769272, -13.67997649], [14.04395646, -13.61368584], [14.00413549, -13.62218056], [14.0224477, -13.69754639], [13.9847417, -13.67128489], [13.9418003, -13.67110529], [13.9059886, -13.69427839], [13.8947437, -13.71243359], [13.8889918, -13.73991379], [13.8486011, -13.74035669], [13.8176729, -13.75827929], [13.8015148, -13.78166459], [13.7961331, -13.80222619], [13.7988193, -13.83032249], [13.8080077, -13.84955359], [13.8283288, -13.86960559], [13.8479214, -13.87877309], [13.8954213, -13.87741429], [13.9196261, -13.94204179], [13.9744555, -13.99439979], [13.9750774, -14.06184689], [13.9598479, -14.12158739], [13.9704852, -14.15907329], [13.9655678, -14.19335029], [13.9818643, -14.23221329], [14.0109429, -14.25335269], [13.9799581, -14.27483769], [13.9633045, -14.31355849], [13.9668033, -14.41586859], [13.9858968, -14.47350269], [13.9504452, -14.46767329], [13.7832022, -14.41135689], [13.7201033, -14.40350819], [13.7309341, -14.35866359], [13.7636929, -14.31309699], [13.7674074, -14.26811119], [13.7392225, -14.18315119], [13.6745195, -14.08834359], [13.6441174, -14.10758779], [13.597187, -14.26629829], [13.5008354, -14.30284689], [13.4656687, -14.34887029], [13.4173374, -14.36785319], [13.3716621, -14.40342239], [13.3327103, -14.39463709], [13.3137341, -14.39538859], [13.2969809, -14.40416619], [13.2705269, -14.42471889], [13.2543325, -14.44692519], [13.2762871, -14.46589759], [13.2853308, -14.52196979], [13.2813396, -14.57776639], [13.3081198, -14.63704779], [13.2981434, -14.66363809], [13.2379942, -14.74049279], [13.22133247, -14.75199658], [13.25824555, -14.78761595], [13.26563574, -14.81067535], [13.26414335, -14.83442103], [13.24260922, -14.87001528], [13.20215507, -14.89347386], [13.15233446, -14.89925247], [13.11292454, -14.88973982], [13.1164026, -14.92603869], [13.1572971, -14.96110059], [13.1681976, -14.98127749], [13.1685686, -15.02459719], [13.1595421, -15.05489159], [13.1513872, -15.05386729], [13.1201248, -15.07371999], [13.0560322, -15.18027019], [12.9982882, -15.16911979], [12.9346943, -15.17001909], [12.7328482, -15.19062419], [12.6700907, -15.17952349], [12.5554609, -15.13072969], [12.5333376, -15.05785659], [12.5162506, -14.92287059], [12.5427361, -14.91176409]]], [[[14.2867546, -12.01692489], [14.28350782, -12.01748162], [14.30438484, -12.0092907], [14.2867546, -12.01692489]]], [[[16.9403, -7.60835889], [16.92968654, -7.61643751], [16.9239832, -7.61520019], [16.9403, -7.60835889]]], [[[12.9744759, -12.92276289], [12.9592943, -12.92148019], [12.9529095, -12.89284989], [12.9992971, -12.88428689], [13.0529346, -12.88488099], [13.0998421, -12.89845469], [13.1276255, -12.92588999], [13.1353045, -12.94745829], [13.1181145, -12.98073389], [13.0650959, -12.92740149], [12.97550335, -12.95749422], [12.9647474, -12.93710709], [12.9744759, -12.92276289]]], [[[13.3164498, -8.76034169], [13.3161755, -8.76543199], [13.28953287, -8.76512742], [13.30473143, -8.75586711], [13.3164498, -8.76034169]]], [[[12.9465668, -7.45313539], [12.93563023, -7.43292812], [12.91376936, -7.33460568], [12.8876259, -7.30391143], [12.9215937, -7.27953479], [12.9651425, -7.27328649], [12.9989011, -7.28367639], [13.0261107, -7.30617399], [13.0426289, -7.33735579], [13.0459384, -7.37247539], [13.0355323, -7.40618569], [13.0129927, -7.43335309], [12.9817514, -7.44983989], [12.9465668, -7.45313539]]], [[[12.27366975, -6.11717301], [12.2932884, -6.10650409], [12.2875214, -6.11540789], [12.3047628, -6.10921909], [12.3149252, -6.11716129], [12.2869749, -6.12559559], [12.2869034, -6.13295269], [12.2951107, -6.13513179], [12.2786596, -6.15054219], [12.27230034, -6.13746789], [12.27366975, -6.11717301]]], [[[12.2990751, -6.10345269], [12.2994804, -6.10415409], [12.2972865, -6.10439589], [12.2990751, -6.10345269]]], [[[12.304141, -6.10070949], [12.3181448, -6.09312629], [12.323122, -6.09825039], [12.3203955, -6.10279749], [12.304141, -6.10070949]]], [[[12.6465292, -6.05296039], [12.6216775, -6.04579599], [12.652772, -6.04534289], [12.6465292, -6.05296039]]], [[[12.9480007, -5.96324389], [12.9507914, -5.95653099], [12.9523993, -5.95906209], [12.9480007, -5.96324389]]], [[[12.1452711, -5.64134437], [12.16536589, -5.58485449], [12.17171975, -5.58033543], [12.16858841, -5.57614619], [12.180975, -5.56577829], [12.2023983, -5.56949419], [12.2203074, -5.55799099], [12.2297264, -5.54257933], [12.2305965, -5.49046089], [12.2216778, -5.44674489], [12.1941891, -5.36987829], [12.1694646, -5.33064239], [12.17746031, -5.32509814], [12.17756127, -5.31531079], [12.13352458, -5.23279868], [12.14067211, -5.21744967], [12.0874319, -5.13117309], [12.03969495, -5.0716682], [12.0284505, -5.05479009], [12.0366554, -5.05028629], [12.0340481, -5.06243849], [12.0673504, -5.06122399], [12.0753622, -5.08522319], [12.1003828, -5.09333229], [12.1081753, -5.07619429], [12.1274548, -5.06032609], [12.1301422, -5.02357049], [12.1030006, -5.02394289], [12.0928307, -5.06864879], [12.0809956, -5.06598039], [12.0736151, -5.04819489], [12.0599947, -5.04045009], [12.0487995, -5.04307699], [12.0349665, -5.03394839], [12.0215671, -5.04613629], [12.0174131, -5.03720519], [12.0283766, -5.02578689], [12.01147838, -5.0279419], [12.110384, -4.95319459], [12.17145892, -4.89277103], [12.20363159, -4.77749492], [12.2339516, -4.80996749], [12.2571163, -4.82333279], [12.296361, -4.82146689], [12.34822369, -4.78582962], [12.35985308, -4.73979841], [12.38849623, -4.69672372], [12.38788063, -4.66501523], [12.4586983, -4.60423039], [12.5657873, -4.58808039], [12.6386871, -4.5688028], [12.6849356, -4.5434928], [12.7011204, -4.5093617], [12.7135038, -4.4993577], [12.7272158, -4.4955802], [12.7537699, -4.5183992], [12.7702713, -4.5065932], [12.75170546, -4.48349359], [12.75585104, -4.47364449], [12.73225544, -4.41729723], [12.7636697, -4.3905984], [12.8020353, -4.4231138], [12.8161602, -4.426703], [12.83590223, -4.41537563], [12.84563751, -4.42947363], [12.86874383, -4.41213618], [12.8758163, -4.4479966], [12.8922825, -4.4806175], [12.9758024, -4.5597091], [13.0184422, -4.60617639], [13.020751, -4.61717369], [13.0538342, -4.62393199], [13.0755692, -4.63620759], [13.0803013, -4.64661689], [13.0707216, -4.66880319], [13.0832605, -4.68648669], [13.05121679, -4.67481551], [13.0301399, -4.69270899], [12.9860945, -4.70305349], [12.9234571, -4.73225499], [12.8798637, -4.73223639], [12.8631124, -4.73913289], [12.8571611, -4.75128349], [12.8394794, -4.75522849], [12.8362257, -4.76574519], [12.8210745, -4.77343179], [12.7833138, -4.82253359], [12.7749376, -4.84615229], [12.7766542, -4.86251019], [12.7620125, -4.86719129], [12.7117481, -4.90670679], [12.6978436, -4.93670419], [12.7037001, -4.94804239], [12.69981745, -4.95196205], [12.67031876, -4.95857417], [12.64837593, -4.94468334], [12.63353414, -4.95324625], [12.62638462, -4.94916449], [12.62627237, -4.96772837], [12.6170158, -4.97150469], [12.62374495, -4.98545928], [12.61424722, -5.0069548], [12.60503885, -5.00949502], [12.60498416, -5.02448963], [12.59013756, -5.02161296], [12.5833802, -5.03038861], [12.58257228, -5.02313943], [12.57961338, -5.03008764], [12.57098456, -5.02900327], [12.56389992, -5.03593592], [12.5645727, -5.04098439], [12.56095904, -5.03798154], [12.56259427, -5.04712297], [12.55153274, -5.03758146], [12.54249551, -5.04580366], [12.54423924, -5.05138223], [12.53135766, -5.05238554], [12.52890066, -5.05885682], [12.52453274, -5.04728981], [12.50209099, -5.047706], [12.49706926, -5.06373243], [12.46249488, -5.08019373], [12.46813979, -5.0826631], [12.451663, -5.10720349], [12.475297, -5.13162949], [12.48888893, -5.13210482], [12.49883274, -5.14220396], [12.5053568, -5.13657813], [12.5191259, -5.15171619], [12.5147963, -5.18065399], [12.5222311, -5.19362019], [12.514286, -5.36486859], [12.5207064, -5.73460449], [12.27867801, -5.74051934], [12.2412116, -5.75128229], [12.2205629, -5.72292999], [12.1841784, -5.64859529], [12.1452711, -5.64134437]]], [[[23.4201736, -17.60969539], [23.42799449, -17.63845181], [23.37773664, -17.64849594], [23.36273, -17.62715719], [23.2508736, -17.54982759], [23.2728043, -17.55754089], [23.3220654, -17.55943299], [23.3531015, -17.56966449], [23.3643036, -17.57927509], [23.39363875, -17.58498817], [23.4201736, -17.60969539]]], [[[22.7252843, -17.59525299], [22.6899814, -17.58647609], [22.6608727, -17.56540319], [22.642395, -17.53524509], [22.6373602, -17.50059779], [22.6465283, -17.46673999], [22.6684951, -17.43882689], [22.6999115, -17.42110549], [22.7359955, -17.41626879], [22.7712603, -17.42504949], [22.8003452, -17.44610979], [22.8188276, -17.47624619], [22.8238928, -17.51087549], [22.8147629, -17.54472949], [22.7928198, -17.57265519], [22.7613987, -17.59039829], [22.7252843, -17.59525299]]], [[[14.2241888, -14.18242069], [14.2324724, -14.22192479], [14.2292919, -14.27548119], [14.2200975, -14.29585269], [14.1654882, -14.34164619], [14.1163316, -14.40139319], [14.1098131, -14.38297039], [14.1081516, -14.30024019], [14.0897431, -14.27002339], [14.0655196, -14.25417119], [14.0964941, -14.23267429], [14.1328008, -14.18170079], [14.1402049, -14.16174279], [14.1388711, -14.12074559], [14.1488439, -14.07649999], [14.1422969, -14.04768709], [14.1236859, -14.01999749], [14.1579752, -14.06030849], [14.2241888, -14.18242069]]], [[[14.0472441, -13.85397979], [14.0354315, -13.82589749], [14.0374026, -13.74668969], [14.0447769, -13.80721569], [14.059646, -13.86395969], [14.0472441, -13.85397979]]], [[[21.2199754, -13.12985439], [21.2040043, -13.14372919], [21.1698208, -13.14789489], [21.1581078, -13.15822789], [21.1120853, -13.15787789], [21.096632, -13.14425089], [21.0952492, -13.11971089], [21.1150913, -13.09392929], [21.1362686, -13.08697799], [21.1581554, -13.09429359], [21.2307491, -13.09849449], [21.2199754, -13.12985439]]], [[[20.7980556, -12.73158739], [20.8308067, -12.85879139], [20.8073082, -12.86972899], [20.7866383, -12.86409569], [20.7449074, -12.79744429], [20.7028141, -12.76104739], [20.7708359, -12.71512889], [20.7843952, -12.71622279], [20.7980556, -12.73158739]]], [[[13.3839731, -12.60237289], [13.4434509, -12.54705329], [13.4543157, -12.54895229], [13.4383698, -12.56001569], [13.413003, -12.59547999], [13.3839731, -12.60237289]]], [[[20.7736492, -12.45015619], [20.8060303, -12.45117859], [20.902813, -12.48449419], [20.8954239, -12.51935859], [20.8702641, -12.54001809], [20.8775902, -12.57482239], [20.8918381, -12.59018419], [20.908617, -12.62837509], [20.8993263, -12.64554409], [20.854187, -12.67427249], [20.8334961, -12.66407589], [20.8198147, -12.64585589], [20.756237, -12.48448369], [20.7555103, -12.46506879], [20.7736492, -12.45015619]]], [[[13.5709482, -12.47405419], [13.5670519, -12.46133719], [13.5606227, -12.44929999], [13.5784721, -12.46060089], [13.5709482, -12.47405419]]], [[[13.5485079, -12.35346319], [13.5542698, -12.35596559], [13.5392704, -12.41297719], [13.5435054, -12.43122539], [13.4983194, -12.41636639], [13.5213289, -12.37693879], [13.5485079, -12.35346319]]], [[[22.81744, -12.54381279], [22.9191246, -12.53132339], [23.0128098, -12.49689669], [23.0062847, -12.49268909], [23.0182762, -12.46742919], [23.0844746, -12.40672679], [23.1075821, -12.37791059], [23.1212463, -12.34748459], [23.1467476, -12.24438669], [23.1191425, -12.13046259], [23.0773048, -12.04582409], [23.0604248, -11.97803689], [23.0756397, -11.93445299], [23.102705, -11.89758869], [23.1827049, -11.82698149], [23.2425709, -11.74801829], [23.2981205, -11.69537349], [23.3158951, -11.66831019], [23.3310947, -11.58985899], [23.2179298, -11.25412079], [23.2185898, -11.18269539], [23.2356339, -11.14764399], [23.2923946, -11.10469059], [23.3482742, -11.04402539], [23.3619499, -11.01986309], [23.3642098, -10.98586349], [23.40165002, -10.9602558], [23.41851555, -10.95887122], [23.42217997, -10.95144886], [23.46991676, -10.94111644], [23.5055695, -10.94626519], [23.534593, -10.95797069], [23.5863476, -10.99415869], [23.6290569, -10.99057959], [23.664402, -11.00723929], [23.7079411, -11.00781629], [23.7454681, -10.99227049], [23.7808266, -11.00615599], [23.8170738, -11.03864669], [23.8547211, -11.03842639], [23.8886299, -11.01886179], [23.9163517, -10.97322779], [23.9604645, -10.93843359], [23.97612632, -10.90138152], [23.9870758, -10.89224619], [23.9929432, -10.89525389], [23.98160351, -10.91087627], [24.0156345, -10.93898109], [24.020277, -10.94772909], [24.0151367, -10.96060089], [24.0245155, -10.96873391], [24.01991519, -11.00236895], [24.01070608, -11.0150244], [24.0186653, -11.09562399], [24.00189376, -11.11727079], [24.0075588, -11.13222889], [24.0318465, -11.13884439], [24.03481727, -11.14867514], [24.03134463, -11.27489652], [24.0565739, -11.31283469], [24.0813563, -11.40044609], [24.0212116, -11.42078019], [23.9465179, -11.47554779], [23.9183407, -11.47480109], [23.9111519, -11.49946779], [23.9069958, -11.52980609], [23.9328804, -11.53344349], [23.9789734, -11.51850989], [24.02305765, -11.48764887], [24.0364773, -11.52033919], [23.98288176, -11.62044579], [23.97505633, -11.65068466], [23.95894541, -11.65896928], [23.97397334, -11.67691701], [23.97202452, -11.68624063], [23.9832153, -11.71472549], [23.99252033, -11.72252803], [24.0011978, -11.77843859], [24.01302148, -11.80209981], [24.0084038, -11.81565669], [24.0132296, -11.83655359], [23.9808426, -11.85098459], [23.9146461, -11.89845369], [23.9310837, -11.95965669], [23.9325409, -12.04132369], [23.8593788, -12.19314189], [23.8678188, -12.23815059], [23.9066448, -12.27131269], [23.9159756, -12.29974169], [23.9320889, -12.37833879], [23.9283943, -12.46805949], [23.8920975, -12.47941589], [23.8683796, -12.40321159], [23.840786, -12.34019279], [23.8109722, -12.31775279], [23.7802734, -12.31188579], [23.7228012, -12.32293699], [23.7214584, -12.34751419], [23.7325802, -12.37820909], [23.7481918, -12.39627739], [23.7717476, -12.39710329], [23.7890396, -12.41000749], [23.8036118, -12.43551059], [23.8023243, -12.46294119], [23.8117104, -12.49479769], [23.8452625, -12.49433989], [23.8485661, -12.51485439], [23.7549057, -12.64861769], [23.7227497, -12.73127839], [23.6920052, -12.75966639], [23.6597767, -12.77036759], [23.6326351, -12.76843829], [23.5746384, -12.71836379], [23.5481796, -12.72155669], [23.524931, -12.70529169], [23.4459534, -12.63090039], [23.4642868, -12.59926319], [23.5220337, -12.56541629], [23.5507412, -12.55648519], [23.642065, -12.48963169], [23.6351452, -12.46345039], [23.5855427, -12.41897199], [23.5608463, -12.38502119], [23.5783997, -12.29862979], [23.5536652, -12.30686469], [23.4926968, -12.39216609], [23.4351959, -12.51224709], [23.35183364, -12.64737399], [23.38879147, -12.66933507], [23.4103256, -12.70460941], [23.40785427, -12.74358872], [23.38879147, -12.7712268], [23.34833732, -12.79448], [23.30867537, -12.80059478], [23.25981902, -12.79110954], [23.22395773, -12.7664184], [23.1404324, -12.79727549], [23.0832291, -12.83389469], [23.057888, -12.87357519], [22.9837875, -12.92577549], [22.8670998, -12.97041229], [22.8375378, -12.96501159], [22.8208122, -12.94976899], [22.8116875, -12.92988009], [22.8048286, -12.86143489], [22.7913589, -12.82560249], [22.7893066, -12.76338389], [22.8017197, -12.68217089], [22.7988396, -12.56113719], [22.81744, -12.54381279]]], [[[13.49538591, -10.23816146], [13.49534335, -10.2382383], [13.4953321, -10.23822979], [13.49538591, -10.23816146]]], [[[13.49534413, -10.23823889], [13.5108633, -10.24836729], [13.5139639, -10.25232589], [13.49534413, -10.23823889]]], [[[12.42130258, -17.1687729], [12.38095404, -17.19009062], [12.34555009, -17.19710338], [12.30909631, -17.1956872], [12.26426342, -17.18100261], [12.02974203, -16.99761807], [12.01070786, -16.97217751], [12.00211258, -16.94342074], [12.00808859, -16.90443241], [12.21974748, -16.40517217], [12.25655439, -16.36798437], [12.31116103, -16.34865201], [12.37091224, -16.35165002], [12.41306871, -16.36983581], [12.44331826, -16.39925437], [12.45714223, -16.43551496], [12.45772971, -17.09925171], [12.44826261, -17.13687316], [12.42130258, -17.1687729]]], [[[12.40664543, -15.3626469], [12.37302165, -15.38025274], [12.34351836, -15.38604431], [12.31314021, -15.38487474], [12.27577947, -15.37274721], [12.2532436, -15.35674158], [12.2341808, -15.32879753], [12.23021708, -15.29726905], [12.23760727, -15.27415829], [12.26007397, -15.24782285], [12.30327411, -15.22754452], [12.35357919, -15.22560918], [12.39093993, -15.23772841], [12.4247635, -15.26695656], [12.43650232, -15.29726905], [12.42911213, -15.3363006], [12.40664543, -15.3626469]]], [[[22.56352988, -17.64947611], [22.5299061, -17.66728638], [22.50040281, -17.67314526], [22.47002466, -17.6719621], [22.43266392, -17.65969367], [22.41012805, -17.64350227], [22.39106525, -17.6152344], [22.38710153, -17.58334132], [22.39449172, -17.55996381], [22.41695842, -17.53332494], [22.46015856, -17.51281334], [22.51046364, -17.51085577], [22.54782438, -17.52311434], [22.58164795, -17.55267905], [22.59338677, -17.58334132], [22.58599658, -17.62282436], [22.56352988, -17.64947611]]], [[[18.61760996, -16.50814616], [18.58194597, -16.52316792], [18.55186038, -16.52668481], [18.52177479, -16.52316792], [18.4861108, -16.50814616], [18.46568547, -16.49038905], [18.45021015, -16.46095419], [18.44871776, -16.43702382], [18.46045658, -16.40654389], [18.4861108, -16.3819258], [18.53164089, -16.36496872], [18.58194597, -16.3669147], [18.61760996, -16.3819258], [18.64761281, -16.41378536], [18.65550206, -16.44502598], [18.64326418, -16.4835155], [18.61760996, -16.50814616]]], [[[21.74711953, -11.3013121], [21.74844069, -11.25473585], [21.77808973, -11.21414531], [21.82906483, -11.18912214], [21.86500837, -11.18423962], [21.90124349, -11.18760745], [22.34921634, -11.35871406], [22.37691661, -11.37703823], [22.39652546, -11.4007751], [22.4063542, -11.4278815], [22.40555638, -11.45602364], [22.38121235, -11.49869386], [22.34455261, -11.52322145], [22.29851607, -11.53506024], [22.25011138, -11.53240629], [21.80213853, -11.36119815], [21.76690352, -11.33547229], [21.74711953, -11.3013121]]]]}}]}