{"type": "FeatureCollection", "features": [{"type": "Feature", "properties": {"tipo": "retracao_prioritaria"}, "geometry": {"type": "MultiPolygon", "coordinates": [[[[17.09071823, -10.8804917], [17.0707913, -10.87744046], [17.04329666, -10.86743027], [17.02759116, -10.85750879], [17.00947309, -10.83870508], [16.99922666, -10.81666427], [16.99773427, -10.79328497], [17.00169799, -10.77794999], [17.01470198, -10.75679244], [17.44215787, -10.42587779], [17.46698064, -10.41179031], [17.49609881, -10.40394458], [17.52693157, -10.40303552], [17.55674612, -10.40914364], [17.58289991, -10.42172793], [17.60307486, -10.43967369], [17.81542689, -10.76543413], [17.82606841, -10.79503621], [17.82138473, -10.8255409], [17.80207043, -10.85242406], [17.77098977, -10.87169763], [17.7426828, -10.87938297], [17.09071823, -10.8804917]]], [[[17.18096435, -9.31815389], [17.19999005, -9.34534076], [17.20451794, -9.36828253], [17.20019876, -9.39124939], [17.18740122, -9.41228067], [17.1591308, -9.43425089], [17.13186815, -9.44435138], [17.10196002, -9.44798153], [17.07195942, -9.44483127], [16.01680319, -9.12149661], [15.99233618, -9.10801549], [15.97396983, -9.08971435], [15.96325767, -9.06814178], [15.96234376, -9.03746476], [15.97176017, -9.01554379], [16.1841122, -8.69143976], [16.20428715, -8.67358356], [16.23044094, -8.66106197], [16.26025549, -8.65498426], [16.30111769, -8.65774605], [16.32907648, -8.66772868], [16.34502919, -8.67771272], [17.18096435, -9.31815389]]], [[[15.96131749, -11.27222542], [15.96870768, -11.24948508], [15.99117438, -11.22357091], [16.01560376, -11.20960808], [16.05430145, -11.20056183], [16.0945457, -11.20361634], [16.12204034, -11.2136377], [16.15063502, -11.23567501], [16.16363901, -11.25686609], [16.16810179, -11.28005585], [16.16760273, -11.6076277], [16.16021254, -11.63039608], [16.15063502, -11.64422492], [16.13020969, -11.66161845], [16.11331646, -11.67033086], [16.0846796, -11.67823981], [16.06446011, -11.67977698], [16.02479816, -11.67368742], [15.99117438, -11.65634655], [15.9782852, -11.64422492], [15.96528121, -11.62300558], [15.96081843, -11.59978844], [15.96131749, -11.27222542]]], [[[16.35945393, -16.81543456], [16.33164828, -16.83860939], [16.30451784, -16.8494609], [16.27456488, -16.85362886], [16.23470286, -16.84825597], [16.20819923, -16.83647891], [16.18170355, -16.81236733], [16.16891562, -16.78209274], [16.1717823, -16.75026588], [16.39715052, -16.39497633], [16.419122, -16.37841415], [16.45604761, -16.36543181], [16.4964716, -16.36456497], [16.52537679, -16.37201647], [16.55732334, -16.39154114], [16.57366405, -16.41174392], [16.58263009, -16.44280346], [16.57898798, -16.46659097], [16.35945393, -16.81543456]]], [[[19.06956971, -15.96375231], [19.05783089, -15.99416556], [19.03971282, -16.0133674], [19.00608904, -16.03102812], [18.97658575, -16.03683777], [18.9462076, -16.03566455], [18.90884686, -16.02349919], [18.88631099, -16.00744368], [18.86724819, -15.9794127], [18.86278541, -15.95576918], [18.86328447, -15.62227596], [18.86724819, -15.60664247], [18.88025218, -15.58507371], [18.90067751, -15.56739662], [18.92676514, -15.55513238], [18.9462076, -15.55050667], [18.97658575, -15.54933619], [19.01528344, -15.55854312], [19.04654319, -15.57866551], [19.06560599, -15.60664247], [19.07006877, -15.63024629], [19.06956971, -15.96375231]]]]}}]}