<?xml version='1.0' encoding='utf-8'?>
<kml xmlns="http://www.opengis.net/kml/2.2">
  <Document>
    <name>Pontos de Coleta - Coordenadas e Cor</name>
    <Style id="pointStyle">
      <IconStyle>
        <color>ff0000ff</color>
        <scale>1.0</scale>
        <Icon>
          <href>http://maps.google.com/mapfiles/kml/paddle/red-circle.png</href>
        </Icon>
      </IconStyle>
      <LabelStyle>
        <scale>0.8</scale>
      </LabelStyle>
    </Style>
    <Placemark>
      <name>PC-ZRE-001</name>
      <styleUrl>#pointStyle</styleUrl>
      <Point>
        <coordinates>12.330096885123154,-6.162841571355959,0</coordinates>
      </Point>
    </Placemark>
    <Placemark>
      <name>PC-ZRE-002</name>
      <styleUrl>#pointStyle</styleUrl>
      <Point>
        <coordinates>12.735101386381809,-6.592590065407458,0</coordinates>
      </Point>
    </Placemark>
    <Placemark>
      <name>PC-ZRE-003</name>
      <styleUrl>#pointStyle</styleUrl>
      <Point>
        <coordinates>12.868759695763444,-7.227001274348358,0</coordinates>
      </Point>
    </Placemark>
    <Placemark>
      <name>PC-ZRE-004</name>
      <styleUrl>#pointStyle</styleUrl>
      <Point>
        <coordinates>13.317293048675845,-6.817857926810668,0</coordinates>
      </Point>
    </Placemark>
    <Placemark>
      <name>PC-ZRE-005</name>
      <styleUrl>#pointStyle</styleUrl>
      <Point>
        <coordinates>13.830418389943462,-6.650554538615203,0</coordinates>
      </Point>
    </Placemark>
    <Placemark>
      <name>PC-ZRE-006</name>
      <styleUrl>#pointStyle</styleUrl>
      <Point>
        <coordinates>14.191502587473494,-6.2984474087232964,0</coordinates>
      </Point>
    </Placemark>
    <Placemark>
      <name>PC-ZRE-007</name>
      <styleUrl>#pointStyle</styleUrl>
      <Point>
        <coordinates>14.302229928813441,-6.302885739371151,0</coordinates>
      </Point>
    </Placemark>
    <Placemark>
      <name>PC-ZRE-008</name>
      <styleUrl>#pointStyle</styleUrl>
      <Point>
        <coordinates>13.755086150445898,-6.143955984607185,0</coordinates>
      </Point>
    </Placemark>
    <Placemark>
      <name>PC-ZRE-009</name>
      <styleUrl>#pointStyle</styleUrl>
      <Point>
        <coordinates>14.077293010347267,-5.988209397956544,0</coordinates>
      </Point>
    </Placemark>
    <Placemark>
      <name>PC-ZRE-010</name>
      <styleUrl>#pointStyle</styleUrl>
      <Point>
        <coordinates>14.085974284029577,-5.856923631841943,0</coordinates>
      </Point>
    </Placemark>
    <Placemark>
      <name>PC-ZRE-011</name>
      <styleUrl>#pointStyle</styleUrl>
      <Point>
        <coordinates>13.470467326145396,-5.9030499914974355,0</coordinates>
      </Point>
    </Placemark>
    <Placemark>
      <name>PC-BGO-001</name>
      <styleUrl>#pointStyle</styleUrl>
      <Point>
        <coordinates>13.820090661018632,-7.811472340154422,0</coordinates>
      </Point>
    </Placemark>
    <Placemark>
      <name>PC-BGO-002</name>
      <styleUrl>#pointStyle</styleUrl>
      <Point>
        <coordinates>14.248446163490982,-8.07358427502085,0</coordinates>
      </Point>
    </Placemark>
    <Placemark>
      <name>PC-BGO-003</name>
      <styleUrl>#pointStyle</styleUrl>
      <Point>
        <coordinates>14.055284306581141,-8.231043223088287,0</coordinates>
      </Point>
    </Placemark>
    <Placemark>
      <name>PC-BGO-004</name>
      <styleUrl>#pointStyle</styleUrl>
      <Point>
        <coordinates>13.371468633431455,-8.473336233003998,0</coordinates>
      </Point>
    </Placemark>
    <Placemark>
      <name>PC-BGO-005</name>
      <styleUrl>#pointStyle</styleUrl>
      <Point>
        <coordinates>13.667118342349351,-8.549025751121807,0</coordinates>
      </Point>
    </Placemark>
    <Placemark>
      <name>PC-BGO-006</name>
      <styleUrl>#pointStyle</styleUrl>
      <Point>
        <coordinates>13.519252286352849,-8.672622115174411,0</coordinates>
      </Point>
    </Placemark>
    <Placemark>
      <name>PC-BGO-007</name>
      <styleUrl>#pointStyle</styleUrl>
      <Point>
        <coordinates>14.802963245721417,-8.729234758730994,0</coordinates>
      </Point>
    </Placemark>
    <Placemark>
      <name>PC-BGO-008</name>
      <styleUrl>#pointStyle</styleUrl>
      <Point>
        <coordinates>14.222168627761992,-8.617450021881579,0</coordinates>
      </Point>
    </Placemark>
    <Placemark>
      <name>PC-BGO-009</name>
      <styleUrl>#pointStyle</styleUrl>
      <Point>
        <coordinates>14.534156970265874,-8.519382475907344,0</coordinates>
      </Point>
    </Placemark>
    <Placemark>
      <name>PC-LDA-001</name>
      <styleUrl>#pointStyle</styleUrl>
      <Point>
        <coordinates>13.059321332229658,-9.101406775184913,0</coordinates>
      </Point>
    </Placemark>
    <Placemark>
      <name>PC-LDA-002</name>
      <styleUrl>#pointStyle</styleUrl>
      <Point>
        <coordinates>13.230390378779997,-9.344148072950356,0</coordinates>
      </Point>
    </Placemark>
    <Placemark>
      <name>PC-ICB-001</name>
      <styleUrl>#pointStyle</styleUrl>
      <Point>
        <coordinates>13.230390378779997,-9.344148072950356,0</coordinates>
      </Point>
    </Placemark>
    <Placemark>
      <name>PC-ICB-002</name>
      <styleUrl>#pointStyle</styleUrl>
      <Point>
        <coordinates>13.233554875632583,-9.534255177004637,0</coordinates>
      </Point>
    </Placemark>
    <Placemark>
      <name>PC-ICB-003</name>
      <styleUrl>#pointStyle</styleUrl>
      <Point>
        <coordinates>13.246202606153831,-9.632357156252791,0</coordinates>
      </Point>
    </Placemark>
    <Placemark>
      <name>PC-ICB-004</name>
      <styleUrl>#pointStyle</styleUrl>
      <Point>
        <coordinates>13.455684686757207,-9.584750660632567,0</coordinates>
      </Point>
    </Placemark>
    <Placemark>
      <name>PC-ICB-005</name>
      <styleUrl>#pointStyle</styleUrl>
      <Point>
        <coordinates>13.767484010616979,-9.635373267528708,0</coordinates>
      </Point>
    </Placemark>
    <Placemark>
      <name>PC-ICB-006</name>
      <styleUrl>#pointStyle</styleUrl>
      <Point>
        <coordinates>13.995482961502058,-9.565600784185241,0</coordinates>
      </Point>
    </Placemark>
    <Placemark>
      <name>PC-ICB-007</name>
      <styleUrl>#pointStyle</styleUrl>
      <Point>
        <coordinates>13.840067297549577,-9.451761657613815,0</coordinates>
      </Point>
    </Placemark>
    <Placemark>
      <name>PC-ICB-008</name>
      <styleUrl>#pointStyle</styleUrl>
      <Point>
        <coordinates>13.769023722546747,-9.360014849645328,0</coordinates>
      </Point>
    </Placemark>
    <Placemark>
      <name>PC-ICB-009</name>
      <styleUrl>#pointStyle</styleUrl>
      <Point>
        <coordinates>13.683446024510648,-9.198766009322688,0</coordinates>
      </Point>
    </Placemark>
    <Placemark>
      <name>PC-CZN-001</name>
      <styleUrl>#pointStyle</styleUrl>
      <Point>
        <coordinates>14.417865659902251,-9.156616132814388,0</coordinates>
      </Point>
    </Placemark>
    <Placemark>
      <name>PC-CZN-002</name>
      <styleUrl>#pointStyle</styleUrl>
      <Point>
        <coordinates>14.665706443682954,-9.52712309033546,0</coordinates>
      </Point>
    </Placemark>
    <Placemark>
      <name>PC-CZN-003</name>
      <styleUrl>#pointStyle</styleUrl>
      <Point>
        <coordinates>14.974476900739404,-9.299523201591866,0</coordinates>
      </Point>
    </Placemark>
    <Placemark>
      <name>PC-CZN-004</name>
      <styleUrl>#pointStyle</styleUrl>
      <Point>
        <coordinates>14.659763699244236,-9.144306468207008,0</coordinates>
      </Point>
    </Placemark>
    <Placemark>
      <name>PC-CZS-001</name>
      <styleUrl>#pointStyle</styleUrl>
      <Point>
        <coordinates>13.58978155398193,-10.294722287546001,0</coordinates>
      </Point>
    </Placemark>
    <Placemark>
      <name>PC-CZS-002</name>
      <styleUrl>#pointStyle</styleUrl>
      <Point>
        <coordinates>13.77329601204165,-10.78867442042221,0</coordinates>
      </Point>
    </Placemark>
    <Placemark>
      <name>PC-CZS-003</name>
      <styleUrl>#pointStyle</styleUrl>
      <Point>
        <coordinates>13.901433393343739,-11.313164226086764,0</coordinates>
      </Point>
    </Placemark>
    <Placemark>
      <name>PC-CZS-004</name>
      <styleUrl>#pointStyle</styleUrl>
      <Point>
        <coordinates>13.871280802406062,-11.695232084749845,0</coordinates>
      </Point>
    </Placemark>
    <Placemark>
      <name>PC-CZS-005</name>
      <styleUrl>#pointStyle</styleUrl>
      <Point>
        <coordinates>14.918456348853802,-11.839108796250276,0</coordinates>
      </Point>
    </Placemark>
    <Placemark>
      <name>PC-CZS-006</name>
      <styleUrl>#pointStyle</styleUrl>
      <Point>
        <coordinates>14.285656595934231,-11.397746122520912,0</coordinates>
      </Point>
    </Placemark>
    <Placemark>
      <name>PC-CZS-007</name>
      <styleUrl>#pointStyle</styleUrl>
      <Point>
        <coordinates>14.349217378314203,-10.867445099171043,0</coordinates>
      </Point>
    </Placemark>
    <Placemark>
      <name>PC-CZS-008</name>
      <styleUrl>#pointStyle</styleUrl>
      <Point>
        <coordinates>14.675913333019825,-10.853646499431674,0</coordinates>
      </Point>
    </Placemark>
    <Placemark>
      <name>PC-CZS-009</name>
      <styleUrl>#pointStyle</styleUrl>
      <Point>
        <coordinates>15.071484168535678,-10.93167819123302,0</coordinates>
      </Point>
    </Placemark>
    <Placemark>
      <name>PC-CZS-010</name>
      <styleUrl>#pointStyle</styleUrl>
      <Point>
        <coordinates>15.58183153092167,-10.603370912516471,0</coordinates>
      </Point>
    </Placemark>
    <Placemark>
      <name>PC-CZS-011</name>
      <styleUrl>#pointStyle</styleUrl>
      <Point>
        <coordinates>15.29694691455985,-10.625673497373574,0</coordinates>
      </Point>
    </Placemark>
    <Placemark>
      <name>PC-CZS-012</name>
      <styleUrl>#pointStyle</styleUrl>
      <Point>
        <coordinates>15.033897844600869,-10.602830644536434,0</coordinates>
      </Point>
    </Placemark>
    <Placemark>
      <name>PC-CZS-013</name>
      <styleUrl>#pointStyle</styleUrl>
      <Point>
        <coordinates>14.850577570740855,-10.39269863176686,0</coordinates>
      </Point>
    </Placemark>
    <Placemark>
      <name>PC-CZS-014</name>
      <styleUrl>#pointStyle</styleUrl>
      <Point>
        <coordinates>14.821222249700535,-10.268007239018308,0</coordinates>
      </Point>
    </Placemark>
    <Placemark>
      <name>PC-CZS-015</name>
      <styleUrl>#pointStyle</styleUrl>
      <Point>
        <coordinates>14.695976005024239,-9.998156359393283,0</coordinates>
      </Point>
    </Placemark>
    <Placemark>
      <name>PC-BEG-001</name>
      <styleUrl>#pointStyle</styleUrl>
      <Point>
        <coordinates>13.96574673946357,-11.938397079075031,0</coordinates>
      </Point>
    </Placemark>
    <Placemark>
      <name>PC-BEG-002</name>
      <styleUrl>#pointStyle</styleUrl>
      <Point>
        <coordinates>14.557409693534968,-12.368400618649789,0</coordinates>
      </Point>
    </Placemark>
    <Placemark>
      <name>PC-BEG-003</name>
      <styleUrl>#pointStyle</styleUrl>
      <Point>
        <coordinates>13.19134271990557,-12.824175941696181,0</coordinates>
      </Point>
    </Placemark>
    <Placemark>
      <name>PC-BEG-004</name>
      <styleUrl>#pointStyle</styleUrl>
      <Point>
        <coordinates>14.125625268253263,-13.046578666487989,0</coordinates>
      </Point>
    </Placemark>
    <Placemark>
      <name>PC-BEG-005</name>
      <styleUrl>#pointStyle</styleUrl>
      <Point>
        <coordinates>14.537270623799794,-12.992519139030145,0</coordinates>
      </Point>
    </Placemark>
    <Placemark>
      <name>PC-NBE-001</name>
      <styleUrl>#pointStyle</styleUrl>
      <Point>
        <coordinates>12.38726714192665,-14.428108246910323,0</coordinates>
      </Point>
    </Placemark>
    <Placemark>
      <name>PC-NBE-002</name>
      <styleUrl>#pointStyle</styleUrl>
      <Point>
        <coordinates>12.490171355700799,-14.45157626026437,0</coordinates>
      </Point>
    </Placemark>
    <Placemark>
      <name>PC-NBE-003</name>
      <styleUrl>#pointStyle</styleUrl>
      <Point>
        <coordinates>12.53137286381145,-14.650700991468897,0</coordinates>
      </Point>
    </Placemark>
    <Placemark>
      <name>PC-NBE-004</name>
      <styleUrl>#pointStyle</styleUrl>
      <Point>
        <coordinates>12.32815826306414,-14.911309170678576,0</coordinates>
      </Point>
    </Placemark>
    <Placemark>
      <name>PC-NBE-005</name>
      <styleUrl>#pointStyle</styleUrl>
      <Point>
        <coordinates>12.355451041148019,-15.008169440310272,0</coordinates>
      </Point>
    </Placemark>
    <Placemark>
      <name>PC-NBE-006</name>
      <styleUrl>#pointStyle</styleUrl>
      <Point>
        <coordinates>12.194439257151247,-15.105644014053068,0</coordinates>
      </Point>
    </Placemark>
    <Placemark>
      <name>PC-NBE-007</name>
      <styleUrl>#pointStyle</styleUrl>
      <Point>
        <coordinates>12.261345968534703,-15.241440232468854,0</coordinates>
      </Point>
    </Placemark>
    <Placemark>
      <name>PC-NBE-008</name>
      <styleUrl>#pointStyle</styleUrl>
      <Point>
        <coordinates>12.539239602241441,-15.014658531517837,0</coordinates>
      </Point>
    </Placemark>
    <Placemark>
      <name>PC-NBE-009</name>
      <styleUrl>#pointStyle</styleUrl>
      <Point>
        <coordinates>12.731644643397216,-15.028793221629744,0</coordinates>
      </Point>
    </Placemark>
    <Placemark>
      <name>PC-NBE-010</name>
      <styleUrl>#pointStyle</styleUrl>
      <Point>
        <coordinates>12.964018112434003,-15.04063574600474,0</coordinates>
      </Point>
    </Placemark>
    <Placemark>
      <name>PC-NBE-011</name>
      <styleUrl>#pointStyle</styleUrl>
      <Point>
        <coordinates>13.112587218162584,-15.05602575097232,0</coordinates>
      </Point>
    </Placemark>
    <Placemark>
      <name>PC-NBE-012</name>
      <styleUrl>#pointStyle</styleUrl>
      <Point>
        <coordinates>12.644737924420955,-15.625025544874074,0</coordinates>
      </Point>
    </Placemark>
    <Placemark>
      <name>PC-NBE-013</name>
      <styleUrl>#pointStyle</styleUrl>
      <Point>
        <coordinates>11.924377750076806,-15.754340655689239,0</coordinates>
      </Point>
    </Placemark>
    <Placemark>
      <name>PC-CNE-001</name>
      <styleUrl>#pointStyle</styleUrl>
      <Point>
        <coordinates>14.308655507722925,-16.305810321352475,0</coordinates>
      </Point>
    </Placemark>
    <Placemark>
      <name>PC-CNE-002</name>
      <styleUrl>#pointStyle</styleUrl>
      <Point>
        <coordinates>14.58333706274857,-16.399930854046552,0</coordinates>
      </Point>
    </Placemark>
    <Placemark>
      <name>PC-CNE-003</name>
      <styleUrl>#pointStyle</styleUrl>
      <Point>
        <coordinates>14.807568086813456,-16.506113891704384,0</coordinates>
      </Point>
    </Placemark>
    <Placemark>
      <name>PC-CNE-004</name>
      <styleUrl>#pointStyle</styleUrl>
      <Point>
        <coordinates>14.88854223119444,-16.433455007641456,0</coordinates>
      </Point>
    </Placemark>
    <Placemark>
      <name>PC-CNE-005</name>
      <styleUrl>#pointStyle</styleUrl>
      <Point>
        <coordinates>14.913330810778708,-16.69799286752387,0</coordinates>
      </Point>
    </Placemark>
    <Placemark>
      <name>PC-CNE-006</name>
      <styleUrl>#pointStyle</styleUrl>
      <Point>
        <coordinates>14.8911838305892,-16.832349131698003,0</coordinates>
      </Point>
    </Placemark>
    <Placemark>
      <name>PC-CNE-007</name>
      <styleUrl>#pointStyle</styleUrl>
      <Point>
        <coordinates>15.751076765843912,-16.183717210240943,0</coordinates>
      </Point>
    </Placemark>
    <Placemark>
      <name>PC-CNE-008</name>
      <styleUrl>#pointStyle</styleUrl>
      <Point>
        <coordinates>15.46230615974511,-16.84918642234624,0</coordinates>
      </Point>
    </Placemark>
    <Placemark>
      <name>PC-CNE-009</name>
      <styleUrl>#pointStyle</styleUrl>
      <Point>
        <coordinates>15.64734254966612,-17.001257802470572,0</coordinates>
      </Point>
    </Placemark>
    <Placemark>
      <name>PC-CNE-010</name>
      <styleUrl>#pointStyle</styleUrl>
      <Point>
        <coordinates>15.584829195790501,-17.135813078092905,0</coordinates>
      </Point>
    </Placemark>
    <Placemark>
      <name>PC-CNE-011</name>
      <styleUrl>#pointStyle</styleUrl>
      <Point>
        <coordinates>15.843259652555336,-17.306063483250348,0</coordinates>
      </Point>
    </Placemark>
    <Placemark>
      <name>PC-CNE-012</name>
      <styleUrl>#pointStyle</styleUrl>
      <Point>
        <coordinates>15.892759649202466,-17.381581372529563,0</coordinates>
      </Point>
    </Placemark>
    <Placemark>
      <name>PC-HLA-001</name>
      <styleUrl>#pointStyle</styleUrl>
      <Point>
        <coordinates>13.67622985441149,-14.793394673282378,0</coordinates>
      </Point>
    </Placemark>
    <Placemark>
      <name>PC-HLA-002</name>
      <styleUrl>#pointStyle</styleUrl>
      <Point>
        <coordinates>14.079827060744554,-14.761475083949911,0</coordinates>
      </Point>
    </Placemark>
    <Placemark>
      <name>PC-HLA-003</name>
      <styleUrl>#pointStyle</styleUrl>
      <Point>
        <coordinates>14.687903488735975,-13.818342678019254,0</coordinates>
      </Point>
    </Placemark>
    <Placemark>
      <name>PC-HLA-004</name>
      <styleUrl>#pointStyle</styleUrl>
      <Point>
        <coordinates>14.899328183298099,-13.777740410522151,0</coordinates>
      </Point>
    </Placemark>
    <Placemark>
      <name>PC-HLA-005</name>
      <styleUrl>#pointStyle</styleUrl>
      <Point>
        <coordinates>15.072444183806336,-13.710494605642198,0</coordinates>
      </Point>
    </Placemark>
    <Placemark>
      <name>PC-HLA-006</name>
      <styleUrl>#pointStyle</styleUrl>
      <Point>
        <coordinates>15.263205080806934,-13.785306035419268,0</coordinates>
      </Point>
    </Placemark>
    <Placemark>
      <name>PC-HLA-007</name>
      <styleUrl>#pointStyle</styleUrl>
      <Point>
        <coordinates>16.17298792829014,-14.218691906039279,0</coordinates>
      </Point>
    </Placemark>
    <Placemark>
      <name>PC-HLA-008</name>
      <styleUrl>#pointStyle</styleUrl>
      <Point>
        <coordinates>16.40218490141545,-14.457461434926794,0</coordinates>
      </Point>
    </Placemark>
    <Placemark>
      <name>PC-HLA-009</name>
      <styleUrl>#pointStyle</styleUrl>
      <Point>
        <coordinates>16.27022678332634,-14.473731418303283,0</coordinates>
      </Point>
    </Placemark>
    <Placemark>
      <name>PC-HLA-010</name>
      <styleUrl>#pointStyle</styleUrl>
      <Point>
        <coordinates>16.27292927813322,-14.81056658983718,0</coordinates>
      </Point>
    </Placemark>
    <Placemark>
      <name>PC-HLA-011</name>
      <styleUrl>#pointStyle</styleUrl>
      <Point>
        <coordinates>15.981494028817755,-14.591780063416376,0</coordinates>
      </Point>
    </Placemark>
    <Placemark>
      <name>PC-HLA-012</name>
      <styleUrl>#pointStyle</styleUrl>
      <Point>
        <coordinates>15.593822799288699,-14.636358463411632,0</coordinates>
      </Point>
    </Placemark>
    <Placemark>
      <name>PP-HLA-013</name>
      <styleUrl>#pointStyle</styleUrl>
      <Point>
        <coordinates>14.075170084770495,-15.733067472500107,0</coordinates>
      </Point>
    </Placemark>
    <Placemark>
      <name>PC-HLA-014</name>
      <styleUrl>#pointStyle</styleUrl>
      <Point>
        <coordinates>13.906312525951058,-15.725280849301296,0</coordinates>
      </Point>
    </Placemark>
    <Placemark>
      <name>PC-HLA-015</name>
      <styleUrl>#pointStyle</styleUrl>
      <Point>
        <coordinates>14.07391205193469,-15.58553455835917,0</coordinates>
      </Point>
    </Placemark>
    <Placemark>
      <name>PC-HLA-016</name>
      <styleUrl>#pointStyle</styleUrl>
      <Point>
        <coordinates>14.027284409715516,-15.421226633499812,0</coordinates>
      </Point>
    </Placemark>
    <Placemark>
      <name>PC-HBO-001</name>
      <styleUrl>#pointStyle</styleUrl>
      <Point>
        <coordinates>15.299416340324122,-12.24985126178471,0</coordinates>
      </Point>
    </Placemark>
    <Placemark>
      <name>PC-HBO-002</name>
      <styleUrl>#pointStyle</styleUrl>
      <Point>
        <coordinates>15.708595651987931,-12.188044439921171,0</coordinates>
      </Point>
    </Placemark>
    <Placemark>
      <name>PC-HBO-003</name>
      <styleUrl>#pointStyle</styleUrl>
      <Point>
        <coordinates>16.026805527835574,-12.331831273127982,0</coordinates>
      </Point>
    </Placemark>
    <Placemark>
      <name>PC-HBO-004</name>
      <styleUrl>#pointStyle</styleUrl>
      <Point>
        <coordinates>16.11621411337229,-12.451687689442709,0</coordinates>
      </Point>
    </Placemark>
    <Placemark>
      <name>PC-HBO-005</name>
      <styleUrl>#pointStyle</styleUrl>
      <Point>
        <coordinates>16.161962287817666,-12.518816989366666,0</coordinates>
      </Point>
    </Placemark>
    <Placemark>
      <name>PC-HBO-006</name>
      <styleUrl>#pointStyle</styleUrl>
      <Point>
        <coordinates>16.19358687001158,-12.698842473814326,0</coordinates>
      </Point>
    </Placemark>
    <Placemark>
      <name>PC-HBO-007</name>
      <styleUrl>#pointStyle</styleUrl>
      <Point>
        <coordinates>15.956377275840811,-12.884435002959787,0</coordinates>
      </Point>
    </Placemark>
    <Placemark>
      <name>PC-HBO-008</name>
      <styleUrl>#pointStyle</styleUrl>
      <Point>
        <coordinates>15.464046030783795,-13.397431549298885,0</coordinates>
      </Point>
    </Placemark>
    <Placemark>
      <name>PC-HBO-009</name>
      <styleUrl>#pointStyle</styleUrl>
      <Point>
        <coordinates>15.63367619607593,-13.068791135954207,0</coordinates>
      </Point>
    </Placemark>
    <Placemark>
      <name>PC-HBO-010</name>
      <styleUrl>#pointStyle</styleUrl>
      <Point>
        <coordinates>15.726385737842856,-12.924226862121525,0</coordinates>
      </Point>
    </Placemark>
    <Placemark>
      <name>PC-HBO-011</name>
      <styleUrl>#pointStyle</styleUrl>
      <Point>
        <coordinates>15.774933681609967,-12.866136877864207,0</coordinates>
      </Point>
    </Placemark>
    <Placemark>
      <name>PC-HBO-012</name>
      <styleUrl>#pointStyle</styleUrl>
      <Point>
        <coordinates>15.343300627439156,-12.954228136953521,0</coordinates>
      </Point>
    </Placemark>
    <Placemark>
      <name>PC-HBO-013</name>
      <styleUrl>#pointStyle</styleUrl>
      <Point>
        <coordinates>15.22836366640389,-12.94062740611013,0</coordinates>
      </Point>
    </Placemark>
    <Placemark>
      <name>PC-HBO-014</name>
      <styleUrl>#pointStyle</styleUrl>
      <Point>
        <coordinates>15.626594254197414,-12.81478398705736,0</coordinates>
      </Point>
    </Placemark>
    <Placemark>
      <name>PC-HBO-015</name>
      <styleUrl>#pointStyle</styleUrl>
      <Point>
        <coordinates>15.507711081450479,-12.69497298756947,0</coordinates>
      </Point>
    </Placemark>
    <Placemark>
      <name>PC-HBO-016</name>
      <styleUrl>#pointStyle</styleUrl>
      <Point>
        <coordinates>15.756518583493971,-12.673484148674586,0</coordinates>
      </Point>
    </Placemark>
    <Placemark>
      <name>PC-HBO-017</name>
      <styleUrl>#pointStyle</styleUrl>
      <Point>
        <coordinates>15.65859457985903,-12.421974868013029,0</coordinates>
      </Point>
    </Placemark>
    <Placemark>
      <name>PC-UGE-001</name>
      <styleUrl>#pointStyle</styleUrl>
      <Point>
        <coordinates>15.073641233427013,-6.056022724522503,0</coordinates>
      </Point>
    </Placemark>
    <Placemark>
      <name>PC-UGE-002</name>
      <styleUrl>#pointStyle</styleUrl>
      <Point>
        <coordinates>15.043061936935702,-6.186048170530366,0</coordinates>
      </Point>
    </Placemark>
    <Placemark>
      <name>PC-UGE-003</name>
      <styleUrl>#pointStyle</styleUrl>
      <Point>
        <coordinates>15.05290887139444,-6.3102520709851655,0</coordinates>
      </Point>
    </Placemark>
    <Placemark>
      <name>PC-UGE-004</name>
      <styleUrl>#pointStyle</styleUrl>
      <Point>
        <coordinates>15.008700614722319,-6.488609266636822,0</coordinates>
      </Point>
    </Placemark>
    <Placemark>
      <name>PC-UGE-005</name>
      <styleUrl>#pointStyle</styleUrl>
      <Point>
        <coordinates>15.158472218083148,-6.6544717661484745,0</coordinates>
      </Point>
    </Placemark>
    <Placemark>
      <name>PP-UGE-006</name>
      <styleUrl>#pointStyle</styleUrl>
      <Point>
        <coordinates>15.307130375026686,-6.9167605430395245,0</coordinates>
      </Point>
    </Placemark>
    <Placemark>
      <name>PC-UGE-007</name>
      <styleUrl>#pointStyle</styleUrl>
      <Point>
        <coordinates>15.333471916438977,-7.207601175424087,0</coordinates>
      </Point>
    </Placemark>
    <Placemark>
      <name>PC-UGE-008</name>
      <styleUrl>#pointStyle</styleUrl>
      <Point>
        <coordinates>14.854944470611043,-7.330822568597202,0</coordinates>
      </Point>
    </Placemark>
    <Placemark>
      <name>PC-UGE-009</name>
      <styleUrl>#pointStyle</styleUrl>
      <Point>
        <coordinates>15.342914693896677,-7.485531458086442,0</coordinates>
      </Point>
    </Placemark>
    <Placemark>
      <name>PC-UGE-010</name>
      <styleUrl>#pointStyle</styleUrl>
      <Point>
        <coordinates>15.094832982094845,-7.577459904023641,0</coordinates>
      </Point>
    </Placemark>
    <Placemark>
      <name>PC-UGE-011</name>
      <styleUrl>#pointStyle</styleUrl>
      <Point>
        <coordinates>15.27115771628583,-7.797890139876496,0</coordinates>
      </Point>
    </Placemark>
    <Placemark>
      <name>PC-MJE-001</name>
      <styleUrl>#pointStyle</styleUrl>
      <Point>
        <coordinates>15.943085664885906,-9.07619804182489,0</coordinates>
      </Point>
    </Placemark>
    <Placemark>
      <name>PC-MJE-002</name>
      <styleUrl>#pointStyle</styleUrl>
      <Point>
        <coordinates>16.119893030500997,-9.346519680111726,0</coordinates>
      </Point>
    </Placemark>
    <Placemark>
      <name>PC-MJE-003</name>
      <styleUrl>#pointStyle</styleUrl>
      <Point>
        <coordinates>15.626728827765161,-9.421398831123847,0</coordinates>
      </Point>
    </Placemark>
    <Placemark>
      <name>PC-BIE-001</name>
      <styleUrl>#pointStyle</styleUrl>
      <Point>
        <coordinates>17.647697356758336,-11.99559631619853,0</coordinates>
      </Point>
    </Placemark>
    <Placemark>
      <name>PC-BIE-002</name>
      <styleUrl>#pointStyle</styleUrl>
      <Point>
        <coordinates>18.111406315814673,-12.142317519566605,0</coordinates>
      </Point>
    </Placemark>
    <Placemark>
      <name>PC-BIE-003</name>
      <styleUrl>#pointStyle</styleUrl>
      <Point>
        <coordinates>18.5830118004743,-12.184890824790422,0</coordinates>
      </Point>
    </Placemark>
    <Placemark>
      <name>PC-BIE-004</name>
      <styleUrl>#pointStyle</styleUrl>
      <Point>
        <coordinates>17.250585735342003,-12.158971557434912,0</coordinates>
      </Point>
    </Placemark>
    <Placemark>
      <name>PC-BIE-005</name>
      <styleUrl>#pointStyle</styleUrl>
      <Point>
        <coordinates>17.498755708950494,-12.242178147138173,0</coordinates>
      </Point>
    </Placemark>
    <Placemark>
      <name>PC-BIE-006</name>
      <styleUrl>#pointStyle</styleUrl>
      <Point>
        <coordinates>16.382924889316428,-12.533014302531821,0</coordinates>
      </Point>
    </Placemark>
    <Placemark>
      <name>PC-BIE-007</name>
      <styleUrl>#pointStyle</styleUrl>
      <Point>
        <coordinates>16.545467213625834,-12.559158269186884,0</coordinates>
      </Point>
    </Placemark>
    <Placemark>
      <name>PC-BIE-008</name>
      <styleUrl>#pointStyle</styleUrl>
      <Point>
        <coordinates>16.70683895496486,-12.52729218248964,0</coordinates>
      </Point>
    </Placemark>
    <Placemark>
      <name>PC-BIE-009</name>
      <styleUrl>#pointStyle</styleUrl>
      <Point>
        <coordinates>16.758059461147834,-12.725424463850457,0</coordinates>
      </Point>
    </Placemark>
    <Placemark>
      <name>PC-BIE-010</name>
      <styleUrl>#pointStyle</styleUrl>
      <Point>
        <coordinates>16.759115227440965,-12.967218585833542,0</coordinates>
      </Point>
    </Placemark>
    <Placemark>
      <name>PC-BIE-011</name>
      <styleUrl>#pointStyle</styleUrl>
      <Point>
        <coordinates>16.744483939741865,-13.28153445642759,0</coordinates>
      </Point>
    </Placemark>
    <Placemark>
      <name>PC-BIE-012</name>
      <styleUrl>#pointStyle</styleUrl>
      <Point>
        <coordinates>16.77757709955921,-13.549044393102674,0</coordinates>
      </Point>
    </Placemark>
    <Placemark>
      <name>PC-BIE-013</name>
      <styleUrl>#pointStyle</styleUrl>
      <Point>
        <coordinates>17.14304758380972,-13.77093556858453,0</coordinates>
      </Point>
    </Placemark>
    <Placemark>
      <name>PC-BIE-014</name>
      <styleUrl>#pointStyle</styleUrl>
      <Point>
        <coordinates>17.29619012631214,-13.898466151968773,0</coordinates>
      </Point>
    </Placemark>
    <Placemark>
      <name>PC-CUB-001</name>
      <styleUrl>#pointStyle</styleUrl>
      <Point>
        <coordinates>17.51740124893384,-14.096420138942184,0</coordinates>
      </Point>
    </Placemark>
    <Placemark>
      <name>PC-CUB-002</name>
      <styleUrl>#pointStyle</styleUrl>
      <Point>
        <coordinates>17.66083919367619,-14.327230490260947,0</coordinates>
      </Point>
    </Placemark>
    <Placemark>
      <name>PC-CUB-003</name>
      <styleUrl>#pointStyle</styleUrl>
      <Point>
        <coordinates>17.66406306928365,-14.55993081991724,0</coordinates>
      </Point>
    </Placemark>
    <Placemark>
      <name>PC-CUB-004</name>
      <styleUrl>#pointStyle</styleUrl>
      <Point>
        <coordinates>17.546332387698882,-14.667831017454317,0</coordinates>
      </Point>
    </Placemark>
    <Placemark>
      <name>PC-CUB-005</name>
      <styleUrl>#pointStyle</styleUrl>
      <Point>
        <coordinates>17.617964047899395,-14.688551792690685,0</coordinates>
      </Point>
    </Placemark>
    <Placemark>
      <name>PC-CUB-006</name>
      <styleUrl>#pointStyle</styleUrl>
      <Point>
        <coordinates>29.548441214606065,-82.26862092952953,0</coordinates>
      </Point>
    </Placemark>
    <Placemark>
      <name>PC-CUB-007</name>
      <styleUrl>#pointStyle</styleUrl>
      <Point>
        <coordinates>16.738903393520264,-14.632277482053782,0</coordinates>
      </Point>
    </Placemark>
    <Placemark>
      <name>PC-CUB-008</name>
      <styleUrl>#pointStyle</styleUrl>
      <Point>
        <coordinates>16.644597895591435,-14.66644020752317,0</coordinates>
      </Point>
    </Placemark>
    <Placemark>
      <name>PC-CUB-001</name>
      <styleUrl>#pointStyle</styleUrl>
      <Point>
        <coordinates>19.172634199035283,-15.16493587194609,0</coordinates>
      </Point>
    </Placemark>
    <Placemark>
      <name>PC-MOX-001</name>
      <styleUrl>#pointStyle</styleUrl>
      <Point>
        <coordinates>18.79681760660072,-12.130145454906913,0</coordinates>
      </Point>
    </Placemark>
    <Placemark>
      <name>PC-MOX-002</name>
      <styleUrl>#pointStyle</styleUrl>
      <Point>
        <coordinates>19.15707637864708,-11.968627720832426,0</coordinates>
      </Point>
    </Placemark>
    <Placemark>
      <name>PC-MOX-003</name>
      <styleUrl>#pointStyle</styleUrl>
      <Point>
        <coordinates>19.56145915956142,-11.941646557389669,0</coordinates>
      </Point>
    </Placemark>
    <Placemark>
      <name>PC-MOX-004</name>
      <styleUrl>#pointStyle</styleUrl>
      <Point>
        <coordinates>20.385572005966168,-12.237978373036908,0</coordinates>
      </Point>
    </Placemark>
    <Placemark>
      <name>PC-MOX-005</name>
      <styleUrl>#pointStyle</styleUrl>
      <Point>
        <coordinates>20.816535913384776,-12.52867932802166,0</coordinates>
      </Point>
    </Placemark>
    <Placemark>
      <name>PC-MXL-001</name>
      <styleUrl>#pointStyle</styleUrl>
      <Point>
        <coordinates>22.22943830884502,-10.707301820434962,0</coordinates>
      </Point>
    </Placemark>
    <Placemark>
      <name>PC-MXL-002</name>
      <styleUrl>#pointStyle</styleUrl>
      <Point>
        <coordinates>21.939517568728792,-11.02541029785418,0</coordinates>
      </Point>
    </Placemark>
    <Placemark>
      <name>PC-LDS-001</name>
      <styleUrl>#pointStyle</styleUrl>
      <Point>
        <coordinates>19.506314499424775,-10.039393340534318,0</coordinates>
      </Point>
    </Placemark>
    <Placemark>
      <name>PC-LDS-002</name>
      <styleUrl>#pointStyle</styleUrl>
      <Point>
        <coordinates>21.215183821643787,-9.905709034988185,0</coordinates>
      </Point>
    </Placemark>
    <Placemark>
      <name>PC-LDS-003</name>
      <styleUrl>#pointStyle</styleUrl>
      <Point>
        <coordinates>21.47528693556241,-10.235086232561024,0</coordinates>
      </Point>
    </Placemark>
    <Placemark>
      <name>PC-LDS-004</name>
      <styleUrl>#pointStyle</styleUrl>
      <Point>
        <coordinates>20.19995692951507,-11.031959717213848,0</coordinates>
      </Point>
    </Placemark>
    <Placemark>
      <name>PC-LDN-001</name>
      <styleUrl>#pointStyle</styleUrl>
      <Point>
        <coordinates>20.17469014907202,-7.343999818039004,0</coordinates>
      </Point>
    </Placemark>
    <Placemark>
      <name>PC-LDN-002</name>
      <styleUrl>#pointStyle</styleUrl>
      <Point>
        <coordinates>19.66076839580882,-8.282009650068272,0</coordinates>
      </Point>
    </Placemark>
    <Placemark>
      <name>PC-LDN-003</name>
      <styleUrl>#pointStyle</styleUrl>
      <Point>
        <coordinates>18.91633827371202,-8.338896159011187,0</coordinates>
      </Point>
    </Placemark>
    <Placemark>
      <name>PC-LDN-004</name>
      <styleUrl>#pointStyle</styleUrl>
      <Point>
        <coordinates>18.613834191556563,-8.451917147844895,0</coordinates>
      </Point>
    </Placemark>
    <Placemark>
      <name>PC-LDN-005</name>
      <styleUrl>#pointStyle</styleUrl>
      <Point>
        <coordinates>18.02331730062983,-8.960016518515625,0</coordinates>
      </Point>
    </Placemark>
    <Placemark>
      <name>PC-LDN-006</name>
      <styleUrl>#pointStyle</styleUrl>
      <Point>
        <coordinates>18.38611216599517,-9.279491071147016,0</coordinates>
      </Point>
    </Placemark>
    <Placemark>
      <name>PC-LDN-007</name>
      <styleUrl>#pointStyle</styleUrl>
      <Point>
        <coordinates>19.020921857642975,-9.693900374483722,0</coordinates>
      </Point>
    </Placemark>
    <Placemark>
      <name>PC-LDN-008</name>
      <styleUrl>#pointStyle</styleUrl>
      <Point>
        <coordinates>19.506314499424775,-10.039393340534318,0</coordinates>
      </Point>
    </Placemark>
  </Document>
</kml>