<?xml version="1.0" encoding="UTF-8"?>
<kml xmlns="http://www.opengis.net/kml/2.2"><Document>
<name>Áreas propostas para expansão prioritária</name>
<Style id="poly"><LineStyle>
<color>ff00a5ff</color><width>2</width></LineStyle><PolyStyle>
<color>5500a5ff</color></PolyStyle></Style>
<Placemark>
<name>Expansão prioritária</name><styleUrl>#poly</styleUrl>
<description><![CDATA[<b>id:</b> EXP_CLUSTER_1<br/><b>n_pontos:</b> 4<br/><b>criterio:</b> &gt;=2 pontos vermelhos externos agrupados em até 50 km<br/><b>tipo:</b> Expansão prioritária<br/>]]></description>
<Polygon><tessellate>1</tessellate><outerBoundaryIs><LinearRing><coordinates>17.43193138,-8.26768426,0 17.43014052,-8.27690875,0 17.42717492,-8.28595492,0 17.42306315,-8.29473561,0 17.41784480,-8.30316626,0 17.41157013,-8.31116564,0 17.40429956,-8.31865668,0 17.39610312,-8.32556722,0 17.38705974,-8.33183068,0 17.37725652,-8.33738669,0 17.36678786,-8.34218172,0 17.35575458,-8.34616957,0 17.34426295,-8.34931180,0 17.33242362,-8.35157813,0 17.32035063,-8.35294673,0 17.30816024,-8.35340440,0 17.29596985,-8.35294673,0 17.28389685,-8.35157813,0 17.27205753,-8.34931180,0 17.26056589,-8.34616957,0 17.24953262,-8.34218172,0 17.23906396,-8.33738669,0 17.22926074,-8.33183068,0 17.22021736,-8.32556722,0 17.01293401,-8.16720028,0 17.00402549,-8.15962350,0 16.99622995,-8.15136199,0 16.98963697,-8.14251073,0 16.78235361,-7.82597770,0 16.77749527,-7.81756633,0 16.77372572,-7.80883592,0 16.77108029,-7.79986835,0 16.76958380,-7.79074772,0 16.76925027,-7.78155959,0 16.77008285,-7.77239012,0 16.77207372,-7.76332529,0 16.77520421,-7.75445011,0 16.77944496,-7.74584779,0 16.78475621,-7.73759900,0 16.79108813,-7.72978106,0 16.79838136,-7.72246726,0 16.80656750,-7.71572617,0 16.81556977,-7.70962099,0 16.82530375,-7.70420892,0 16.83567816,-7.69954071,0 16.84659570,-7.69566011,0 16.85795400,-7.69260349,0 16.86964652,-7.69039949,0 16.88156361,-7.68906877,0 16.89359353,-7.68862381,0 17.28989260,-7.68862381,0 17.28796939,-7.69230650,0 17.28808895,-7.69280807,0 17.29020095,-7.69324401,0 17.29191048,-7.69373230,0 17.29484535,-7.69383140,0 17.29786085,-7.69465705,0 17.29949068,-7.69459091,0 17.30054754,-7.69496788,0 17.30081285,-7.69793188,0 17.30248497,-7.69859251,0 17.30358310,-7.69950493,0 17.30467967,-7.70013038,0 17.30539071,-7.70039439,0 17.30592760,-7.70037237,0 17.30644521,-7.70033132,0 17.30780334,-7.69967353,0 17.30965741,-7.69851564,0 17.31132425,-7.69820055,0 17.31270477,-7.69813571,0 17.31375728,-7.69770913,0 17.31456410,-7.69795349,0 17.31510525,-7.69871583,0 17.31541843,-7.69988116,0 17.31530814,-7.70076181,0 17.31638909,-7.70203778,0 17.31697182,-7.70339296,0 17.31711075,-7.70425313,0 17.31717712,-7.70587895,0 17.31681531,-7.70987940,0 17.31590806,-7.71233315,0 17.31598748,-7.71283014,0 17.31589762,-7.71394026,0 17.32112060,-7.71507896,0 17.32317001,-7.71457042,0 17.32452699,-7.71370213,0 17.32523462,-7.71333478,0 17.32678829,-7.71336460,0 17.32807702,-7.71404632,0 17.32883337,-7.71557271,0 17.32964138,-7.71602746,0 17.33121927,-7.71697543,0 17.33183436,-7.71722078,0 17.33160391,-7.72066568,0 17.32863391,-7.72468033,0 17.32629185,-7.72779238,0 17.32665138,-7.73582560,0 17.32571092,-7.73942684,0 17.32107748,-7.74705684,0 17.31914962,-7.74965009,0 17.31728739,-7.75109509,0 17.31751862,-7.75245696,0 17.31769116,-7.75331693,0 17.31851393,-7.75469948,0 17.32020822,-7.75760779,0 17.32307802,-7.76062924,0 17.32580269,-7.76341231,0 17.32796435,-7.76409399,0 17.33055311,-7.76396023,0 17.33182489,-7.76414457,0 17.33310130,-7.76516587,0 17.33370703,-7.76631042,0 17.33397698,-7.76743290,0 17.33378953,-7.76822309,0 17.33336694,-7.76985157,0 17.33258258,-7.77109941,0 17.33132147,-7.77285207,0 17.33044147,-7.77414826,0 17.33020434,-7.77462785,0 17.32981429,-7.77781057,0 17.33309391,-7.78118835,0 17.33499047,-7.78160836,0 17.33719821,-7.78193100,0 17.34000403,-7.78201118,0 17.34302539,-7.78204232,0 17.34458082,-7.78148371,0 17.34759803,-7.78077351,0 17.35030620,-7.78054329,0 17.35200347,-7.77962516,0 17.35396087,-7.77805990,0 17.35685761,-7.77725467,0 17.35839316,-7.77743745,0 17.35978713,-7.77802754,0 17.36154597,-7.77954822,0 17.36334754,-7.78013603,0 17.36632343,-7.78062162,0 17.36792447,-7.77965614,0 17.37088893,-7.77810912,0 17.37352280,-7.77747264,0 17.37505565,-7.77717710,0 17.37707085,-7.77738104,0 17.37886905,-7.77737096,0 17.38146533,-7.77857597,0 17.38305399,-7.78168892,0 17.38386426,-7.78505614,0 17.38395242,-7.78792523,0 17.38325179,-7.79122920,0 17.37601902,-7.80970703,0 17.37524681,-7.81308315,0 17.37519638,-7.81688566,0 17.37593440,-7.82018155,0 17.37673788,-7.82232922,0 17.37890530,-7.82396702,0 17.38055575,-7.82324031,0 17.38540782,-7.81625417,0 17.39024980,-7.81376412,0 17.39626696,-7.81569051,0 17.39863113,-7.81818794,0 17.40075104,-7.81989762,0 17.40181975,-7.82228283,0 17.39435127,-7.82875071,0 17.39229133,-7.83335371,0 17.39166397,-7.83687249,0 17.39232207,-7.83873397,0 17.39434781,-7.84073115,0 17.39823368,-7.84092424,0 17.40796479,-7.83175792,0 17.41241901,-7.83072811,0 17.41904531,-7.83212488,0 17.42286699,-7.83368115,0 17.42381958,-7.83668865,0 17.42473143,-7.84507668,0 17.42431727,-7.84809204,0 17.41990365,-7.85615208,0 17.41970113,-7.85844886,0 17.41971776,-7.86131827,0 17.42067379,-7.86489964,0 17.42256465,-7.86840386,0 17.42551591,-7.86867376,0 17.43169195,-7.86677284,0 17.43253025,-7.86646880,0 17.43253025,-8.25837027,0 17.43193138,-8.26768426,0</coordinates></LinearRing></outerBoundaryIs></Polygon>
</Placemark>
<Placemark>
<name>Expansão prioritária</name><styleUrl>#poly</styleUrl>
<description><![CDATA[<b>id:</b> EXP_CLUSTER_2<br/><b>n_pontos:</b> 2<br/><b>criterio:</b> &gt;=2 pontos vermelhos externos agrupados em até 50 km<br/><b>tipo:</b> Expansão prioritária<br/>]]></description>
<Polygon><tessellate>1</tessellate><outerBoundaryIs><LinearRing><coordinates>14.26516546,-12.31926338,0 14.27516297,-12.32467993,0 14.28442613,-12.33082868,0 14.29286572,-12.33765046,0 14.30040046,-12.34507964,0 14.30695780,-12.35304469,0 14.31247457,-12.36146897,0 14.31689766,-12.37027139,0 14.32018445,-12.37936719,0 14.32230331,-12.38866882,0 14.32323382,-12.39808670,0 14.32296702,-12.40753015,0 14.32150549,-12.41690822,0 14.31886329,-12.42613058,0 14.31506588,-12.43510840,0 14.31014982,-12.44375518,0 14.30416246,-12.45198762,0 14.29716146,-12.45972639,0 14.28921424,-12.46689691,0 14.28039735,-12.47343009,0 14.27079568,-12.47926295,0 14.26050172,-12.48433927,0 14.24961459,-12.48861013,0 14.23823915,-12.49203435,0 14.22648495,-12.49457891,0 14.21446518,-12.49621930,0 14.20229561,-12.49693969,0 14.19009343,-12.49673314,0 14.17797616,-12.49560164,0 14.16606049,-12.49355610,0 14.15446118,-12.49061624,0 14.14328994,-12.48681040,0 13.72872323,-12.32638834,0 13.71808763,-12.32175599,0 13.70809012,-12.31633950,0 13.69882696,-12.31019108,0 13.69038737,-12.30336999,0 13.68285263,-12.29594197,0 13.67629529,-12.28797860,0 13.67077852,-12.27955662,0 13.66635543,-12.27075717,0 13.66306864,-12.26166504,0 13.66094978,-12.25236780,0 13.66001927,-12.24295501,0 13.66028607,-12.23351733,0 13.66174760,-12.22414565,0 13.66438980,-12.21493020,0 13.66818721,-12.20595973,0 13.67310327,-12.19732058,0 13.67909063,-12.18909593,0 13.68609163,-12.18136493,0 13.69403885,-12.17420201,0 13.70285574,-12.16767609,0 13.71245741,-12.16184998,0 13.72275137,-12.15677973,0 13.73363850,-12.15251413,0 13.74501394,-12.14909423,0 13.75676814,-12.14655293,0 13.76878791,-12.14491467,0 13.78095748,-12.14419522,0 13.79315966,-12.14440150,0 13.80527693,-12.14553153,0 13.81719260,-12.14757443,0 13.82879191,-12.15051054,0 13.83996315,-12.15431163,0 14.25452986,-12.31463116,0 14.26516546,-12.31926338,0</coordinates></LinearRing></outerBoundaryIs></Polygon>
</Placemark>
<Placemark>
<name>Expansão prioritária</name><styleUrl>#poly</styleUrl>
<description><![CDATA[<b>id:</b> EXP_CLUSTER_3<br/><b>n_pontos:</b> 2<br/><b>criterio:</b> &gt;=2 pontos vermelhos externos agrupados em até 50 km<br/><b>tipo:</b> Expansão prioritária<br/>]]></description>
<Polygon><tessellate>1</tessellate><outerBoundaryIs><LinearRing><coordinates>13.66818721,-13.23854023,0 13.66438980,-13.22953442,0 13.66174760,-13.22028333,0 13.66028607,-13.21087607,0 13.66001927,-13.20140324,0 13.66094978,-13.19195609,0 13.66306864,-13.18262558,0 13.66635543,-13.17350155,0 13.67077852,-13.16467185,0 13.67629529,-13.15622146,0 13.68285263,-13.14823175,0 13.69038737,-13.14077959,0 13.69882696,-13.13393671,0 13.70809012,-13.12776896,0 13.71808763,-13.12233568,0 13.72872323,-13.11768915,0 13.73989447,-13.11387408,0 13.75149378,-13.11092716,0 13.76340945,-13.10887675,0 13.77552672,-13.10774257,0 13.78772890,-13.10753553,0 13.79989847,-13.10825762,0 13.81191824,-13.10990190,0 13.82367244,-13.11245255,0 13.83504788,-13.11588504,0 13.84593501,-13.12016633,0 13.85622897,-13.12525525,0 13.86583064,-13.13110282,0 13.87464754,-13.13765279,0 13.88259475,-13.14484213,0 13.88959575,-13.15260165,0 13.89558311,-13.16085667,0 14.10286647,-13.48284382,0 14.10778253,-13.49152615,0 14.11157994,-13.50054150,0 14.11422214,-13.50980307,0 14.11568367,-13.51922171,0 14.11595047,-13.52870670,0 14.11501996,-13.53816672,0 14.11290110,-13.54751065,0 14.10961431,-13.55664848,0 14.10519122,-13.56549219,0 14.09967445,-13.57395656,0 14.09311711,-13.58196003,0 14.08558237,-13.58942549,0 14.07714278,-13.59628098,0 14.06787962,-13.60246042,0 14.05788211,-13.60790426,0 14.04724651,-13.61256000,0 14.03607527,-13.61638277,0 14.02447596,-13.61933571,0 14.01256029,-13.62139036,0 14.00044302,-13.62252690,0 13.98824084,-13.62273437,0 13.97607127,-13.62201077,0 13.96405150,-13.62036308,0 13.95229730,-13.61780719,0 13.94092186,-13.61436774,0 13.93003473,-13.61007788,0 13.91974077,-13.60497899,0 13.91013910,-13.59912020,0 13.90132220,-13.59255801,0 13.89337499,-13.58535565,0 13.88637399,-13.57758254,0 13.88038663,-13.56931361,0 13.67310327,-13.24721398,0 13.66818721,-13.23854023,0</coordinates></LinearRing></outerBoundaryIs></Polygon>
</Placemark>
<Placemark>
<name>Expansão prioritária</name><styleUrl>#poly</styleUrl>
<description><![CDATA[<b>id:</b> EXP_CLUSTER_4<br/><b>n_pontos:</b> 2<br/><b>criterio:</b> &gt;=2 pontos vermelhos externos agrupados em até 50 km<br/><b>tipo:</b> Expansão prioritária<br/>]]></description>
<Polygon><tessellate>1</tessellate><outerBoundaryIs><LinearRing><coordinates>21.80213853,-11.36119815,0 21.79214101,-11.35580018,0 21.78287785,-11.34967277,0 21.77443826,-11.34287497,0 21.76690352,-11.33547229,0 21.76034618,-11.32753608,0 21.75482941,-11.31914279,0 21.75040633,-11.31037331,0 21.74711953,-11.30131210,0 21.74500067,-11.29204647,0 21.74407016,-11.28266565,0 21.74433696,-11.27325999,0 21.74579849,-11.26392008,0 21.74844069,-11.25473585,0 21.75223810,-11.24579574,0 21.75715416,-11.23718581,0 21.76314152,-11.22898895,0 21.77014252,-11.22128407,0 21.77808973,-11.21414531,0 21.78690663,-11.20764140,0 21.79650829,-11.20183493,0 21.80680226,-11.19678176,0 21.81768939,-11.19253053,0 21.82906483,-11.18912214,0 21.84081903,-11.18658939,0 21.85283880,-11.18495665,0 21.86500837,-11.18423962,0 21.87721055,-11.18444520,0 21.88932782,-11.18557143,0 21.90124349,-11.18760745,0 21.91284280,-11.19053368,0 21.92401404,-11.19432198,0 22.33858075,-11.35409766,0 22.34921634,-11.35871406,0 22.35921386,-11.36411208,0 22.36847702,-11.37023980,0 22.37691661,-11.37703823,0 22.38445135,-11.38444196,0 22.39100869,-11.39237971,0 22.39652546,-11.40077510,0 22.40094854,-11.40954729,0 22.40423534,-11.41861185,0 22.40635420,-11.42788150,0 22.40728471,-11.43726697,0 22.40701791,-11.44667790,0 22.40555638,-11.45602364,0 22.40291418,-11.46521418,0 22.39911677,-11.47416100,0 22.39420071,-11.48277791,0 22.38821335,-11.49098187,0 22.38121235,-11.49869386,0 22.37326514,-11.50583956,0 22.36444824,-11.51235010,0 22.35484658,-11.51816274,0 22.34455261,-11.52322145,0 22.33366548,-11.52747749,0 22.32229004,-11.53088982,0 22.31053584,-11.53342555,0 22.29851607,-11.53506024,0 22.28634650,-11.53577813,0 22.27414432,-11.53557230,0 22.26202705,-11.53444473,0 22.25011138,-11.53240629,0 22.23851207,-11.52947663,0 22.22734083,-11.52568400,0 21.81277412,-11.36581466,0 21.80213853,-11.36119815,0</coordinates></LinearRing></outerBoundaryIs></Polygon>
</Placemark>
<Placemark>
<name>Expansão prioritária</name><styleUrl>#poly</styleUrl>
<description><![CDATA[<b>id:</b> EXP_CLUSTER_5<br/><b>n_pontos:</b> 6<br/><b>criterio:</b> &gt;=2 pontos vermelhos externos agrupados em até 50 km<br/><b>tipo:</b> Expansão prioritária<br/>]]></description>
<Polygon><tessellate>1</tessellate><outerBoundaryIs><LinearRing><coordinates>19.99065349,-16.21608755,0 19.97858049,-16.21467844,0 19.96674117,-16.21234504,0 19.95524954,-16.20910983,0 19.94421626,-16.20500404,0 19.93374760,-16.20006724,0 19.92394438,-16.19434704,0 19.91490100,-16.18789859,0 19.90670456,-16.18078406,0 19.89943399,-16.17307203,0 19.89315932,-16.16483685,0 19.88794097,-16.15615787,0 19.88382920,-16.14711873,0 19.88086360,-16.13780652,0 19.87907274,-16.12831096,0 19.87847387,-16.11872352,0 19.87847387,-15.79294397,0 19.87907274,-15.78337216,0 19.88086360,-15.77389296,0 19.88382920,-15.76459765,0 19.88794097,-15.75557572,0 19.89315932,-15.74691401,0 19.89943399,-15.73869588,0 19.90670456,-15.73100043,0 19.91490100,-15.72390170,0 20.12218435,-15.56125765,0 20.13102655,-15.55495870,0 20.14059841,-15.54935427,0 20.15081163,-15.54449601,0 20.16157199,-15.54042867,0 20.17278024,-15.53718972,0 20.18433300,-15.53480902,0 20.19612369,-15.53330848,0 20.20804356,-15.53270192,0 20.21998264,-15.53299495,0 20.23183082,-15.53418485,0 20.24347879,-15.53626067,0 20.25481912,-15.53920328,0 20.26574719,-15.54298558,0 20.68031390,-15.70561548,0 20.69029080,-15.70999169,0 20.69971373,-15.71506841,0 20.70850312,-15.72080279,0 20.71658475,-15.72714648,0 20.72389037,-15.73404594,0 20.73035828,-15.74144297,0 20.73593386,-15.74927515,0 20.94321722,-16.07498552,0 20.94807556,-16.08365113,0 20.95184511,-16.09264602,0 20.95449054,-16.10188585,0 20.95598704,-16.11128401,0 20.95632056,-16.12075237,0 20.95548798,-16.13020214,0 20.95349711,-16.13954470,0 20.95036662,-16.14869241,0 20.94612587,-16.15755945,0 20.94081462,-16.16606262,0 20.93448270,-16.17412212,0 20.92718947,-16.18166233,0 20.91900333,-16.18861245,0 20.91000106,-16.19490726,0 20.90026708,-16.20048766,0 20.88989267,-16.20530124,0 20.87897513,-16.20930282,0 20.86761683,-16.21245481,0 20.85592431,-16.21472762,0 20.84400722,-16.21609990,0 20.83197730,-16.21655876,0 20.00284388,-16.21655876,0 19.99065349,-16.21608755,0</coordinates></LinearRing></outerBoundaryIs></Polygon>
</Placemark>
<Placemark>
<name>Expansão prioritária</name><styleUrl>#poly</styleUrl>
<description><![CDATA[<b>id:</b> EXP_CLUSTER_6<br/><b>n_pontos:</b> 2<br/><b>criterio:</b> &gt;=2 pontos vermelhos externos agrupados em até 50 km<br/><b>tipo:</b> Expansão prioritária<br/>]]></description>
<Polygon><tessellate>1</tessellate><outerBoundaryIs><LinearRing><coordinates>19.70443314,-17.72047546,0 19.70823055,-17.72967404,0 19.71087275,-17.73912398,0 19.71233428,-17.74873431,0 19.71260108,-17.75841249,0 19.71167057,-17.76806531,0 19.70955171,-17.77759981,0 19.70626491,-17.78692414,0 19.70184183,-17.79594845,0 19.69632506,-17.80458580,0 19.68976772,-17.81275293,0 19.68223298,-17.82037112,0 19.67379339,-17.82736695,0 19.66453023,-17.83367294,0 19.65453271,-17.83922831,0 19.64389712,-17.84397948,0 19.63272588,-17.84788063,0 19.62112657,-17.85089414,0 19.60921090,-17.85299093,0 19.59709363,-17.85415078,0 19.58489145,-17.85436250,0 19.57272188,-17.85362406,0 19.56070211,-17.85194258,0 19.54894791,-17.84933426,0 19.53757247,-17.84582428,0 19.52668534,-17.84144649,0 19.51639138,-17.83624310,0 19.50678971,-17.83026431,0 19.49797281,-17.82356775,0 19.49002560,-17.81621800,0 19.48302460,-17.80828591,0 19.47703724,-17.79984795,0 19.26975389,-17.47124404,0 19.26483783,-17.46239727,0 19.26104042,-17.45321195,0 19.25839822,-17.44377658,0 19.25693669,-17.43418206,0 19.25666989,-17.42452081,0 19.25760040,-17.41488587,0 19.25971926,-17.40537003,0 19.26300606,-17.39606489,0 19.26742914,-17.38706004,0 19.27294591,-17.37844214,0 19.27950325,-17.37029414,0 19.28703799,-17.36269443,0 19.29547758,-17.35571614,0 19.30474074,-17.34942639,0 19.31473826,-17.34388569,0 19.32537385,-17.33914733,0 19.33654509,-17.33525688,0 19.34814440,-17.33225176,0 19.36006007,-17.33016085,0 19.37217734,-17.32900428,0 19.38437952,-17.32879315,0 19.39654909,-17.32952950,0 19.40856886,-17.33120625,0 19.42032306,-17.33380728,0 19.43169850,-17.33730757,0 19.44258563,-17.34167347,0 19.45287959,-17.34686297,0 19.46248126,-17.35282619,0 19.47129816,-17.35950575,0 19.47924537,-17.36683740,0 19.48624637,-17.37475060,0 19.49223373,-17.38316922,0 19.69951708,-17.71161678,0 19.70443314,-17.72047546,0</coordinates></LinearRing></outerBoundaryIs></Polygon>
</Placemark>
<Placemark>
<name>Expansão prioritária</name><styleUrl>#poly</styleUrl>
<description><![CDATA[<b>id:</b> EXP_CLUSTER_7<br/><b>n_pontos:</b> 5<br/><b>criterio:</b> &gt;=2 pontos vermelhos externos agrupados em até 50 km<br/><b>tipo:</b> Expansão prioritária<br/>]]></description>
<Polygon><tessellate>1</tessellate><outerBoundaryIs><LinearRing><coordinates>13.47491533,-16.17097917,0 13.46776609,-16.17896672,0 13.45963994,-16.18635388,0 13.45061791,-16.19306694,0 13.44078993,-16.19903889,0 13.43025399,-16.20421015,0 13.41911511,-16.20852908,0 13.40748436,-16.21195257,0 13.39547769,-16.21444646,0 13.38321478,-16.21598583,0 13.37081791,-16.21655533,0 13.35841065,-16.21614927,0 13.34611670,-16.21477169,0 13.33405863,-16.21243636,0 13.32235664,-16.20916659,0 13.31112740,-16.20499501,0 13.30048287,-16.19996328,0 13.29052915,-16.19412162,0 13.28136548,-16.18752834,0 13.27308323,-16.18024923,0 13.26576495,-16.17235693,0 13.25948360,-16.16393020,0 13.25430182,-16.15505310,0 12.83973510,-15.34141537,0 12.83570652,-15.33221785,0 12.83286795,-15.32275196,0 12.83124765,-15.31311197,0 12.83086177,-15.30339390,0 12.83171413,-15.29369452,0 12.83379625,-15.28411042,0 12.83708741,-15.27473700,0 12.84155482,-15.26566758,0 12.84715400,-15.25699242,0 12.85382919,-15.24879785,0 12.86151393,-15.24116542,0 12.87013168,-15.23417107,0 12.87959664,-15.22788439,0 12.88981455,-15.22236790,0 12.90068366,-15.21767648,0 12.91209574,-15.21385680,0 12.92393715,-15.21094683,0 12.93608997,-15.20897554,0 12.94843318,-15.20796250,0 12.96084387,-15.20791781,0 12.97319846,-15.20884190,0 12.98537392,-15.21072559,0 13.81450735,-15.37310128,0 13.82633371,-15.37591426,0 13.83774541,-15.37963324,0 13.84862975,-15.38422155,0 13.85887926,-15.38963393,0 13.86839270,-15.39581699,0 13.87707615,-15.40270973,0 13.88484385,-15.41024415,0 13.89161908,-15.41834593,0 13.89733495,-15.42693509,0 13.90193501,-15.43592690,0 13.90537383,-15.44523258,0 13.90761746,-15.45476029,0 13.90864373,-15.46441596,0 13.90844252,-15.47410425,0 13.90701580,-15.48372948,0 13.90437768,-15.49319659,0 13.90055420,-15.50241206,0 13.89558311,-15.51128486,0 13.48101640,-16.16247093,0 13.47491533,-16.17097917,0</coordinates></LinearRing></outerBoundaryIs><innerBoundaryIs><LinearRing><coordinates>13.22714798,-15.28312448,0 13.22708849,-15.28273781,0 13.22713200,-15.28302064,0 13.22714798,-15.28312448,0</coordinates></LinearRing></innerBoundaryIs><innerBoundaryIs><LinearRing><coordinates>13.22473878,-15.27405278,0 13.22459006,-15.27360663,0 13.22467971,-15.27387560,0 13.22473878,-15.27405278,0</coordinates></LinearRing></innerBoundaryIs><innerBoundaryIs><LinearRing><coordinates>13.22488749,-15.27324971,0 13.22467971,-15.27349905,0 13.22459006,-15.27360663,0 13.22488749,-15.27324971,0</coordinates></LinearRing></innerBoundaryIs><innerBoundaryIs><LinearRing><coordinates>13.29056062,-15.28866267,0 13.29071930,-15.28733654,0 13.29072179,-15.28731569,0 13.29082527,-15.28645089,0 13.29089374,-15.28587870,0 13.29056062,-15.28866267,0</coordinates></LinearRing></innerBoundaryIs><innerBoundaryIs><LinearRing><coordinates>13.30417113,-15.34148671,0 13.30398078,-15.34224813,0 13.30408274,-15.34184030,0 13.30417113,-15.34148671,0</coordinates></LinearRing></innerBoundaryIs><innerBoundaryIs><LinearRing><coordinates>13.30474220,-15.35435959,0 13.30502774,-15.35469272,0 13.30496593,-15.35462061,0 13.30474220,-15.35435959,0</coordinates></LinearRing></innerBoundaryIs><innerBoundaryIs><LinearRing><coordinates>13.35780418,-15.37184863,0 13.35761383,-15.36989747,0 13.35769321,-15.37071118,0 13.35780418,-15.37184863,0</coordinates></LinearRing></innerBoundaryIs><innerBoundaryIs><LinearRing><coordinates>13.37967143,-15.35928507,0 13.38031388,-15.35987994,0 13.38028075,-15.35984926,0 13.37967143,-15.35928507,0</coordinates></LinearRing></innerBoundaryIs><innerBoundaryIs><LinearRing><coordinates>13.54989807,-15.52213539,0 13.54797071,-15.52772712,0 13.54903150,-15.52464955,0 13.54989807,-15.52213539,0</coordinates></LinearRing></innerBoundaryIs><innerBoundaryIs><LinearRing><coordinates>13.54711410,-15.53074903,0 13.54727241,-15.53019057,0 13.54738400,-15.52979689,0 13.54740637,-15.52971799,0 13.54797071,-15.52772712,0 13.54711410,-15.53074903,0</coordinates></LinearRing></innerBoundaryIs><innerBoundaryIs><LinearRing><coordinates>13.54302143,-15.54512098,0 13.54331661,-15.54409698,0 13.54353665,-15.54333367,0 13.54404047,-15.54158585,0 13.54494879,-15.53843469,0 13.54302143,-15.54512098,0</coordinates></LinearRing></innerBoundaryIs><innerBoundaryIs><LinearRing><coordinates>13.54001198,-15.55514768,0 13.54010078,-15.55484956,0 13.54114165,-15.55135517,0 13.53947603,-15.55694690,0 13.54001198,-15.55514768,0</coordinates></LinearRing></innerBoundaryIs><innerBoundaryIs><LinearRing><coordinates>13.53437030,-15.57457688,0 13.53522165,-15.57167939,0 13.53685862,-15.56610782,0 13.53414604,-15.57534013,0 13.53437030,-15.57457688,0</coordinates></LinearRing></innerBoundaryIs><innerBoundaryIs><LinearRing><coordinates>13.52831636,-15.59500638,0 13.52646038,-15.60064570,0 13.52688732,-15.59934849,0 13.52831636,-15.59500638,0</coordinates></LinearRing></innerBoundaryIs><innerBoundaryIs><LinearRing><coordinates>13.52502977,-15.60539716,0 13.52524109,-15.60461051,0 13.52548480,-15.60370331,0 13.52334923,-15.61165269,0 13.52502977,-15.60539716,0</coordinates></LinearRing></innerBoundaryIs><innerBoundaryIs><LinearRing><coordinates>13.52112508,-15.62023950,0 13.52117453,-15.62006024,0 13.52195130,-15.61724443,0 13.52099952,-15.62069464,0 13.52112508,-15.62023950,0</coordinates></LinearRing></innerBoundaryIs><innerBoundaryIs><LinearRing><coordinates>13.51948261,-15.62607817,0 13.52032314,-15.62309514,0 13.52099952,-15.62069464,0 13.51948261,-15.62607817,0</coordinates></LinearRing></innerBoundaryIs><innerBoundaryIs><LinearRing><coordinates>13.51192782,-15.65150866,0 13.51109501,-15.65365018,0 13.51149394,-15.65262437,0 13.51192782,-15.65150866,0</coordinates></LinearRing></innerBoundaryIs><innerBoundaryIs><LinearRing><coordinates>13.51115450,-15.66370340,0 13.51041092,-15.66673721,0 13.51071942,-15.66547855,0 13.51115450,-15.66370340,0</coordinates></LinearRing></innerBoundaryIs><innerBoundaryIs><LinearRing><coordinates>13.50969708,-15.66935462,0 13.50975910,-15.66912719,0 13.51041092,-15.66673721,0 13.50969708,-15.66935462,0</coordinates></LinearRing></innerBoundaryIs><innerBoundaryIs><LinearRing><coordinates>13.50898324,-15.67206126,0 13.50916721,-15.67136371,0 13.50969708,-15.66935462,0 13.50898324,-15.67206126,0</coordinates></LinearRing></innerBoundaryIs><innerBoundaryIs><LinearRing><coordinates>13.51701392,-15.73023908,0 13.51746007,-15.73223188,0 13.51705242,-15.73041104,0 13.51701392,-15.73023908,0</coordinates></LinearRing></innerBoundaryIs><innerBoundaryIs><LinearRing><coordinates>13.52414913,-15.75082660,0 13.52415042,-15.75081236,0 13.52418204,-15.75046450,0 13.52406307,-15.75177320,0 13.52414913,-15.75082660,0</coordinates></LinearRing></innerBoundaryIs><innerBoundaryIs><LinearRing><coordinates>13.52465794,-15.78104057,0 13.52444974,-15.78684051,0 13.52448388,-15.78588949,0 13.52465794,-15.78104057,0</coordinates></LinearRing></innerBoundaryIs><innerBoundaryIs><LinearRing><coordinates>13.52145161,-15.95192751,0 13.51538399,-15.96431261,0 13.52136070,-15.95211310,0 13.52145161,-15.95192751,0</coordinates></LinearRing></innerBoundaryIs><innerBoundaryIs><LinearRing><coordinates>13.50788869,-15.97937460,0 13.50374842,-15.98801204,0 13.50421338,-15.98704209,0 13.50788869,-15.97937460,0</coordinates></LinearRing></innerBoundaryIs><innerBoundaryIs><LinearRing><coordinates>13.49169938,-16.01340347,0 13.49201834,-16.01273612,0 13.49411161,-16.00835643,0 13.48907905,-16.01888555,0 13.49169938,-16.01340347,0</coordinates></LinearRing></innerBoundaryIs><innerBoundaryIs><LinearRing><coordinates>13.48643785,-16.02473902,0 13.48386803,-16.03009281,0 13.48423915,-16.02931965,0 13.48643785,-16.02473902,0</coordinates></LinearRing></innerBoundaryIs><innerBoundaryIs><LinearRing><coordinates>13.48012038,-16.03823056,0 13.48077086,-16.03681814,0 13.48386803,-16.03009281,0 13.48012038,-16.03823056,0</coordinates></LinearRing></innerBoundaryIs><innerBoundaryIs><LinearRing><coordinates>13.50342125,-16.11725841,0 13.50389714,-16.11803174,0 13.50380119,-16.11787581,0 13.50342125,-16.11725841,0</coordinates></LinearRing></innerBoundaryIs></Polygon>
</Placemark>
<Placemark>
<name>Expansão prioritária</name><styleUrl>#poly</styleUrl>
<description><![CDATA[<b>id:</b> EXP_CLUSTER_8<br/><b>n_pontos:</b> 3<br/><b>criterio:</b> &gt;=2 pontos vermelhos externos agrupados em até 50 km<br/><b>tipo:</b> Expansão prioritária<br/>]]></description>
<Polygon><tessellate>1</tessellate><outerBoundaryIs><LinearRing><coordinates>15.56639257,-17.27270714,0 15.56463566,-17.28216909,0 15.56172593,-17.29145186,0 15.55769087,-17.30046773,0 15.55256860,-17.30913147,0 15.54640750,-17.31736119,0 15.53926580,-17.32507907,0 15.53121095,-17.33221213,0 15.52231905,-17.33869291,0 15.51267411,-17.34446012,0 15.50236725,-17.34945920,0 15.49149584,-17.35364287,0 15.48016258,-17.35697153,0 15.46847456,-17.35941370,0 15.45654218,-17.36094628,0 15.44447818,-17.36155475,0 15.43239653,-17.36123337,0 15.42041137,-17.35998517,0 15.40863593,-17.35782196,0 15.39718146,-17.35476422,0 15.38615617,-17.35084087,0 15.37566422,-17.34608903,0 15.36580473,-17.34055365,0 15.35667085,-17.33428710,0 15.34834887,-17.32734864,0 15.34091741,-17.31980391,0 15.33444668,-17.31172423,0 15.32899782,-17.30318602,0 15.32462229,-17.29426999,0 15.11733893,-16.80289924,0 15.11402438,-16.79352691,0 15.11190215,-16.78394209,0 15.11099309,-16.77423904,0 15.11130613,-16.76451313,0 15.11283819,-16.75485996,0 15.11557423,-16.74537439,0 15.11948734,-16.73614962,0 15.12453906,-16.72727629,0 15.13067974,-16.71884156,0 15.13784902,-16.71092828,0 15.14597643,-16.70361415,0 15.15498208,-16.69697100,0 15.16477747,-16.69106406,0 15.17526629,-16.68595131,0 15.18634546,-16.68168295,0 15.19790609,-16.67830088,0 15.20983452,-16.67583829,0 15.22201353,-16.67431935,0 15.23432339,-16.67375897,0 15.24664312,-16.67416265,0 15.25885161,-16.67552643,0 15.27082887,-16.67783692,0 15.28245717,-16.68107145,0 15.29362222,-16.68519826,0 15.30421426,-16.69017686,0 15.31412919,-16.69595836,0 15.32326956,-16.70248601,0 15.53055292,-16.86605180,0 15.53874936,-16.87319100,0 15.54601993,-16.88093035,0 15.55229460,-16.88919538,0 15.55751295,-16.89790656,0 15.56162472,-16.90698005,0 15.56459032,-16.91632851,0 15.56638118,-16.92586194,0 15.56698005,-16.93548856,0 15.56698005,-17.26315544,0 15.56639257,-17.27270714,0</coordinates></LinearRing></outerBoundaryIs></Polygon>
</Placemark>
<Placemark>
<name>Expansão prioritária</name><styleUrl>#poly</styleUrl>
<description><![CDATA[<b>id:</b> EXP_CLUSTER_9<br/><b>n_pontos:</b> 4<br/><b>criterio:</b> &gt;=2 pontos vermelhos externos agrupados em até 50 km<br/><b>tipo:</b> Expansão prioritária<br/>]]></description>
<Polygon><tessellate>1</tessellate><outerBoundaryIs><LinearRing><coordinates>13.86725654,-17.09925171,0 13.86787287,-17.08947780,0 13.86971576,-17.07980126,0 13.87276694,-17.07031797,0 13.87699618,-17.06112188,0 13.88236154,-17.05230410,0 13.88880987,-17.04395195,0 13.89627723,-17.03614816,0 13.90468964,-17.02897000,0 13.91396370,-17.02248853,0 13.92400749,-17.01676792,0 13.93472148,-17.01186481,0 13.94599947,-17.00782772,0 13.95772968,-17.00469662,0 13.96979586,-17.00250248,0 13.98207840,-17.00126702,0 13.99445558,-17.00100248,0 14.00680472,-17.00171146,0 14.01900342,-17.00338695,0 14.03093079,-17.00601238,0 14.65964699,-17.17152843,0 14.67081410,-17.17495016,0 14.68151320,-17.17920538,0 14.69164507,-17.18425471,0 14.70111576,-17.19005136,0 14.70983746,-17.19654167,0 14.71772928,-17.20366551,0 14.72471805,-17.21135690,0 14.73073896,-17.21954457,0 14.73573619,-17.22815266,0 14.73966338,-17.23710141,0 14.74248413,-17.24630787,0 14.74417228,-17.25568670,0 14.74471218,-17.26515097,0 14.74409881,-17.27461290,0 14.74233787,-17.28398477,0 14.73944569,-17.29317963,0 14.73544907,-17.30211220,0 14.73038510,-17.31069961,0 14.72430071,-17.31886217,0 14.71725234,-17.32652413,0 14.70930534,-17.33361438,0 14.70053339,-17.34006711,0 14.69101786,-17.34582240,0 14.68084696,-17.35082683,0 14.67011501,-17.35503393,0 14.65892153,-17.35840464,0 14.53024993,-17.39163646,0 14.44884226,-17.39188680,0 14.37462232,-17.39175992,0 14.29356489,-17.39162728,0 14.21814200,-17.39164267,0 14.21820920,-17.39341274,0 14.21822750,-17.39496737,0 14.21829308,-17.39712009,0 14.21731550,-17.39857515,0 14.21529455,-17.39938036,0 14.21327246,-17.40044863,0 14.21279420,-17.40161864,0 14.21313800,-17.40276797,0 14.21422679,-17.40444640,0 14.21501103,-17.40658316,0 14.21468594,-17.40774865,0 14.21298787,-17.40874644,0 14.21056795,-17.40962177,0 14.20685502,-17.40996578,0 14.20351146,-17.41129176,0 14.19979349,-17.41278359,0 14.19697606,-17.41339409,0 14.19279376,-17.41282713,0 14.18955655,-17.41259875,0 14.18472942,-17.41140719,0 14.17694550,-17.41414947,0 14.16699532,-17.41664324,0 14.15949347,-17.41752056,0 14.15636838,-17.41999462,0 14.15468986,-17.42206819,0 14.15327380,-17.42795238,0 14.15069512,-17.42941729,0 14.14805201,-17.42995607,0 14.14402067,-17.42902999,0 14.14220039,-17.42940481,0 14.13800471,-17.43165870,0 14.13608553,-17.43186563,0 14.13347201,-17.43139988,0 14.13082985,-17.43172319,0 14.12689139,-17.43223212,0 14.12268496,-17.43147225,0 14.12000030,-17.43026462,0 14.11877032,-17.42863483,0 14.11711286,-17.42460774,0 14.11614632,-17.42357509,0 14.11505052,-17.42352239,0 14.11285383,-17.42446925,0 14.11042875,-17.42627603,0 14.10840220,-17.42808456,0 14.10744817,-17.42961089,0 14.10525774,-17.43436027,0 14.10307609,-17.43729208,0 14.10110350,-17.43821589,0 14.09781844,-17.43753140,0 14.09356504,-17.43619673,0 14.09025596,-17.43534460,0 14.08612414,-17.43463214,0 14.08301514,-17.43363731,0 14.08092429,-17.43329286,0 14.07883093,-17.43345060,0 14.07646210,-17.43389402,0 14.07461917,-17.43378981,0 14.07098724,-17.43276845,0 14.06770667,-17.43124646,0 14.06489688,-17.43022884,0 14.06144057,-17.42899290,0 14.06007197,-17.42869947,0 14.05583539,-17.42903816,0 14.05244649,-17.42923731,0 14.05137199,-17.42815090,0 14.05065500,-17.42401525,0 14.04889596,-17.42216538,0 14.04661039,-17.42098261,0 14.04357584,-17.42013104,0 14.04168326,-17.42002628,0 14.04053283,-17.42090561,0 14.03967768,-17.42247990,0 14.03822806,-17.42340561,0 14.03574064,-17.42272396,0 14.03258750,-17.42074763,0 14.03062777,-17.41920754,0 14.02784217,-17.41840477,0 14.02403459,-17.41774045,0 14.02003339,-17.41602285,0 14.01757527,-17.41455192,0 14.01413682,-17.41475019,0 14.01128625,-17.41679277,0 14.00815813,-17.41947964,0 14.00523606,-17.42089998,0 14.00388360,-17.42225639,0 14.00287647,-17.42423630,0 14.00229238,-17.42629007,0 14.00055997,-17.42879246,0 13.99855714,-17.43062386,0 13.99690616,-17.43188305,0 13.99518212,-17.43283096,0 13.99199137,-17.43322139,0 13.98929790,-17.43378170,0 13.98722994,-17.43384294,0 13.98543917,-17.43333162,0 13.98367782,-17.43200732,0 13.98159745,-17.42982044,0 13.97966220,-17.42842347,0 13.97709917,-17.42793203,0 13.97378167,-17.42872808,0 13.96993527,-17.43054967,0 13.96564042,-17.43236886,0 13.96376798,-17.43310048,0 13.95960678,-17.43329402,0 13.95572041,-17.43334543,0 13.95336172,-17.43196991,0 13.95125354,-17.43035654,0 13.94730813,-17.42768120,0 13.94232287,-17.42392411,0 13.93600510,-17.41803139,0 13.93259954,-17.41684137,0 13.92998925,-17.41596645,0 13.92910485,-17.41385721,0 13.92862395,-17.41175014,0 13.92806210,-17.41071401,0 13.92585926,-17.40918119,0 13.92598904,-17.40743134,0 13.92761050,-17.40614868,0 13.92994468,-17.40400192,0 13.92978711,-17.40191313,0 13.92819262,-17.39857565,0 13.92688952,-17.39653112,0 13.92590597,-17.39606667,0 13.92396474,-17.39582663,0 13.92304450,-17.39475986,0 13.92296811,-17.39249234,0 13.92219732,-17.39142637,0 13.92080400,-17.38949611,0 13.92023990,-17.38886171,0 13.91898930,-17.38808011,0 13.91779696,-17.38755709,0 13.91612970,-17.38648624,0 13.91398905,-17.38460927,0 13.91489942,-17.38226102,0 13.91644374,-17.37882571,0 13.91495636,-17.37766973,0 13.91254434,-17.37622174,0 13.90968599,-17.37445561,0 13.90864369,-17.37384727,0 13.90763128,-17.37323909,0 13.90628915,-17.37280129,0 13.90423141,-17.37210127,0 13.90193651,-17.37108426,0 13.90051494,-17.36918878,0 13.89960443,-17.36356235,0 13.89921170,-17.36200088,0 13.89778209,-17.36121817,0 13.89467666,-17.36085666,0 13.89142323,-17.36026470,0 13.88978590,-17.35925120,0 13.88633809,-17.35621880,0 13.88404784,-17.35448419,0 13.88166660,-17.35297863,0 13.87943375,-17.35164606,0 13.87554124,-17.34809444,0 13.87182797,-17.34457247,0 13.86947983,-17.34257910,0 13.86766088,-17.34199487,0 13.86725654,-17.34207473,0 13.86725654,-17.09925171,0</coordinates></LinearRing></outerBoundaryIs></Polygon>
</Placemark>
<Placemark>
<name>Expansão prioritária</name><styleUrl>#poly</styleUrl>
<description><![CDATA[<b>id:</b> EXP_CLUSTER_10<br/><b>n_pontos:</b> 2<br/><b>criterio:</b> &gt;=2 pontos vermelhos externos agrupados em até 50 km<br/><b>tipo:</b> Expansão prioritária<br/>]]></description>
<Polygon><tessellate>1</tessellate><outerBoundaryIs><LinearRing><coordinates>14.07052605,-16.68418667,0 14.06072283,-16.68992096,0 14.05025417,-16.69486993,0 14.03922089,-16.69898585,0 14.02772926,-16.70222903,0 14.01588994,-16.70456819,0 14.00381694,-16.70598078,0 13.99162655,-16.70645315,0 13.97943616,-16.70598078,0 13.96736317,-16.70456819,0 13.95552384,-16.70222903,0 13.94403221,-16.69898585,0 13.93299893,-16.69486993,0 13.92253027,-16.68992097,0 13.91272705,-16.68418667,0 13.90368367,-16.67772234,0 13.89548723,-16.67059030,0 13.88821666,-16.66285930,0 13.88194199,-16.65460386,0 13.87672364,-16.64590355,0 13.87261187,-16.63684221,0 13.86964627,-16.62750714,0 13.86785541,-16.61798829,0 13.86725654,-16.60837735,0 13.86785541,-16.59876687,0 13.86964627,-16.58924941,0 13.87261187,-16.57991660,0 13.87672364,-16.57085830,0 13.88194199,-16.56216168,0 13.88821666,-16.55391047,0 13.89548723,-16.54618404,0 13.90368367,-16.53905676,0 14.11096702,-16.37576243,0 14.12001040,-16.36930816,0 14.12981362,-16.36358315,0 14.14028228,-16.35864245,0 14.15131556,-16.35453360,0 14.16280719,-16.35129611,0 14.17464651,-16.34896112,0 14.18671951,-16.34755109,0 14.19890990,-16.34707956,0 14.21110029,-16.34755109,0 14.22317328,-16.34896112,0 14.23501261,-16.35129611,0 14.24650424,-16.35453360,0 14.25753752,-16.35864245,0 14.26800618,-16.36358315,0 14.27780940,-16.36930816,0 14.28685278,-16.37576243,0 14.29504922,-16.38288386,0 14.30231979,-16.39060393,0 14.30859446,-16.39884837,0 14.31381281,-16.40753783,0 14.31792458,-16.41658868,0 14.32089018,-16.42591380,0 14.32268104,-16.43542342,0 14.32327991,-16.44502598,0 14.32268104,-16.45462899,0 14.32089018,-16.46413998,0 14.31792458,-16.47346733,0 14.31381281,-16.48252119,0 14.30859446,-16.49121430,0 14.30231979,-16.49946291,0 14.29504922,-16.50718750,0 14.28685278,-16.51431364,0 14.07956943,-16.67772234,0 14.07052605,-16.68418667,0</coordinates></LinearRing></outerBoundaryIs></Polygon>
</Placemark>
<Placemark>
<name>Expansão prioritária</name><styleUrl>#poly</styleUrl>
<description><![CDATA[<b>id:</b> EXP_CLUSTER_11<br/><b>n_pontos:</b> 4<br/><b>criterio:</b> &gt;=2 pontos vermelhos externos agrupados em até 50 km<br/><b>tipo:</b> Expansão prioritária<br/>]]></description>
<Polygon><tessellate>1</tessellate><outerBoundaryIs><LinearRing><coordinates>12.45713084,-17.10888702,0 12.45533998,-17.11843003,0 12.45237438,-17.12778879,0 12.44826261,-17.13687316,0 12.44304426,-17.14559559,0 12.43676959,-17.15387202,0 12.42949902,-17.16162270,0 12.42130258,-17.16877290,0 12.41225920,-17.17525370,0 12.40245598,-17.18100261,0 12.39198732,-17.18596420,0 12.38095404,-17.19009062,0 12.36946241,-17.19334207,0 12.35762309,-17.19568720,0 12.34555009,-17.19710338,0 12.33335970,-17.19757697,0 12.32116931,-17.19710338,0 12.30909631,-17.19568720,0 12.29725699,-17.19334207,0 12.28576536,-17.19009062,0 12.27473208,-17.18596420,0 12.26426342,-17.18100261,0 12.25446020,-17.17525370,0 12.24541682,-17.16877290,0 12.03813346,-17.00495031,0 12.02974203,-16.99761807,0 12.02232568,-16.98965716,0 12.01595948,-16.98114824,0 12.01070786,-16.97217751,0 12.00662399,-16.96283581,0 12.00374920,-16.95321776,0 12.00211258,-16.94342074,0 12.00173071,-16.93354393,0 12.00260744,-16.92368730,0 12.00473391,-16.91395062,0 12.00808859,-16.90443241,0 12.21537195,-16.41404740,0 12.21974748,-16.40517217,0 12.22519634,-16.39667378,0 12.23166707,-16.38863249,0 12.23909853,-16.38112419,0 12.24742051,-16.37421977,0 12.25655439,-16.36798437,0 12.26641388,-16.36247685,0 12.27690583,-16.35774917,0 12.28793112,-16.35384594,0 12.29938559,-16.35080399,0 12.31116103,-16.34865201,0 12.32314619,-16.34741032,0 12.33522784,-16.34709061,0 12.34729184,-16.34769591,0 12.35922422,-16.34922051,0 12.37091224,-16.35165002,0 12.38224550,-16.35496153,0 12.39311691,-16.35912378,0 12.40342377,-16.36409752,0 12.41306871,-16.36983581,0 12.42196061,-16.37628451,0 12.43001546,-16.38338274,0 12.43715716,-16.39106353,0 12.44331826,-16.39925437,0 12.44844053,-16.40787794,0 12.45247559,-16.41685281,0 12.45538532,-16.42609424,0 12.45714223,-16.43551496,0 12.45772971,-16.44502598,0 12.45772971,-17.09925171,0 12.45713084,-17.10888702,0</coordinates></LinearRing></outerBoundaryIs></Polygon>
</Placemark>
<Placemark>
<name>Expansão prioritária de borda</name><styleUrl>#poly</styleUrl>
<description><![CDATA[<b>id:</b> EXP_BORDA_316<br/><b>n_pontos:</b> 1<br/><b>criterio:</b> Ponto vermelho externo isolado a até 20 km da borda<br/><b>tipo:</b> Expansão prioritária de borda<br/>]]></description>
<Polygon><tessellate>1</tessellate><outerBoundaryIs><LinearRing><coordinates>16.78945280,-7.31695416,0 16.78796041,-7.32462424,0 16.78548908,-7.33214599,0 16.78206261,-7.33944696,0 16.77771398,-7.34645684,0 16.77248509,-7.35310809,0 16.76642628,-7.35933665,0 16.75959591,-7.36508251,0 16.75205976,-7.37029032,0 16.74389041,-7.37490990,0 16.73516653,-7.37889674,0 16.72597213,-7.38221244,0 16.71639577,-7.38482505,0 16.70652967,-7.38670938,0 16.69646884,-7.38784730,0 16.68631018,-7.38822783,0 16.67615152,-7.38784730,0 16.66609069,-7.38670938,0 16.65622459,-7.38482505,0 16.64916096,-7.38289796,0 16.64936044,-7.38262247,0 16.64911153,-7.38288447,0 16.64664823,-7.38221244,0 16.63745383,-7.37889674,0 16.62872995,-7.37490990,0 16.62056060,-7.37029032,0 16.61302445,-7.36508251,0 16.60619408,-7.35933665,0 16.60255064,-7.35559112,0 16.60261771,-7.35562782,0 16.60366754,-7.35568148,0 16.60460148,-7.35567814,0 16.60445804,-7.35566306,0 16.60435824,-7.35565257,0 16.60359172,-7.35563513,0 16.60324274,-7.35562719,0 16.60254921,-7.35558966,0 16.60013527,-7.35310809,0 16.59490638,-7.34645684,0 16.59055775,-7.33944696,0 16.58713128,-7.33214599,0 16.58465995,-7.32462424,0 16.58316756,-7.31695416,0 16.58266850,-7.30920962,0 16.58316756,-7.30146522,0 16.58465995,-7.29379553,0 16.58713128,-7.28627440,0 16.59055775,-7.27897427,0 16.59490638,-7.27196543,0 16.60013527,-7.26531535,0 16.60619408,-7.25908807,0 16.61302445,-7.25334354,0 16.62056060,-7.24813706,0 16.62872995,-7.24351875,0 16.63745383,-7.23953308,0 16.64664823,-7.23621842,0 16.65622459,-7.23360666,0 16.66609069,-7.23172295,0 16.67615152,-7.23058542,0 16.68631018,-7.23020503,0 16.69646884,-7.23058542,0 16.70652967,-7.23172295,0 16.71639577,-7.23360666,0 16.72597213,-7.23621842,0 16.73516653,-7.23953308,0 16.74389041,-7.24351875,0 16.75205976,-7.24813706,0 16.75959591,-7.25334354,0 16.76642628,-7.25908807,0 16.77248509,-7.26531535,0 16.77771398,-7.27196543,0 16.78206261,-7.27897427,0 16.78548908,-7.28627440,0 16.78796041,-7.29379553,0 16.78945280,-7.30146522,0 16.78995186,-7.30920962,0 16.78945280,-7.31695416,0</coordinates></LinearRing></outerBoundaryIs><innerBoundaryIs><LinearRing><coordinates>16.60698543,-7.35623558,0 16.60739387,-7.35631409,0 16.60826073,-7.35629767,0 16.60790764,-7.35624947,0 16.60780600,-7.35623559,0 16.60698543,-7.35623558,0</coordinates></LinearRing></innerBoundaryIs><innerBoundaryIs><LinearRing><coordinates>16.61003686,-7.35948060,0 16.61000319,-7.35937966,0 16.61003686,-7.35961154,0 16.61003686,-7.35948060,0</coordinates></LinearRing></innerBoundaryIs><innerBoundaryIs><LinearRing><coordinates>16.61543652,-7.35747789,0 16.61480276,-7.35851726,0 16.61437814,-7.35895604,0 16.61404225,-7.35930313,0 16.61315500,-7.35996225,0 16.61259724,-7.36031712,0 16.61246148,-7.36038901,0 16.61216624,-7.36054537,0 16.61140573,-7.36077349,0 16.61096919,-7.36077348,0 16.61159431,-7.36082075,0 16.61241279,-7.36051636,0 16.61434906,-7.35917439,0 16.61563374,-7.35735651,0 16.61543652,-7.35747789,0</coordinates></LinearRing></innerBoundaryIs><innerBoundaryIs><LinearRing><coordinates>16.61766740,-7.35864403,0 16.61743605,-7.35841265,0 16.61775349,-7.35882191,0 16.61766740,-7.35864403,0</coordinates></LinearRing></innerBoundaryIs><innerBoundaryIs><LinearRing><coordinates>16.61804777,-7.35942990,0 16.61800802,-7.35934779,0 16.61806942,-7.35976603,0 16.61804777,-7.35942990,0</coordinates></LinearRing></innerBoundaryIs><innerBoundaryIs><LinearRing><coordinates>16.61809839,-7.36021578,0 16.61808312,-7.35997883,0 16.61802913,-7.36052740,0 16.61809839,-7.36021578,0</coordinates></LinearRing></innerBoundaryIs><innerBoundaryIs><LinearRing><coordinates>16.61954336,-7.36432266,0 16.61920493,-7.36433521,0 16.61957296,-7.36436629,0 16.61974704,-7.36445022,0 16.61972086,-7.36442404,0 16.61960411,-7.36435736,0 16.61954336,-7.36432266,0</coordinates></LinearRing></innerBoundaryIs><innerBoundaryIs><LinearRing><coordinates>16.62133105,-7.36704565,0 16.62116346,-7.36718932,0 16.62121672,-7.36718636,0 16.62133105,-7.36704565,0</coordinates></LinearRing></innerBoundaryIs><innerBoundaryIs><LinearRing><coordinates>16.62217986,-7.36586906,0 16.62182145,-7.36642043,0 16.62186294,-7.36636617,0 16.62223576,-7.36584423,0 16.62238823,-7.36532587,0 16.62219926,-7.36581848,0 16.62217986,-7.36586906,0</coordinates></LinearRing></innerBoundaryIs><innerBoundaryIs><LinearRing><coordinates>16.62285713,-7.36437783,0 16.62310882,-7.36385649,0 16.62288975,-7.36401844,0 16.62256535,-7.36486413,0 16.62285713,-7.36437783,0</coordinates></LinearRing></innerBoundaryIs><innerBoundaryIs><LinearRing><coordinates>16.63307230,-7.36435303,0 16.63302396,-7.36411136,0 16.63299204,-7.36417062,0 16.63303016,-7.36447488,0 16.63338503,-7.36522263,0 16.63344840,-7.36571700,0 16.63344840,-7.36608463,0 16.63337867,-7.36624023,0 16.63349481,-7.36599342,0 16.63354452,-7.36562061,0 16.63349482,-7.36517323,0 16.63324628,-7.36472585,0 16.63307230,-7.36435303,0</coordinates></LinearRing></innerBoundaryIs><innerBoundaryIs><LinearRing><coordinates>16.63791889,-7.36753441,0 16.63786919,-7.36693791,0 16.63779463,-7.36636626,0 16.63762065,-7.36579461,0 16.63759580,-7.36532238,0 16.63765106,-7.36525330,0 16.63752992,-7.36529878,0 16.63737779,-7.36567903,0 16.63752991,-7.36608466,0 16.63768203,-7.36714940,0 16.63780877,-7.36859441,0 16.63758052,-7.36910141,0 16.63753897,-7.36915127,0 16.63754607,-7.36914994,0 16.63774490,-7.36890140,0 16.63786918,-7.36857830,0 16.63791889,-7.36803150,0 16.63791889,-7.36753441,0</coordinates></LinearRing></innerBoundaryIs><innerBoundaryIs><LinearRing><coordinates>16.64518589,-7.37353783,0 16.64523019,-7.37341597,0 16.64505208,-7.37362377,0 16.64480353,-7.37394687,0 16.64473979,-7.37410622,0 16.64490701,-7.37391808,0 16.64518589,-7.37353783,0</coordinates></LinearRing></innerBoundaryIs><innerBoundaryIs><LinearRing><coordinates>16.64989864,-7.38185058,0 16.64989428,-7.38185774,0 16.65000248,-7.38170086,0 16.65000248,-7.38166886,0 16.64989864,-7.38185058,0</coordinates></LinearRing></innerBoundaryIs></Polygon>
</Placemark>
<Placemark>
<name>Expansão prioritária de borda</name><styleUrl>#poly</styleUrl>
<description><![CDATA[<b>id:</b> EXP_BORDA_323<br/><b>n_pontos:</b> 1<br/><b>criterio:</b> Ponto vermelho externo isolado a até 20 km da borda<br/><b>tipo:</b> Expansão prioritária de borda<br/>]]></description>
<Polygon><tessellate>1</tessellate><outerBoundaryIs><LinearRing><coordinates>23.41181798,-12.72814747,0 23.41032560,-12.73594343,0 23.40785427,-12.74358872,0 23.40442779,-12.75100970,0 23.40007917,-12.75813489,0 23.39485027,-12.76489564,0 23.38879147,-12.77122680,0 23.38196110,-12.77706737,0 23.37442495,-12.78236107,0 23.36625560,-12.78705688,0 23.35753172,-12.79110954,0 23.34833732,-12.79448000,0 23.33876096,-12.79713577,0 23.32889486,-12.79905125,0 23.31883403,-12.80020797,0 23.30867537,-12.80059478,0 23.29851671,-12.80020797,0 23.28845588,-12.79905125,0 23.27858978,-12.79713577,0 23.26901341,-12.79448000,0 23.25981902,-12.79110954,0 23.25109514,-12.78705688,0 23.24292578,-12.78236107,0 23.23538963,-12.77706737,0 23.22855927,-12.77122680,0 23.22250046,-12.76489564,0 23.21727157,-12.75813489,0 23.21292294,-12.75100970,0 23.20949647,-12.74358872,0 23.20702514,-12.73594343,0 23.20553275,-12.72814747,0 23.20503369,-12.72027595,0 23.20553275,-12.71240466,0 23.20702514,-12.70460941,0 23.20949647,-12.69696527,0 23.21292294,-12.68954582,0 23.21727157,-12.68242251,0 23.22250046,-12.67566391,0 23.22855927,-12.66933507,0 23.23538963,-12.66349691,0 23.24292578,-12.65820563,0 23.25109514,-12.65351214,0 23.25981902,-12.64946161,0 23.26901341,-12.64609303,0 23.27858978,-12.64343880,0 23.28845588,-12.64152447,0 23.29851671,-12.64036845,0 23.30867537,-12.63998187,0 23.31883403,-12.64036845,0 23.32889486,-12.64152447,0 23.33876096,-12.64343880,0 23.34833732,-12.64609303,0 23.35753172,-12.64946161,0 23.36625560,-12.65351214,0 23.37442495,-12.65820563,0 23.38196110,-12.66349691,0 23.38879147,-12.66933507,0 23.39485027,-12.67566391,0 23.40007917,-12.68242251,0 23.40442779,-12.68954582,0 23.40785427,-12.69696527,0 23.41032560,-12.70460941,0 23.41181798,-12.71240466,0 23.41231705,-12.72027595,0 23.41181798,-12.72814747,0</coordinates></LinearRing></outerBoundaryIs></Polygon>
</Placemark>
<Placemark>
<name>Expansão prioritária de borda</name><styleUrl>#poly</styleUrl>
<description><![CDATA[<b>id:</b> EXP_BORDA_325<br/><b>n_pontos:</b> 1<br/><b>criterio:</b> Ponto vermelho externo isolado a até 20 km da borda<br/><b>tipo:</b> Expansão prioritária de borda<br/>]]></description>
<Polygon><tessellate>1</tessellate><outerBoundaryIs><LinearRing><coordinates>21.76425335,-15.96375231,0 21.76276096,-15.97165887,0 21.76028963,-15.97941270,0 21.75686316,-15.98693910,0 21.75251453,-15.99416556,0 21.74728564,-16.00102244,0 21.74122683,-16.00744368,0 21.73439646,-16.01336740,0 21.72686031,-16.01873648,0 21.71869096,-16.02349919,0 21.70996708,-16.02760961,0 21.70077268,-16.03102812,0 21.69119632,-16.03372175,0 21.68133022,-16.03566455,0 21.67126939,-16.03683777,0 21.66111073,-16.03723010,0 21.65095207,-16.03683777,0 21.64089124,-16.03566455,0 21.63102514,-16.03372175,0 21.62144878,-16.03102812,0 21.61225438,-16.02760961,0 21.60353050,-16.02349919,0 21.59536115,-16.01873648,0 21.58782500,-16.01336740,0 21.58099463,-16.00744368,0 21.57493582,-16.00102244,0 21.56970693,-15.99416556,0 21.56535830,-15.98693910,0 21.56193183,-15.97941270,0 21.55946050,-15.97165887,0 21.55796811,-15.96375231,0 21.55746905,-15.95576918,0 21.55796811,-15.94778635,0 21.55946050,-15.93988071,0 21.56193183,-15.93212837,0 21.56535830,-15.92460398,0 21.56970693,-15.91737997,0 21.57493582,-15.91052587,0 21.58099463,-15.90410766,0 21.58782500,-15.89818710,0 21.59536115,-15.89282116,0 21.60353050,-15.88806148,0 21.61225438,-15.88395385,0 21.62144878,-15.88053779,0 21.63102514,-15.87784616,0 21.64089124,-15.87590486,0 21.65095207,-15.87473256,0 21.66111073,-15.87434053,0 21.67126939,-15.87473256,0 21.68133022,-15.87590486,0 21.69119632,-15.87784616,0 21.70077268,-15.88053779,0 21.70996708,-15.88395385,0 21.71869096,-15.88806148,0 21.72686031,-15.89282116,0 21.73439646,-15.89818710,0 21.74122683,-15.90410766,0 21.74728564,-15.91052587,0 21.75251453,-15.91737997,0 21.75686316,-15.92460398,0 21.76028963,-15.93212837,0 21.76276096,-15.93988071,0 21.76425335,-15.94778635,0 21.76475241,-15.95576918,0 21.76425335,-15.96375231,0</coordinates></LinearRing></outerBoundaryIs></Polygon>
</Placemark>
<Placemark>
<name>Expansão prioritária de borda</name><styleUrl>#poly</styleUrl>
<description><![CDATA[<b>id:</b> EXP_BORDA_326<br/><b>n_pontos:</b> 1<br/><b>criterio:</b> Ponto vermelho externo isolado a até 20 km da borda<br/><b>tipo:</b> Expansão prioritária de borda<br/>]]></description>
<Polygon><tessellate>1</tessellate><outerBoundaryIs><LinearRing><coordinates>21.55696999,-16.45302846,0 21.55547760,-16.46095419,0 21.55300627,-16.46872683,0 21.54957980,-16.47627149,0 21.54523117,-16.48351550,0 21.54000228,-16.49038905,0 21.53394347,-16.49682590,0 21.52711310,-16.50276401,0 21.51957695,-16.50814616,0 21.51140760,-16.51292046,0 21.50268372,-16.51704089,0 21.49348932,-16.52046772,0 21.48391296,-16.52316792,0 21.47404686,-16.52511545,0 21.46398603,-16.52629152,0 21.45382737,-16.52668481,0 21.44366871,-16.52629152,0 21.43360788,-16.52511545,0 21.42374178,-16.52316792,0 21.41416542,-16.52046772,0 21.40497102,-16.51704089,0 21.39624714,-16.51292046,0 21.38807779,-16.50814616,0 21.38054164,-16.50276401,0 21.37371127,-16.49682590,0 21.36765246,-16.49038905,0 21.36242357,-16.48351550,0 21.35807494,-16.47627149,0 21.35464847,-16.46872683,0 21.35217714,-16.46095419,0 21.35068475,-16.45302846,0 21.35018569,-16.44502598,0 21.35068475,-16.43702382,0 21.35217714,-16.42909904,0 21.35464847,-16.42132795,0 21.35807494,-16.41378536,0 21.36242357,-16.40654389,0 21.36765246,-16.39967324,0 21.37371127,-16.39323953,0 21.38054164,-16.38730468,0 21.38807779,-16.38192580,0 21.39624714,-16.37715464,0 21.40497102,-16.37303711,0 21.41416542,-16.36961282,0 21.42374178,-16.36691470,0 21.43360788,-16.36496872,0 21.44366871,-16.36379360,0 21.45382737,-16.36340063,0 21.46398603,-16.36379360,0 21.47404686,-16.36496872,0 21.48391296,-16.36691470,0 21.49348932,-16.36961282,0 21.50268372,-16.37303711,0 21.51140760,-16.37715464,0 21.51957695,-16.38192580,0 21.52711310,-16.38730468,0 21.53394347,-16.39323953,0 21.54000228,-16.39967324,0 21.54523117,-16.40654389,0 21.54957980,-16.41378536,0 21.55300627,-16.42132795,0 21.55547760,-16.42909904,0 21.55696999,-16.43702382,0 21.55746905,-16.44502598,0 21.55696999,-16.45302846,0</coordinates></LinearRing></outerBoundaryIs></Polygon>
</Placemark>
<Placemark>
<name>Expansão prioritária de borda</name><styleUrl>#poly</styleUrl>
<description><![CDATA[<b>id:</b> EXP_BORDA_331<br/><b>n_pontos:</b> 1<br/><b>criterio:</b> Ponto vermelho externo isolado a até 20 km da borda<br/><b>tipo:</b> Expansão prioritária de borda<br/>]]></description>
<Polygon><tessellate>1</tessellate><outerBoundaryIs><LinearRing><coordinates>21.34968663,-15.47563905,0 21.34819424,-15.48352714,0 21.34572291,-15.49126285,0 21.34229644,-15.49877164,0 21.33794781,-15.50598119,0 21.33271892,-15.51282202,0 21.32666011,-15.51922822,0 21.31982974,-15.52513805,0 21.31229359,-15.53049455,0 21.30412424,-15.53524609,0 21.29540036,-15.53934687,0 21.28620596,-15.54275735,0 21.27662960,-15.54544467,0 21.26676350,-15.54738290,0 21.25670267,-15.54855337,0 21.24654401,-15.54894478,0 21.23638535,-15.54855337,0 21.22632452,-15.54738290,0 21.21645842,-15.54544467,0 21.20688206,-15.54275735,0 21.19768766,-15.53934687,0 21.18896378,-15.53524609,0 21.18079443,-15.53049455,0 21.17325828,-15.52513805,0 21.16642791,-15.51922822,0 21.16036910,-15.51282202,0 21.15514021,-15.50598119,0 21.15079158,-15.49877164,0 21.14736511,-15.49126285,0 21.14489378,-15.48352714,0 21.14340139,-15.47563905,0 21.14290233,-15.46767456,0 21.14340139,-15.45971036,0 21.14489378,-15.45182315,0 21.14736511,-15.44408889,0 21.15079158,-15.43658203,0 21.15514021,-15.42937483,0 21.16036910,-15.42253669,0 21.16642791,-15.41613341,0 21.17325828,-15.41022661,0 21.18079443,-15.40487314,0 21.18896378,-15.40012452,0 21.19768766,-15.39602643,0 21.20688206,-15.39261830,0 21.21645842,-15.38993292,0 21.22632452,-15.38799612,0 21.23638535,-15.38682654,0 21.24654401,-15.38643543,0 21.25670267,-15.38682654,0 21.26676350,-15.38799612,0 21.27662960,-15.38993292,0 21.28620596,-15.39261830,0 21.29540036,-15.39602643,0 21.30412424,-15.40012452,0 21.31229359,-15.40487314,0 21.31982974,-15.41022661,0 21.32666011,-15.41613341,0 21.33271892,-15.42253669,0 21.33794781,-15.42937483,0 21.34229644,-15.43658203,0 21.34572291,-15.44408889,0 21.34819424,-15.45182315,0 21.34968663,-15.45971036,0 21.35018569,-15.46767456,0 21.34968663,-15.47563905,0</coordinates></LinearRing></outerBoundaryIs></Polygon>
</Placemark>
<Placemark>
<name>Expansão prioritária de borda</name><styleUrl>#poly</styleUrl>
<description><![CDATA[<b>id:</b> EXP_BORDA_336<br/><b>n_pontos:</b> 1<br/><b>criterio:</b> Ponto vermelho externo isolado a até 20 km da borda<br/><b>tipo:</b> Expansão prioritária de borda<br/>]]></description>
<Polygon><tessellate>1</tessellate><outerBoundaryIs><LinearRing><coordinates>19.69141978,-14.66458536,0 19.68992739,-14.67244418,0 19.68745606,-14.68015116,0 19.68402959,-14.68763206,0 19.67968096,-14.69481481,0 19.67445207,-14.70163021,0 19.66839326,-14.70801257,0 19.66156289,-14.71390040,0 19.65402674,-14.71923695,0 19.64585739,-14.72397079,0 19.63713351,-14.72805629,0 19.62793911,-14.73145406,0 19.61836275,-14.73413136,0 19.60849665,-14.73606236,0 19.59843582,-14.73722846,0 19.58827716,-14.73761842,0 19.57811850,-14.73722846,0 19.56805767,-14.73606236,0 19.55819157,-14.73413136,0 19.54861521,-14.73145406,0 19.53942081,-14.72805629,0 19.53069693,-14.72397079,0 19.52252758,-14.71923695,0 19.51499143,-14.71390040,0 19.50816106,-14.70801257,0 19.50210225,-14.70163021,0 19.49687336,-14.69481481,0 19.49252473,-14.68763206,0 19.48909826,-14.68015116,0 19.48662693,-14.67244418,0 19.48513454,-14.66458536,0 19.48463548,-14.65665040,0 19.48513454,-14.64871572,0 19.48662693,-14.64085773,0 19.48909826,-14.63315209,0 19.49252473,-14.62567300,0 19.49687336,-14.61849246,0 19.50210225,-14.61167959,0 19.50816106,-14.60529996,0 19.51499143,-14.59941498,0 19.52252758,-14.59408127,0 19.53069693,-14.58935016,0 19.53942081,-14.58526719,0 19.54861521,-14.58187162,0 19.55819157,-14.57919614,0 19.56805767,-14.57726649,0 19.57811850,-14.57610122,0 19.58827716,-14.57571154,0 19.59843582,-14.57610122,0 19.60849665,-14.57726649,0 19.61836275,-14.57919614,0 19.62793911,-14.58187162,0 19.63713351,-14.58526719,0 19.64585739,-14.58935016,0 19.65402674,-14.59408127,0 19.66156289,-14.59941498,0 19.66839326,-14.60529996,0 19.67445207,-14.61167959,0 19.67968096,-14.61849246,0 19.68402959,-14.62567300,0 19.68745606,-14.63315209,0 19.68992739,-14.64085773,0 19.69141978,-14.64871572,0 19.69191884,-14.65665040,0 19.69141978,-14.66458536,0</coordinates></LinearRing></outerBoundaryIs></Polygon>
</Placemark>
<Placemark>
<name>Expansão prioritária de borda</name><styleUrl>#poly</styleUrl>
<description><![CDATA[<b>id:</b> EXP_BORDA_338<br/><b>n_pontos:</b> 1<br/><b>criterio:</b> Ponto vermelho externo isolado a até 20 km da borda<br/><b>tipo:</b> Expansão prioritária de borda<br/>]]></description>
<Polygon><tessellate>1</tessellate><outerBoundaryIs><LinearRing><coordinates>22.59338677,-17.59944186,0 22.59189438,-17.60741512,0 22.58942305,-17.61523440,0 22.58599658,-17.62282436,0 22.58164795,-17.63011187,0 22.57641906,-17.63702673,0 22.57036025,-17.64350227,0 22.56352988,-17.64947611,0 22.55599373,-17.65489064,0 22.54782438,-17.65969367,0 22.53910050,-17.66383891,0 22.52990610,-17.66728638,0 22.52032974,-17.67000284,0 22.51046364,-17.67196210,0 22.50040281,-17.67314526,0 22.49024415,-17.67354092,0 22.48008549,-17.67314526,0 22.47002466,-17.67196210,0 22.46015856,-17.67000284,0 22.45058220,-17.66728638,0 22.44138780,-17.66383891,0 22.43266392,-17.65969367,0 22.42449457,-17.65489064,0 22.41695842,-17.64947611,0 22.41012805,-17.64350227,0 22.40406924,-17.63702673,0 22.39884035,-17.63011187,0 22.39449172,-17.62282436,0 22.39106525,-17.61523440,0 22.38859392,-17.60741512,0 22.38710153,-17.59944186,0 22.38660247,-17.59139142,0 22.38710153,-17.58334132,0 22.38859392,-17.57536909,0 22.39106525,-17.56755150,0 22.39449172,-17.55996381,0 22.39884035,-17.55267905,0 22.40406924,-17.54576735,0 22.41012805,-17.53929521,0 22.41695842,-17.53332494,0 22.42449457,-17.52791396,0 22.43266392,-17.52311434,0 22.44138780,-17.51897225,0 22.45058220,-17.51552754,0 22.46015856,-17.51281334,0 22.47002466,-17.51085577,0 22.48008549,-17.50967364,0 22.49024415,-17.50927833,0 22.50040281,-17.50967364,0 22.51046364,-17.51085577,0 22.52032974,-17.51281334,0 22.52990610,-17.51552754,0 22.53910050,-17.51897225,0 22.54782438,-17.52311434,0 22.55599373,-17.52791396,0 22.56352988,-17.53332494,0 22.57036025,-17.53929521,0 22.57641906,-17.54576735,0 22.58164795,-17.55267905,0 22.58599658,-17.55996381,0 22.58942305,-17.56755150,0 22.59189438,-17.57536909,0 22.59338677,-17.58334132,0 22.59388583,-17.59139142,0 22.59338677,-17.59944186,0</coordinates></LinearRing></outerBoundaryIs></Polygon>
</Placemark>
<Placemark>
<name>Expansão prioritária de borda</name><styleUrl>#poly</styleUrl>
<description><![CDATA[<b>id:</b> EXP_BORDA_341<br/><b>n_pontos:</b> 1<br/><b>criterio:</b> Ponto vermelho externo isolado a até 20 km da borda<br/><b>tipo:</b> Expansão prioritária de borda<br/>]]></description>
<Polygon><tessellate>1</tessellate><outerBoundaryIs><LinearRing><coordinates>18.86228636,-17.59944186,0 18.86079397,-17.60741512,0 18.85832264,-17.61523440,0 18.85489617,-17.62282436,0 18.85054754,-17.63011187,0 18.84531865,-17.63702673,0 18.83925984,-17.64350227,0 18.83242947,-17.64947611,0 18.82489332,-17.65489064,0 18.81672397,-17.65969367,0 18.80800009,-17.66383891,0 18.79880569,-17.66728638,0 18.78922933,-17.67000284,0 18.77936323,-17.67196210,0 18.76930240,-17.67314526,0 18.75914374,-17.67354092,0 18.74898508,-17.67314526,0 18.73892425,-17.67196210,0 18.72905815,-17.67000284,0 18.71948179,-17.66728638,0 18.71028739,-17.66383891,0 18.70156351,-17.65969367,0 18.69339416,-17.65489064,0 18.68585801,-17.64947611,0 18.67902764,-17.64350227,0 18.67296883,-17.63702673,0 18.66773994,-17.63011187,0 18.66339131,-17.62282436,0 18.65996484,-17.61523440,0 18.65749351,-17.60741512,0 18.65600112,-17.59944186,0 18.65550206,-17.59139142,0 18.65600112,-17.58334132,0 18.65749351,-17.57536909,0 18.65996484,-17.56755150,0 18.66339131,-17.55996381,0 18.66773994,-17.55267905,0 18.67296883,-17.54576735,0 18.67902764,-17.53929521,0 18.68585801,-17.53332494,0 18.69339416,-17.52791396,0 18.70156351,-17.52311434,0 18.71028739,-17.51897225,0 18.71948179,-17.51552754,0 18.72905815,-17.51281334,0 18.73892425,-17.51085577,0 18.74898508,-17.50967364,0 18.75914374,-17.50927833,0 18.76930240,-17.50967364,0 18.77936323,-17.51085577,0 18.78922933,-17.51281334,0 18.79880569,-17.51552754,0 18.80800009,-17.51897225,0 18.81672397,-17.52311434,0 18.82489332,-17.52791396,0 18.83242947,-17.53332494,0 18.83925984,-17.53929521,0 18.84531865,-17.54576735,0 18.85054754,-17.55267905,0 18.85489617,-17.55996381,0 18.85832264,-17.56755150,0 18.86079397,-17.57536909,0 18.86228636,-17.58334132,0 18.86278542,-17.59139142,0 18.86228636,-17.59944186,0</coordinates></LinearRing></outerBoundaryIs></Polygon>
</Placemark>
<Placemark>
<name>Expansão prioritária de borda</name><styleUrl>#poly</styleUrl>
<description><![CDATA[<b>id:</b> EXP_BORDA_342<br/><b>n_pontos:</b> 1<br/><b>criterio:</b> Ponto vermelho externo isolado a até 20 km da borda<br/><b>tipo:</b> Expansão prioritária de borda<br/>]]></description>
<Polygon><tessellate>1</tessellate><outerBoundaryIs><LinearRing><coordinates>18.65500300,-16.45302846,0 18.65351061,-16.46095419,0 18.65103928,-16.46872683,0 18.64761281,-16.47627149,0 18.64326418,-16.48351550,0 18.63803529,-16.49038905,0 18.63197648,-16.49682590,0 18.62514611,-16.50276401,0 18.61760996,-16.50814616,0 18.60944061,-16.51292046,0 18.60071673,-16.51704089,0 18.59152233,-16.52046772,0 18.58194597,-16.52316792,0 18.57207987,-16.52511545,0 18.56201904,-16.52629152,0 18.55186038,-16.52668481,0 18.54170172,-16.52629152,0 18.53164089,-16.52511545,0 18.52177479,-16.52316792,0 18.51219843,-16.52046772,0 18.50300403,-16.51704089,0 18.49428015,-16.51292046,0 18.48611080,-16.50814616,0 18.47857465,-16.50276401,0 18.47174428,-16.49682590,0 18.46568547,-16.49038905,0 18.46045658,-16.48351550,0 18.45610795,-16.47627149,0 18.45268148,-16.46872683,0 18.45021015,-16.46095419,0 18.44871776,-16.45302846,0 18.44821870,-16.44502598,0 18.44871776,-16.43702382,0 18.45021015,-16.42909904,0 18.45268148,-16.42132795,0 18.45610795,-16.41378536,0 18.46045658,-16.40654389,0 18.46568547,-16.39967324,0 18.47174428,-16.39323953,0 18.47857465,-16.38730468,0 18.48611080,-16.38192580,0 18.49428015,-16.37715464,0 18.50300403,-16.37303711,0 18.51219843,-16.36961282,0 18.52177479,-16.36691470,0 18.53164089,-16.36496872,0 18.54170172,-16.36379360,0 18.55186038,-16.36340063,0 18.56201904,-16.36379360,0 18.57207987,-16.36496872,0 18.58194597,-16.36691470,0 18.59152233,-16.36961282,0 18.60071673,-16.37303711,0 18.60944061,-16.37715464,0 18.61760996,-16.38192580,0 18.62514611,-16.38730468,0 18.63197648,-16.39323953,0 18.63803529,-16.39967324,0 18.64326418,-16.40654389,0 18.64761281,-16.41378536,0 18.65103928,-16.42132795,0 18.65351061,-16.42909904,0 18.65500300,-16.43702382,0 18.65550206,-16.44502598,0 18.65500300,-16.45302846,0</coordinates></LinearRing></outerBoundaryIs></Polygon>
</Placemark>
<Placemark>
<name>Expansão prioritária de borda</name><styleUrl>#poly</styleUrl>
<description><![CDATA[<b>id:</b> EXP_BORDA_352<br/><b>n_pontos:</b> 1<br/><b>criterio:</b> Ponto vermelho externo isolado a até 20 km da borda<br/><b>tipo:</b> Expansão prioritária de borda<br/>]]></description>
<Polygon><tessellate>1</tessellate><outerBoundaryIs><LinearRing><coordinates>13.26563574,-14.82655650,0 13.26414335,-14.83442103,0 13.26167202,-14.84213361,0 13.25824555,-14.84961995,0 13.25389692,-14.85680792,0 13.24866803,-14.86362827,0 13.24260922,-14.87001528,0 13.23577885,-14.87590740,0 13.22824270,-14.88124784,0 13.22007335,-14.88598513,0 13.21134947,-14.89007361,0 13.20215507,-14.89347386,0 13.19257871,-14.89615310,0 13.18271261,-14.89808552,0 13.17265178,-14.89925247,0 13.16249312,-14.89964271,0 13.15233446,-14.89925247,0 13.14227363,-14.89808552,0 13.13240753,-14.89615310,0 13.12283117,-14.89347386,0 13.11363677,-14.89007361,0 13.10491289,-14.88598513,0 13.09674354,-14.88124784,0 13.08920739,-14.87590740,0 13.08237702,-14.87001528,0 13.07631821,-14.86362827,0 13.07108932,-14.85680792,0 13.06674069,-14.84961995,0 13.06331422,-14.84213361,0 13.06084289,-14.83442103,0 13.05935050,-14.82655650,0 13.05885144,-14.81861579,0 13.05935050,-14.81067535,0 13.06084289,-14.80281167,0 13.06331422,-14.79510046,0 13.06674069,-14.78761595,0 13.07108932,-14.78043022,0 13.07631821,-14.77361242,0 13.08237702,-14.76722818,0 13.08920739,-14.76133895,0 13.09674354,-14.75600139,0 13.10491289,-14.75126687,0 13.11363677,-14.74718095,0 13.12283117,-14.74378294,0 13.13240753,-14.74110553,0 13.14227363,-14.73917448,0 13.15233446,-14.73800837,0 13.16249312,-14.73761841,0 13.17265178,-14.73800837,0 13.18271261,-14.73917448,0 13.19257871,-14.74110553,0 13.20215507,-14.74378294,0 13.21134947,-14.74718095,0 13.22007335,-14.75126687,0 13.22824270,-14.75600139,0 13.23577885,-14.76133895,0 13.24260922,-14.76722818,0 13.24866803,-14.77361242,0 13.25389692,-14.78043022,0 13.25824555,-14.78761595,0 13.26167202,-14.79510046,0 13.26414335,-14.80281167,0 13.26563574,-14.81067535,0 13.26613480,-14.81861579,0 13.26563574,-14.82655650,0</coordinates></LinearRing></outerBoundaryIs></Polygon>
</Placemark>
<Placemark>
<name>Expansão prioritária de borda</name><styleUrl>#poly</styleUrl>
<description><![CDATA[<b>id:</b> EXP_BORDA_369<br/><b>n_pontos:</b> 1<br/><b>criterio:</b> Ponto vermelho externo isolado a até 20 km da borda<br/><b>tipo:</b> Expansão prioritária de borda<br/>]]></description>
<Polygon><tessellate>1</tessellate><outerBoundaryIs><LinearRing><coordinates>12.43650232,-15.31318564,0 12.43500993,-15.32106772,0 12.43253860,-15.32879753,0 12.42911213,-15.33630060,0 12.42476350,-15.34350465,0 12.41953461,-15.35034027,0 12.41347580,-15.35674158,0 12.40664543,-15.36264690,0 12.39910928,-15.36799930,0 12.39093993,-15.37274721,0 12.38221605,-15.37684486,0 12.37302165,-15.38025274,0 12.36344529,-15.38293799,0 12.35357919,-15.38487474,0 12.34351836,-15.38604431,0 12.33335970,-15.38643543,0 12.32320104,-15.38604431,0 12.31314021,-15.38487474,0 12.30327411,-15.38293799,0 12.29369775,-15.38025274,0 12.28450335,-15.37684486,0 12.27577947,-15.37274721,0 12.26761012,-15.36799930,0 12.26007397,-15.36264690,0 12.25324360,-15.35674158,0 12.24718479,-15.35034027,0 12.24195590,-15.34350465,0 12.23760727,-15.33630060,0 12.23418080,-15.32879753,0 12.23170947,-15.32106772,0 12.23021708,-15.31318564,0 12.22971802,-15.30522720,0 12.23021708,-15.29726905,0 12.23170947,-15.28938784,0 12.23418080,-15.28165945,0 12.23760727,-15.27415829,0 12.24195590,-15.26695656,0 12.24718479,-15.26012360,0 12.25324360,-15.25372517,0 12.26007397,-15.24782285,0 12.26761012,-15.24247344,0 12.27577947,-15.23772841,0 12.28450335,-15.23363342,0 12.29369775,-15.23022786,0 12.30327411,-15.22754452,0 12.31314021,-15.22560918,0 12.32320104,-15.22444049,0 12.33335970,-15.22404967,0 12.34351836,-15.22444049,0 12.35357919,-15.22560918,0 12.36344529,-15.22754452,0 12.37302165,-15.23022786,0 12.38221605,-15.23363342,0 12.39093993,-15.23772841,0 12.39910928,-15.24247344,0 12.40664543,-15.24782285,0 12.41347580,-15.25372517,0 12.41953461,-15.26012360,0 12.42476350,-15.26695656,0 12.42911213,-15.27415829,0 12.43253860,-15.28165945,0 12.43500993,-15.28938784,0 12.43650232,-15.29726905,0 12.43700138,-15.30522720,0 12.43650232,-15.31318564,0</coordinates></LinearRing></outerBoundaryIs></Polygon>
</Placemark>
</Document></kml>