<?xml version="1.0" encoding="UTF-8"?>
<kml xmlns="http://www.opengis.net/kml/2.2"><Document>
<name>Possíveis núcleos externos sob revisão</name>
<Style id="poly"><LineStyle>
<color>ff00ffff</color><width>2</width></LineStyle><PolyStyle>
<color>3300ffff</color></PolyStyle></Style>
<Placemark>
<name>Revisão / possível núcleo secundário</name><styleUrl>#poly</styleUrl>
<description><![CDATA[<b>id:</b> EXP_REV_321<br/><b>n_pontos:</b> 1<br/><b>criterio:</b> Ponto vermelho externo isolado a mais de 20 km da borda<br/><b>tipo:</b> Revisão / possível núcleo secundário<br/>]]></description>
<Polygon><tessellate>1</tessellate><outerBoundaryIs><LinearRing><coordinates>22.98732495,-11.44614608,0 22.98613105,-11.45235377,0 22.98415398,-11.45844143,0 22.98141280,-11.46435044,0 22.97793390,-11.47002387,0 22.97375078,-11.47540707,0 22.96890374,-11.48044819,0 22.96343945,-11.48509864,0 22.95741053,-11.48931364,0 22.95087505,-11.49305255,0 22.94389594,-11.49627937,0 22.93654042,-11.49896298,0 22.92887933,-11.50107754,0 22.92098645,-11.50260267,0 22.91293779,-11.50352366,0 22.90481086,-11.50383165,0 22.89668393,-11.50352366,0 22.88863527,-11.50260267,0 22.88074239,-11.50107754,0 22.87308130,-11.49896298,0 22.86572578,-11.49627937,0 22.85874667,-11.49305255,0 22.85221119,-11.48931364,0 22.84618227,-11.48509864,0 22.84071798,-11.48044819,0 22.83587094,-11.47540707,0 22.83168782,-11.47002387,0 22.82820892,-11.46435044,0 22.82546774,-11.45844143,0 22.82349067,-11.45235377,0 22.82229677,-11.44614608,0 22.82189752,-11.43987817,0 22.82229677,-11.43361039,0 22.82349067,-11.42740311,0 22.82546774,-11.42131609,0 22.82820892,-11.41540796,0 22.83168782,-11.40973559,0 22.83587094,-11.40435361,0 22.84071798,-11.39931381,0 22.84618227,-11.39466473,0 22.85221119,-11.39045111,0 22.85874667,-11.38671351,0 22.86572578,-11.38348792,0 22.87308130,-11.38080537,0 22.88074239,-11.37869168,0 22.88863527,-11.37716721,0 22.89668393,-11.37624661,0 22.90481086,-11.37593876,0 22.91293779,-11.37624661,0 22.92098645,-11.37716721,0 22.92887933,-11.37869168,0 22.93654042,-11.38080537,0 22.94389594,-11.38348792,0 22.95087505,-11.38671351,0 22.95741053,-11.39045111,0 22.96343945,-11.39466473,0 22.96890374,-11.39931381,0 22.97375078,-11.40435361,0 22.97793390,-11.40973559,0 22.98141280,-11.41540796,0 22.98415398,-11.42131609,0 22.98613105,-11.42740311,0 22.98732495,-11.43361039,0 22.98772420,-11.43987817,0 22.98732495,-11.44614608,0</coordinates></LinearRing></outerBoundaryIs></Polygon>
</Placemark>
<Placemark>
<name>Revisão / possível núcleo secundário</name><styleUrl>#poly</styleUrl>
<description><![CDATA[<b>id:</b> EXP_REV_322<br/><b>n_pontos:</b> 1<br/><b>criterio:</b> Ponto vermelho externo isolado a mais de 20 km da borda<br/><b>tipo:</b> Revisão / possível núcleo secundário<br/>]]></description>
<Polygon><tessellate>1</tessellate><outerBoundaryIs><LinearRing><coordinates>22.78004160,-11.92615677,0 22.77884770,-11.93237495,0 22.77687063,-11.93847291,0 22.77412945,-11.94439191,0 22.77065055,-11.95007495,0 22.76646743,-11.95546727,0 22.76162039,-11.96051693,0 22.75615610,-11.96517527,0 22.75012718,-11.96939741,0 22.74359170,-11.97314267,0 22.73661259,-11.97637496,0 22.72925707,-11.97906313,0 22.72159598,-11.98118128,0 22.71370310,-11.98270900,0 22.70565444,-11.98363156,0 22.69752751,-11.98394007,0 22.68940058,-11.98363156,0 22.68135192,-11.98270900,0 22.67345904,-11.98118128,0 22.66579795,-11.97906313,0 22.65844243,-11.97637496,0 22.65146332,-11.97314267,0 22.64492784,-11.96939741,0 22.63889892,-11.96517527,0 22.63343463,-11.96051693,0 22.62858759,-11.95546727,0 22.62440447,-11.95007495,0 22.62092557,-11.94439191,0 22.61818439,-11.93847291,0 22.61620732,-11.93237495,0 22.61501342,-11.92615677,0 22.61461417,-11.91987827,0 22.61501342,-11.91359991,0 22.61620732,-11.90738215,0 22.61818439,-11.90128487,0 22.62092557,-11.89536678,0 22.62440447,-11.88968486,0 22.62858759,-11.88429381,0 22.63343463,-11.87924553,0 22.63889892,-11.87458863,0 22.64492784,-11.87036793,0 22.65146332,-11.86662405,0 22.65844243,-11.86339303,0 22.66579795,-11.86070597,0 22.67345904,-11.85858874,0 22.68135192,-11.85706171,0 22.68940058,-11.85613957,0 22.69752751,-11.85583120,0 22.70565444,-11.85613957,0 22.71370310,-11.85706171,0 22.72159598,-11.85858874,0 22.72925707,-11.86070597,0 22.73661259,-11.86339303,0 22.74359170,-11.86662405,0 22.75012718,-11.87036793,0 22.75615610,-11.87458863,0 22.76162039,-11.87924553,0 22.76646743,-11.88429381,0 22.77065055,-11.88968486,0 22.77412945,-11.89536678,0 22.77687063,-11.90128487,0 22.77884770,-11.90738215,0 22.78004160,-11.91359991,0 22.78044085,-11.91987827,0 22.78004160,-11.92615677,0</coordinates></LinearRing></outerBoundaryIs></Polygon>
</Placemark>
<Placemark>
<name>Revisão / possível núcleo secundário</name><styleUrl>#poly</styleUrl>
<description><![CDATA[<b>id:</b> EXP_REV_327<br/><b>n_pontos:</b> 1<br/><b>criterio:</b> Ponto vermelho externo isolado a mais de 20 km da borda<br/><b>tipo:</b> Revisão / possível núcleo secundário<br/>]]></description>
<Polygon><tessellate>1</tessellate><outerBoundaryIs><LinearRing><coordinates>21.53634146,-17.26958447,0 21.53514756,-17.27595181,0 21.53317049,-17.28219612,0 21.53042931,-17.28825725,0 21.52695041,-17.29407680,0 21.52276729,-17.29959871,0 21.51792025,-17.30476977,0 21.51245596,-17.30954015,0 21.50642704,-17.31386387,0 21.49989156,-17.31769927,0 21.49291245,-17.32100937,0 21.48555693,-17.32376227,0 21.47789584,-17.32593143,0 21.47000296,-17.32749595,0 21.46195430,-17.32844073,0 21.45382737,-17.32875667,0 21.44570044,-17.32844073,0 21.43765178,-17.32749595,0 21.42975890,-17.32593143,0 21.42209781,-17.32376227,0 21.41474229,-17.32100937,0 21.40776318,-17.31769927,0 21.40122770,-17.31386387,0 21.39519878,-17.30954015,0 21.38973449,-17.30476977,0 21.38488745,-17.29959871,0 21.38070433,-17.29407680,0 21.37722543,-17.28825725,0 21.37448425,-17.28219612,0 21.37250718,-17.27595181,0 21.37131328,-17.26958447,0 21.37091403,-17.26315544,0 21.37131328,-17.25672662,0 21.37250718,-17.25035993,0 21.37448425,-17.24411667,0 21.37722543,-17.23805696,0 21.38070433,-17.23223913,0 21.38488745,-17.22671919,0 21.38973449,-17.22155026,0 21.39519878,-17.21678210,0 21.40122770,-17.21246060,0 21.40776318,-17.20862734,0 21.41474229,-17.20531921,0 21.42209781,-17.20256803,0 21.42975890,-17.20040028,0 21.43765178,-17.19883682,0 21.44570044,-17.19789269,0 21.45382737,-17.19757696,0 21.46195430,-17.19789269,0 21.47000296,-17.19883682,0 21.47789584,-17.20040028,0 21.48555693,-17.20256803,0 21.49291245,-17.20531921,0 21.49989156,-17.20862734,0 21.50642704,-17.21246060,0 21.51245596,-17.21678210,0 21.51792025,-17.22155026,0 21.52276729,-17.22671919,0 21.52695041,-17.23223913,0 21.53042931,-17.23805696,0 21.53317049,-17.24411667,0 21.53514756,-17.25035993,0 21.53634146,-17.25672662,0 21.53674071,-17.26315544,0 21.53634146,-17.26958447,0</coordinates></LinearRing></outerBoundaryIs></Polygon>
</Placemark>
<Placemark>
<name>Revisão / possível núcleo secundário</name><styleUrl>#poly</styleUrl>
<description><![CDATA[<b>id:</b> EXP_REV_328<br/><b>n_pontos:</b> 1<br/><b>criterio:</b> Ponto vermelho externo isolado a mais de 20 km da borda<br/><b>tipo:</b> Revisão / possível núcleo secundário<br/>]]></description>
<Polygon><tessellate>1</tessellate><outerBoundaryIs><LinearRing><coordinates>21.12177475,-17.59783175,0 21.12058085,-17.60421027,0 21.11860378,-17.61046556,0 21.11586260,-17.61653734,0 21.11238370,-17.62236713,0 21.10820058,-17.62789876,0 21.10335354,-17.63307893,0 21.09788925,-17.63785771,0 21.09186033,-17.64218905,0 21.08532485,-17.64603120,0 21.07834574,-17.64934714,0 21.07099022,-17.65210489,0 21.06332913,-17.65427788,0 21.05543625,-17.65584515,0 21.04738759,-17.65679160,0 21.03926066,-17.65710810,0 21.03113373,-17.65679160,0 21.02308507,-17.65584515,0 21.01519219,-17.65427788,0 21.00753110,-17.65210489,0 21.00017558,-17.64934714,0 20.99319647,-17.64603120,0 20.98666099,-17.64218905,0 20.98063207,-17.63785771,0 20.97516778,-17.63307893,0 20.97032074,-17.62789876,0 20.96613762,-17.62236713,0 20.96265872,-17.61653734,0 20.95991754,-17.61046556,0 20.95794047,-17.60421027,0 20.95674657,-17.59783175,0 20.95634732,-17.59139142,0 20.95674657,-17.58495131,0 20.95794047,-17.57857345,0 20.95991754,-17.57231924,0 20.96265872,-17.56624890,0 20.96613762,-17.56042088,0 20.97032074,-17.55489126,0 20.97516778,-17.54971329,0 20.98063207,-17.54493678,0 20.98666099,-17.54060771,0 20.99319647,-17.53676774,0 21.00017558,-17.53345382,0 21.00753110,-17.53069784,0 21.01519219,-17.52852630,0 21.02308507,-17.52696010,0 21.03113373,-17.52601432,0 21.03926066,-17.52569804,0 21.04738759,-17.52601432,0 21.05543625,-17.52696010,0 21.06332913,-17.52852630,0 21.07099022,-17.53069784,0 21.07834574,-17.53345382,0 21.08532485,-17.53676774,0 21.09186033,-17.54060771,0 21.09788925,-17.54493678,0 21.10335354,-17.54971329,0 21.10820058,-17.55489126,0 21.11238370,-17.56042088,0 21.11586260,-17.56624890,0 21.11860378,-17.57231924,0 21.12058085,-17.57857345,0 21.12177475,-17.58495131,0 21.12217400,-17.59139142,0 21.12177475,-17.59783175,0</coordinates></LinearRing></outerBoundaryIs></Polygon>
</Placemark>
<Placemark>
<name>Revisão / possível núcleo secundário</name><styleUrl>#poly</styleUrl>
<description><![CDATA[<b>id:</b> EXP_REV_329<br/><b>n_pontos:</b> 1<br/><b>criterio:</b> Ponto vermelho externo isolado a mais de 20 km da borda<br/><b>tipo:</b> Revisão / possível núcleo secundário<br/>]]></description>
<Polygon><tessellate>1</tessellate><outerBoundaryIs><LinearRing><coordinates>21.95090817,-17.92666200,0 21.95081545,-17.92715825,0 21.94273740,-17.92869492,0 21.93970231,-17.92931734,0 21.91581015,-17.93359656,0 21.89499335,-17.93730700,0 21.89248823,-17.93777672,0 21.87976456,-17.94015093,0 21.87370821,-17.94127934,0 21.87090744,-17.94181638,0 21.86703657,-17.94242943,0 21.85047946,-17.94590814,0 21.84745867,-17.94641463,0 21.82956248,-17.94972992,0 21.80554385,-17.95407743,0 21.79958131,-17.95510534,0 21.79835874,-17.95533189,0 21.79527104,-17.95124147,0 21.79179214,-17.94540120,0 21.78905096,-17.93931850,0 21.78707389,-17.93305198,0 21.78587999,-17.92666200,0 21.78548074,-17.92021011,0 21.78587999,-17.91375845,0 21.78707389,-17.90736914,0 21.78905096,-17.90110372,0 21.79179214,-17.89502251,0 21.79527104,-17.88918404,0 21.79945416,-17.88364453,0 21.80430120,-17.87845728,0 21.80976549,-17.87367223,0 21.81579441,-17.86933542,0 21.82232989,-17.86548858,0 21.82930900,-17.86216873,0 21.83666452,-17.85940782,0 21.84432561,-17.85723240,0 21.85221849,-17.85566341,0 21.86026715,-17.85471593,0 21.86839408,-17.85439909,0 21.87652101,-17.85471593,0 21.88456967,-17.85566341,0 21.89246255,-17.85723240,0 21.90012364,-17.85940782,0 21.90747916,-17.86216873,0 21.91445827,-17.86548858,0 21.92099375,-17.86933542,0 21.92702267,-17.87367223,0 21.93248696,-17.87845728,0 21.93733400,-17.88364453,0 21.94151712,-17.88918404,0 21.94499602,-17.89502251,0 21.94773720,-17.90110372,0 21.94971427,-17.90736914,0 21.95090817,-17.91375845,0 21.95130742,-17.92021011,0 21.95090817,-17.92666200,0</coordinates></LinearRing></outerBoundaryIs></Polygon>
</Placemark>
<Placemark>
<name>Revisão / possível núcleo secundário</name><styleUrl>#poly</styleUrl>
<description><![CDATA[<b>id:</b> EXP_REV_356<br/><b>n_pontos:</b> 1<br/><b>criterio:</b> Ponto vermelho externo isolado a mais de 20 km da borda<br/><b>tipo:</b> Revisão / possível núcleo secundário<br/>]]></description>
<Polygon><tessellate>1</tessellate><outerBoundaryIs><LinearRing><coordinates>13.24500721,-16.94190657,0 13.24381331,-16.94826298,0 13.24183624,-16.95449657,0 13.23909506,-16.96054729,0 13.23561616,-16.96635684,0 13.23143304,-16.97186926,0 13.22658600,-16.97703143,0 13.22112171,-16.98179361,0 13.21509279,-16.98610989,0 13.21317633,-16.98723264,0 13.21223516,-16.98742610,0 13.20785695,-16.98856824,0 13.20573923,-16.98916311,0 13.20419258,-16.98949623,0 13.20331218,-16.98949623,0 13.20264593,-16.98949623,0 13.20205106,-16.98932967,0 13.20145620,-16.98899655,0 13.20069477,-16.98844927,0 13.19919571,-16.98673606,0 13.19774424,-16.98442798,0 13.19722076,-16.98342861,0 13.19714937,-16.98271477,0 13.19724455,-16.98214370,0 13.19762527,-16.98154883,0 13.19869602,-16.98031151,0 13.19917192,-16.97950250,0 13.19955263,-16.97857451,0 13.19974299,-16.97750375,0 13.19976678,-16.97640920,0 13.19950504,-16.97552880,0 13.19902915,-16.97486255,0 13.19826772,-16.97414871,0 13.19698281,-16.97341108,0 13.19374674,-16.97193581,0 13.19001099,-16.97062711,0 13.18796465,-16.97005604,0 13.18632282,-16.96988948,0 13.18537104,-16.96998465,0 13.18437167,-16.97031778,0 13.18339609,-16.97084126,0 13.18215877,-16.97174545,0 13.18082627,-16.97262586,0 13.17968413,-16.97303036,0 13.17837543,-16.97312554,0 13.17723328,-16.97286380,0 13.17618632,-16.97248309,0 13.17521074,-16.97169787,0 13.17454449,-16.97086505,0 13.17352132,-16.96893769,0 13.17209365,-16.96696274,0 13.17102289,-16.96532091,0 13.17030905,-16.96441671,0 13.16988075,-16.96408359,0 13.16919071,-16.96396462,0 13.16850066,-16.96396462,0 13.16750129,-16.96420256,0 13.16609741,-16.96463087,0 13.16493147,-16.96496399,0 13.16393210,-16.96503537,0 13.16307549,-16.96498779,0 13.16233786,-16.96474984,0 13.16176679,-16.96453569,0 13.16129089,-16.96444051,0 13.16019262,-16.96444571,0 13.15858649,-16.96459443,0 13.15751573,-16.96462417,0 13.15680189,-16.96465392,0 13.15585011,-16.96489186,0 13.15469012,-16.96539750,0 13.15299476,-16.96617082,0 13.15180502,-16.96649800,0 13.15079376,-16.96658723,0 13.14990146,-16.96646826,0 13.14906865,-16.96614108,0 13.14784917,-16.96578416,0 13.14651072,-16.96545699,0 13.14454767,-16.96524878,0 13.14160309,-16.96527853,0 13.13972926,-16.96548673,0 13.13856927,-16.96581390,0 13.13669545,-16.96626005,0 13.13440522,-16.96694415,0 13.13273959,-16.96739030,0 13.13178781,-16.96756876,0 13.13080628,-16.96756876,0 13.12928937,-16.96744978,0 13.12812939,-16.96756876,0 13.12467917,-16.96852054,0 13.12295406,-16.96878823,0 13.12161561,-16.96893695,0 13.12018794,-16.96923438,0 13.11786796,-16.97000770,0 13.11542902,-16.97057283,0 13.11367416,-16.97098923,0 13.11067009,-16.97203025,0 13.10876652,-16.97247640,0 13.10674398,-16.97295229,0 13.10421581,-16.97369587,0 13.10326402,-16.97405279,0 13.10237172,-16.97449894,0 13.10165788,-16.97497483,0 13.10112250,-16.97542098,0 13.10052764,-16.97607533,0 13.10005175,-16.97672968,0 13.09945688,-16.97738403,0 13.09906200,-16.97760816,0 13.09840024,-16.97703143,0 13.09355320,-16.97186926,0 13.08937008,-16.96635684,0 13.08589118,-16.96054729,0 13.08315000,-16.95449657,0 13.08117293,-16.94826298,0 13.07997903,-16.94190657,0 13.07957978,-16.93548856,0 13.07997903,-16.92907076,0 13.08117293,-16.92271498,0 13.08315000,-16.91648242,0 13.08589118,-16.91043308,0 13.08937008,-16.90462521,0 13.09355320,-16.89911471,0 13.09840024,-16.89395462,0 13.10386453,-16.88919462,0 13.10989345,-16.88488050,0 13.11642893,-16.88105379,0 13.12340804,-16.87775131,0 13.13076356,-16.87500483,0 13.13842465,-16.87284079,0 13.14631753,-16.87127999,0 13.15436619,-16.87033747,0 13.16249312,-16.87002229,0 13.17062005,-16.87033747,0 13.17866871,-16.87127999,0 13.18656159,-16.87284079,0 13.19422268,-16.87500483,0 13.20157820,-16.87775131,0 13.20855731,-16.88105379,0 13.21509279,-16.88488050,0 13.22112171,-16.88919462,0 13.22658600,-16.89395462,0 13.23143304,-16.89911471,0 13.23561616,-16.90462521,0 13.23909506,-16.91043308,0 13.24183624,-16.91648242,0 13.24381331,-16.92271498,0 13.24500721,-16.92907076,0 13.24540646,-16.93548856,0 13.24500721,-16.94190657,0</coordinates></LinearRing></outerBoundaryIs></Polygon>
</Placemark>
<Placemark>
<name>Revisão / possível núcleo secundário</name><styleUrl>#poly</styleUrl>
<description><![CDATA[<b>id:</b> EXP_REV_368<br/><b>n_pontos:</b> 1<br/><b>criterio:</b> Ponto vermelho externo isolado a mais de 20 km da borda<br/><b>tipo:</b> Revisão / possível núcleo secundário<br/>]]></description>
<Polygon><tessellate>1</tessellate><outerBoundaryIs><LinearRing><coordinates>22.15819153,-12.72803543,0 22.15699763,-12.73427218,0 22.15502056,-12.74038835,0 22.15227938,-12.74632505,0 22.14880048,-12.75202508,0 22.14461736,-12.75743353,0 22.13977032,-12.76249831,0 22.13430603,-12.76717060,0 22.12827711,-12.77140538,0 22.12174163,-12.77516187,0 22.11476252,-12.77840385,0 22.10740700,-12.78110008,0 22.09974591,-12.78322458,0 22.09185303,-12.78475688,0 22.08380437,-12.78568220,0 22.07567744,-12.78599164,0 22.06755051,-12.78568220,0 22.05950185,-12.78475688,0 22.05160897,-12.78322458,0 22.04394788,-12.78110008,0 22.03659236,-12.77840385,0 22.02961325,-12.77516187,0 22.02307777,-12.77140538,0 22.01704885,-12.76717060,0 22.01158456,-12.76249831,0 22.00673752,-12.75743353,0 22.00255440,-12.75202508,0 21.99907550,-12.74632505,0 21.99633432,-12.74038835,0 21.99435725,-12.73427218,0 21.99316335,-12.72803543,0 21.99276410,-12.72173820,0 21.99316335,-12.71544111,0 21.99435725,-12.70920482,0 21.99633432,-12.70308938,0 21.99907550,-12.69715367,0 22.00255440,-12.69145484,0 22.00673752,-12.68604775,0 22.01158456,-12.68098447,0 22.01704885,-12.67631373,0 22.02307777,-12.67208048,0 22.02961325,-12.66832549,0 22.03659236,-12.66508488,0 22.04394788,-12.66238985,0 22.05160897,-12.66026633,0 22.05950185,-12.65873476,0 22.06755051,-12.65780989,0 22.07567744,-12.65750061,0 22.08380437,-12.65780989,0 22.09185303,-12.65873476,0 22.09974591,-12.66026633,0 22.10740700,-12.66238985,0 22.11476252,-12.66508488,0 22.12174163,-12.66832549,0 22.12827711,-12.67208048,0 22.13430603,-12.67631373,0 22.13977032,-12.68098447,0 22.14461736,-12.68604775,0 22.14880048,-12.69145484,0 22.15227938,-12.69715367,0 22.15502056,-12.70308938,0 22.15699763,-12.70920482,0 22.15819153,-12.71544111,0 22.15859078,-12.72173820,0 22.15819153,-12.72803543,0</coordinates></LinearRing></outerBoundaryIs></Polygon>
</Placemark>
</Document></kml>