<?xml version="1.0" encoding="UTF-8"?>
<kml xmlns="http://www.opengis.net/kml/2.2"><Document>
<name>Áreas propostas para retração prioritária</name>
<Style id="poly"><LineStyle>
<color>ffff0000</color><width>2</width></LineStyle><PolyStyle>
<color>55ff0000</color></PolyStyle></Style>
<Placemark>
<name>Retração prioritária</name><styleUrl>#poly</styleUrl>
<description><![CDATA[<b>id:</b> RET_CLUSTER_1<br/><b>n_pontos:</b> 4<br/><b>dist_mediana_borda_km:</b> 281.8<br/><b>criterio:</b> &gt;=2 pontos não vermelhos internos agrupados em até 50 km<br/><b>tipo:</b> Retração prioritária<br/>]]></description>
<Polygon><tessellate>1</tessellate><outerBoundaryIs><LinearRing><coordinates>17.09071823,-10.88049170,0 17.08065740,-10.87934287,0 17.07079130,-10.87744046,0 17.06121494,-10.87480280,0 17.05202054,-10.87145532,0 17.04329666,-10.86743027,0 17.03512731,-10.86276644,0 17.02759116,-10.85750879,0 17.02076079,-10.85170796,0 17.01470198,-10.84541987,0 17.00947309,-10.83870508,0 17.00512447,-10.83162829,0 17.00169799,-10.82425769,0 16.99922666,-10.81666427,0 16.99773428,-10.80892117,0 16.99723521,-10.80110297,0 16.99773427,-10.79328497,0 16.99922666,-10.78554246,0 17.00169799,-10.77794999,0 17.00512446,-10.77058067,0 17.00947309,-10.76350545,0 17.01470198,-10.75679244,0 17.02076079,-10.75050628,0 17.02759116,-10.74470747,0 17.23487451,-10.58525226,0 17.44215787,-10.42587779,0 17.44980889,-10.42055511,0 17.45811058,-10.41584372,0 17.46698064,-10.41179031,0 17.47633113,-10.40843503,0 17.48606937,-10.40581113,0 17.49609881,-10.40394458,0 17.50632003,-10.40285390,0 17.51663169,-10.40254987,0 17.52693157,-10.40303552,0 17.53711757,-10.40430603,0 17.54708870,-10.40634881,0 17.55674612,-10.40914364,0 17.56599409,-10.41266281,0 17.57474092,-10.41687147,0 17.58289991,-10.42172793,0 17.59039017,-10.42718406,0 17.59713745,-10.43318580,0 17.60307486,-10.43967369,0 17.60814353,-10.44658344,0 17.81542689,-10.76543413,0 17.81947551,-10.77250132,0 17.82261680,-10.77983689,0 17.82482133,-10.78737208,0 17.82606841,-10.79503621,0 17.82634634,-10.80275743,0 17.82565253,-10.81046333,0 17.82399347,-10.81808164,0 17.82138473,-10.82554090,0 17.81785077,-10.83277114,0 17.81342473,-10.83970455,0 17.80814812,-10.84627607,0 17.80207043,-10.85242406,0 17.79524865,-10.85809083,0 17.78774676,-10.86322321,0 17.77963511,-10.86777304,0 17.77098977,-10.87169763,0 17.76189181,-10.87496014,0 17.75242657,-10.87752996,0 17.74268280,-10.87938297,0 17.73275189,-10.88050177,0 17.72272696,-10.88087588,0 17.10087689,-10.88087588,0 17.09071823,-10.88049170,0</coordinates></LinearRing></outerBoundaryIs></Polygon>
</Placemark>
<Placemark>
<name>Retração prioritária</name><styleUrl>#poly</styleUrl>
<description><![CDATA[<b>id:</b> RET_CLUSTER_2<br/><b>n_pontos:</b> 5<br/><b>dist_mediana_borda_km:</b> 120.9<br/><b>criterio:</b> &gt;=2 pontos não vermelhos internos agrupados em até 50 km<br/><b>tipo:</b> Retração prioritária<br/>]]></description>
<Polygon><tessellate>1</tessellate><outerBoundaryIs><LinearRing><coordinates>17.18096435,-9.31815389,0 17.18700162,-9.32438226,0 17.19221679,-9.33103240,0 17.19656009,-9.33804086,0 17.19999005,-9.34534076,0 17.20247395,-9.35286243,0 17.20398806,-9.36053410,0 17.20451794,-9.36828253,0 17.20405853,-9.37603377,0 17.20261420,-9.38371383,0 17.20019876,-9.39124939,0 17.19683526,-9.39856852,0 17.19255579,-9.40560133,0 17.18740122,-9.41228067,0 17.18142074,-9.41854276,0 17.17467144,-9.42432781,0 17.16721774,-9.42958058,0 17.15913080,-9.43425089,0 17.15048780,-9.43829415,0 17.14137124,-9.44167173,0 17.13186815,-9.44435138,0 17.12206924,-9.44630751,0 17.11206804,-9.44752142,0 17.10196002,-9.44798153,0 17.09184165,-9.44768344,0 17.08180954,-9.44663000,0 17.07195942,-9.44483127,0 17.06238534,-9.44230442,0 16.02596856,-9.12470819,0 16.01680319,-9.12149661,0 16.00808857,-9.11761851,0 15.99990711,-9.11311058,0 15.99233618,-9.10801549,0 15.98544740,-9.10238145,0 15.97930592,-9.09626177,0 15.97396983,-9.08971435,0 15.96948959,-9.08280114,0 15.96590758,-9.07558753,0 15.96325767,-9.06814178,0 15.96156494,-9.06053432,0 15.96084538,-9.05283710,0 15.96110581,-9.04512293,0 15.96234376,-9.03746476,0 15.96454752,-9.02993503,0 15.96769625,-9.02260493,0 15.97176017,-9.01554379,0 16.17904352,-8.69831497,0 16.18411220,-8.69143976,0 16.19004961,-8.68498427,0 16.19679689,-8.67901248,0 16.20428715,-8.67358356,0 16.21244614,-8.66875131,0 16.22119297,-8.66456362,0 16.23044094,-8.66106197,0 16.24009836,-8.65828106,0 16.25006949,-8.65624844,0 16.26025549,-8.65498426,0 16.27055537,-8.65450103,0 16.28086703,-8.65480354,0 16.29108825,-8.65588880,0 16.30111769,-8.65774605,0 16.31085593,-8.66035690,0 16.32020642,-8.66369547,0 16.32907648,-8.66772868,0 16.33737817,-8.67241659,0 16.34502919,-8.67771272,0 16.55231255,-8.83628525,0 17.17416262,-9.31240673,0 17.18096435,-9.31815389,0</coordinates></LinearRing></outerBoundaryIs></Polygon>
</Placemark>
<Placemark>
<name>Retração prioritária</name><styleUrl>#poly</styleUrl>
<description><![CDATA[<b>id:</b> RET_CLUSTER_3<br/><b>n_pontos:</b> 2<br/><b>dist_mediana_borda_km:</b> 152.9<br/><b>criterio:</b> &gt;=2 pontos não vermelhos internos agrupados em até 50 km<br/><b>tipo:</b> Retração prioritária<br/>]]></description>
<Polygon><tessellate>1</tessellate><outerBoundaryIs><LinearRing><coordinates>15.96131749,-11.27222542,0 15.96280988,-11.26447061,0 15.96528121,-11.25686609,0 15.96870768,-11.24948508,0 15.97305631,-11.24239865,0 15.97828520,-11.23567501,0 15.98434401,-11.22937890,0 15.99117438,-11.22357091,0 15.99871053,-11.21830696,0 16.00687988,-11.21363770,0 16.01560376,-11.20960808,0 16.02479816,-11.20625688,0 16.03437452,-11.20361634,0 16.04424062,-11.20171188,0 16.05430145,-11.20056183,0 16.06446011,-11.20017724,0 16.07461877,-11.20056183,0 16.08467960,-11.20171188,0 16.09454570,-11.20361634,0 16.10412206,-11.20625688,0 16.11331646,-11.20960808,0 16.12204034,-11.21363770,0 16.13020969,-11.21830696,0 16.13774584,-11.22357091,0 16.14457621,-11.22937890,0 16.15063502,-11.23567501,0 16.15586391,-11.24239865,0 16.16021254,-11.24948508,0 16.16363901,-11.25686609,0 16.16611034,-11.26447061,0 16.16760273,-11.27222542,0 16.16810179,-11.28005585,0 16.16810179,-11.59978844,0 16.16760273,-11.60762770,0 16.16611034,-11.61539167,0 16.16363901,-11.62300558,0 16.16021254,-11.63039608,0 16.15586391,-11.63749198,0 16.15063502,-11.64422492,0 16.14457621,-11.65053003,0 16.13774584,-11.65634655,0 16.13020969,-11.66161845,0 16.12204034,-11.66629491,0 16.11331646,-11.67033086,0 16.10412206,-11.67368742,0 16.09454570,-11.67633224,0 16.08467960,-11.67823981,0 16.07461877,-11.67939176,0 16.06446011,-11.67977698,0 16.05430145,-11.67939176,0 16.04424062,-11.67823981,0 16.03437452,-11.67633224,0 16.02479816,-11.67368742,0 16.01560376,-11.67033086,0 16.00687988,-11.66629491,0 15.99871053,-11.66161845,0 15.99117438,-11.65634655,0 15.98434401,-11.65053003,0 15.97828520,-11.64422492,0 15.97305631,-11.63749198,0 15.96870768,-11.63039608,0 15.96528121,-11.62300558,0 15.96280988,-11.61539167,0 15.96131749,-11.60762770,0 15.96081843,-11.59978844,0 15.96081843,-11.28005585,0 15.96131749,-11.27222542,0</coordinates></LinearRing></outerBoundaryIs></Polygon>
</Placemark>
<Placemark>
<name>Retração prioritária</name><styleUrl>#poly</styleUrl>
<description><![CDATA[<b>id:</b> RET_CLUSTER_4<br/><b>n_pontos:</b> 2<br/><b>dist_mediana_borda_km:</b> 75.2<br/><b>criterio:</b> &gt;=2 pontos não vermelhos internos agrupados em até 50 km<br/><b>tipo:</b> Retração prioritária<br/>]]></description>
<Polygon><tessellate>1</tessellate><outerBoundaryIs><LinearRing><coordinates>16.35945393,-16.81543456,0 16.35361976,-16.82200986,0 16.34699708,-16.82810238,0 16.33964967,-16.83365339,0 16.33164828,-16.83860939,0 16.32306998,-16.84292260,0 16.31399737,-16.84655143,0 16.30451784,-16.84946090,0 16.29472267,-16.85162296,0 16.28470619,-16.85301676,0 16.27456488,-16.85362886,0 16.26439640,-16.85345336,0 16.25429868,-16.85249195,0 16.24436895,-16.85075390,0 16.23470286,-16.84825597,0 16.22539349,-16.84502224,0 16.21653050,-16.84108390,0 16.20819923,-16.83647891,0 16.20047994,-16.83125167,0 16.19344694,-16.82545257,0 16.18716799,-16.81913750,0 16.18170355,-16.81236733,0 16.17710623,-16.80520730,0 16.17342033,-16.79772641,0 16.17068133,-16.78999674,0 16.16891562,-16.78209274,0 16.16814019,-16.77409056,0 16.16836252,-16.76606727,0 16.16958047,-16.75810014,0 16.17178230,-16.75026588,0 16.17494681,-16.74263992,0 16.17904353,-16.73529567,0 16.38632689,-16.40851788,0 16.39131635,-16.40153760,0 16.39715052,-16.39497633,0 16.40377320,-16.38889719,0 16.41112061,-16.38335870,0 16.41912200,-16.37841415,0 16.42770030,-16.37411111,0 16.43677291,-16.37049097,0 16.44625244,-16.36758856,0 16.45604761,-16.36543181,0 16.46606409,-16.36404146,0 16.47620540,-16.36343088,0 16.48637388,-16.36360594,0 16.49647160,-16.36456497,0 16.50640133,-16.36629873,0 16.51606742,-16.36879056,0 16.52537679,-16.37201647,0 16.53423978,-16.37594545,0 16.54257105,-16.38053968,0 16.55029034,-16.38575497,0 16.55732334,-16.39154114,0 16.56360229,-16.39784251,0 16.56906673,-16.40459845,0 16.57366405,-16.41174392,0 16.57734995,-16.41921016,0 16.58008895,-16.42692530,0 16.58185466,-16.43481505,0 16.58263009,-16.44280346,0 16.58240776,-16.45081359,0 16.58118981,-16.45876830,0 16.57898798,-16.46659097,0 16.57582347,-16.47420625,0 16.57172675,-16.48154077,0 16.36444339,-16.80843984,0 16.35945393,-16.81543456,0</coordinates></LinearRing></outerBoundaryIs></Polygon>
</Placemark>
<Placemark>
<name>Retração prioritária</name><styleUrl>#poly</styleUrl>
<description><![CDATA[<b>id:</b> RET_CLUSTER_5<br/><b>n_pontos:</b> 2<br/><b>dist_mediana_borda_km:</b> 25.8<br/><b>criterio:</b> &gt;=2 pontos não vermelhos internos agrupados em até 50 km<br/><b>tipo:</b> Retração prioritária<br/>]]></description>
<Polygon><tessellate>1</tessellate><outerBoundaryIs><LinearRing><coordinates>19.06956971,-15.96375231,0 19.06807732,-15.97165887,0 19.06560599,-15.97941270,0 19.06217952,-15.98693910,0 19.05783089,-15.99416556,0 19.05260200,-16.00102244,0 19.04654319,-16.00744368,0 19.03971282,-16.01336740,0 19.03217667,-16.01873648,0 19.02400732,-16.02349919,0 19.01528344,-16.02760961,0 19.00608904,-16.03102812,0 18.99651268,-16.03372175,0 18.98664658,-16.03566455,0 18.97658575,-16.03683777,0 18.96642709,-16.03723010,0 18.95626843,-16.03683777,0 18.94620760,-16.03566455,0 18.93634150,-16.03372175,0 18.92676514,-16.03102812,0 18.91757074,-16.02760961,0 18.90884686,-16.02349919,0 18.90067751,-16.01873648,0 18.89314136,-16.01336740,0 18.88631099,-16.00744368,0 18.88025218,-16.00102244,0 18.87502329,-15.99416556,0 18.87067466,-15.98693910,0 18.86724819,-15.97941270,0 18.86477686,-15.97165887,0 18.86328447,-15.96375231,0 18.86278541,-15.95576918,0 18.86278541,-15.63024629,0 18.86328447,-15.62227596,0 18.86477686,-15.61438268,0 18.86724819,-15.60664247,0 18.87067466,-15.59912984,0 18.87502329,-15.59191711,0 18.88025218,-15.58507371,0 18.88631099,-15.57866551,0 18.89314136,-15.57275419,0 18.90067751,-15.56739662,0 18.90884686,-15.56264435,0 18.91757074,-15.55854312,0 18.92676514,-15.55513238,0 18.93634150,-15.55244495,0 18.94620760,-15.55050667,0 18.95626843,-15.54933619,0 18.96642709,-15.54894478,0 18.97658575,-15.54933619,0 18.98664658,-15.55050667,0 18.99651268,-15.55244495,0 19.00608904,-15.55513238,0 19.01528344,-15.55854312,0 19.02400732,-15.56264435,0 19.03217667,-15.56739662,0 19.03971282,-15.57275419,0 19.04654319,-15.57866551,0 19.05260200,-15.58507371,0 19.05783089,-15.59191711,0 19.06217952,-15.59912984,0 19.06560599,-15.60664247,0 19.06807732,-15.61438268,0 19.06956971,-15.62227596,0 19.07006877,-15.63024629,0 19.07006877,-15.95576918,0 19.06956971,-15.96375231,0</coordinates></LinearRing></outerBoundaryIs></Polygon>
</Placemark>
</Document></kml>