<?xml version="1.0" encoding="UTF-8"?>
<kml xmlns="http://www.opengis.net/kml/2.2"><Document>
<name>Áreas internas sob revisão</name>
<Style id="poly"><LineStyle>
<color>ffff00ff</color><width>2</width></LineStyle><PolyStyle>
<color>33ff00ff</color></PolyStyle></Style>
<Placemark>
<name>Revisão interna; sem retração automática</name><styleUrl>#poly</styleUrl>
<description><![CDATA[<b>id:</b> RET_REV_4<br/><b>n_pontos:</b> 1<br/><b>dist_mediana_borda_km:</b> 190.0<br/><b>criterio:</b> Ponto não vermelho interno isolado<br/><b>tipo:</b> Revisão interna; sem retração automática<br/>]]></description>
<Polygon><tessellate>1</tessellate><outerBoundaryIs><LinearRing><coordinates>17.38036007,-9.85084679,0 17.37931540,-9.85625087,0 17.37758547,-9.86155043,0 17.37518694,-9.86669444,0 17.37214290,-9.87163335,0 17.36848267,-9.87631959,0 17.36424151,-9.88070800,0 17.35946025,-9.88475632,0 17.35418495,-9.88842554,0 17.34846640,-9.89168032,0 17.34235968,-9.89448930,0 17.33592361,-9.89682542,0 17.32922015,-9.89866616,0 17.32231388,-9.89999379,0 17.31527130,-9.90079552,0 17.30816024,-9.90106362,0 17.30104918,-9.90079552,0 17.29400660,-9.89999379,0 17.28710033,-9.89866616,0 17.28039687,-9.89682542,0 17.27396080,-9.89448930,0 17.26785408,-9.89168032,0 17.26213553,-9.88842554,0 17.25686023,-9.88475632,0 17.25207897,-9.88070800,0 17.24783781,-9.87631959,0 17.24417758,-9.87163335,0 17.24113354,-9.86669444,0 17.23873501,-9.86155043,0 17.23700508,-9.85625087,0 17.23596041,-9.85084679,0 17.23561107,-9.84539025,0 17.23596041,-9.83993380,0 17.23700508,-9.83452998,0 17.23873501,-9.82923084,0 17.24113354,-9.82408739,0 17.24417758,-9.81914918,0 17.24783781,-9.81446374,0 17.25207897,-9.81007618,0 17.25686023,-9.80602875,0 17.26213553,-9.80236042,0 17.26785408,-9.79910650,0 17.27396080,-9.79629831,0 17.28039687,-9.79396289,0 17.28710033,-9.79212272,0 17.29400660,-9.79079551,0 17.30104918,-9.78999404,0 17.30816024,-9.78972602,0 17.31527130,-9.78999404,0 17.32231388,-9.79079551,0 17.32922015,-9.79212272,0 17.33592361,-9.79396289,0 17.34235968,-9.79629831,0 17.34846640,-9.79910650,0 17.35418495,-9.80236042,0 17.35946025,-9.80602875,0 17.36424151,-9.81007618,0 17.36848267,-9.81446374,0 17.37214290,-9.81914918,0 17.37518694,-9.82408739,0 17.37758547,-9.82923084,0 17.37931540,-9.83452998,0 17.38036007,-9.83993380,0 17.38070941,-9.84539025,0 17.38036007,-9.85084679,0</coordinates></LinearRing></outerBoundaryIs></Polygon>
</Placemark>
<Placemark>
<name>Revisão interna; sem retração automática</name><styleUrl>#poly</styleUrl>
<description><![CDATA[<b>id:</b> RET_REV_5<br/><b>n_pontos:</b> 1<br/><b>dist_mediana_borda_km:</b> 177.5<br/><b>criterio:</b> Ponto não vermelho interno isolado<br/><b>tipo:</b> Revisão interna; sem retração automática<br/>]]></description>
<Polygon><tessellate>1</tessellate><outerBoundaryIs><LinearRing><coordinates>16.75851001,-9.69182766,0 16.75746534,-9.69722922,0 16.75573541,-9.70252632,0 16.75333688,-9.70766793,0 16.75029284,-9.71260454,0 16.74663261,-9.71728859,0 16.74239145,-9.72167495,0 16.73761019,-9.72572138,0 16.73233489,-9.72938889,0 16.72661634,-9.73264215,0 16.72050962,-9.73544981,0 16.71407355,-9.73778484,0 16.70737009,-9.73962471,0 16.70046382,-9.74095172,0 16.69342124,-9.74175308,0 16.68631018,-9.74202106,0 16.67919912,-9.74175308,0 16.67215654,-9.74095172,0 16.66525027,-9.73962471,0 16.65854681,-9.73778484,0 16.65211074,-9.73544981,0 16.64600402,-9.73264215,0 16.64028547,-9.72938889,0 16.63501017,-9.72572138,0 16.63022891,-9.72167495,0 16.62598775,-9.71728859,0 16.62232752,-9.71260454,0 16.61928348,-9.70766793,0 16.61688495,-9.70252632,0 16.61515502,-9.69722922,0 16.61411035,-9.69182766,0 16.61376101,-9.68637366,0 16.61411035,-9.68091975,0 16.61515502,-9.67551844,0 16.61688495,-9.67022176,0 16.61928348,-9.66508070,0 16.62232752,-9.66014478,0 16.62598775,-9.65546151,0 16.63022891,-9.65107599,0 16.63501017,-9.64703043,0 16.64028547,-9.64336380,0 16.64600402,-9.64011138,0 16.65211074,-9.63730449,0 16.65854681,-9.63497015,0 16.66525027,-9.63313083,0 16.67215654,-9.63180424,0 16.67919912,-9.63100314,0 16.68631018,-9.63073525,0 16.69342124,-9.63100314,0 16.70046382,-9.63180424,0 16.70737009,-9.63313083,0 16.71407355,-9.63497015,0 16.72050962,-9.63730449,0 16.72661634,-9.64011138,0 16.73233489,-9.64336380,0 16.73761019,-9.64703043,0 16.74239145,-9.65107599,0 16.74663261,-9.65546151,0 16.75029284,-9.66014478,0 16.75333688,-9.66508070,0 16.75573541,-9.67022176,0 16.75746534,-9.67551844,0 16.75851001,-9.68091975,0 16.75885935,-9.68637366,0 16.75851001,-9.69182766,0</coordinates></LinearRing></outerBoundaryIs></Polygon>
</Placemark>
<Placemark>
<name>Revisão interna; sem retração automática</name><styleUrl>#poly</styleUrl>
<description><![CDATA[<b>id:</b> RET_REV_6<br/><b>n_pontos:</b> 1<br/><b>dist_mediana_borda_km:</b> 223.7<br/><b>criterio:</b> Ponto não vermelho interno isolado<br/><b>tipo:</b> Revisão interna; sem retração automática<br/>]]></description>
<Polygon><tessellate>1</tessellate><outerBoundaryIs><LinearRing><coordinates>16.55122665,-10.16911039,0 16.55018198,-10.17451963,0 16.54845205,-10.17982427,0 16.54605352,-10.18497320,0 16.54300948,-10.18991684,0 16.53934925,-10.19460756,0 16.53510809,-10.19900018,0 16.53032683,-10.20305238,0 16.52505153,-10.20672512,0 16.51933298,-10.20998302,0 16.51322626,-10.21279470,0 16.50679019,-10.21513305,0 16.50008673,-10.21697556,0 16.49318046,-10.21830447,0 16.48613788,-10.21910697,0 16.47902682,-10.21937533,0 16.47191576,-10.21910697,0 16.46487318,-10.21830447,0 16.45796691,-10.21697556,0 16.45126345,-10.21513305,0 16.44482738,-10.21279470,0 16.43872066,-10.20998302,0 16.43300211,-10.20672512,0 16.42772681,-10.20305238,0 16.42294555,-10.19900018,0 16.41870439,-10.19460756,0 16.41504416,-10.18991684,0 16.41200012,-10.18497320,0 16.40960159,-10.17982427,0 16.40787166,-10.17451963,0 16.40682699,-10.16911039,0 16.40647765,-10.16364864,0 16.40682699,-10.15818698,0 16.40787166,-10.15277801,0 16.40960159,-10.14747381,0 16.41200012,-10.14232547,0 16.41504416,-10.13738255,0 16.41870439,-10.13269264,0 16.42294555,-10.12830091,0 16.42772681,-10.12424963,0 16.43300211,-10.12057781,0 16.43872066,-10.11732080,0 16.44482738,-10.11450994,0 16.45126345,-10.11217230,0 16.45796691,-10.11033038,0 16.46487318,-10.10900191,0 16.47191576,-10.10819968,0 16.47902682,-10.10793141,0 16.48613788,-10.10819968,0 16.49318046,-10.10900191,0 16.50008673,-10.11033038,0 16.50679019,-10.11217230,0 16.51322626,-10.11450994,0 16.51933298,-10.11732080,0 16.52505153,-10.12057781,0 16.53032683,-10.12424963,0 16.53510809,-10.12830091,0 16.53934925,-10.13269264,0 16.54300948,-10.13738255,0 16.54605352,-10.14232547,0 16.54845205,-10.14747381,0 16.55018198,-10.15277801,0 16.55122665,-10.15818698,0 16.55157599,-10.16364864,0 16.55122665,-10.16911039,0</coordinates></LinearRing></outerBoundaryIs></Polygon>
</Placemark>
<Placemark>
<name>Revisão interna; sem retração automática</name><styleUrl>#poly</styleUrl>
<description><![CDATA[<b>id:</b> RET_REV_7<br/><b>n_pontos:</b> 1<br/><b>dist_mediana_borda_km:</b> 39.7<br/><b>criterio:</b> Ponto não vermelho interno isolado<br/><b>tipo:</b> Revisão interna; sem retração automática<br/>]]></description>
<Polygon><tessellate>1</tessellate><outerBoundaryIs><LinearRing><coordinates>16.75851001,-8.26380340,0 16.75746534,-8.26918428,0 16.75573541,-8.27446109,0 16.75333688,-8.27958299,0 16.75029284,-8.28450066,0 16.74663261,-8.28916673,0 16.74239145,-8.29353625,0 16.73761019,-8.29756713,0 16.73233489,-8.30122055,0 16.72661634,-8.30446130,0 16.72050962,-8.30725817,0 16.71407355,-8.30958420,0 16.70737009,-8.31141700,0 16.70046382,-8.31273890,0 16.69342124,-8.31353717,0 16.68631018,-8.31380412,0 16.67919912,-8.31353717,0 16.67215654,-8.31273890,0 16.66525027,-8.31141700,0 16.65854681,-8.30958420,0 16.65211074,-8.30725817,0 16.64600402,-8.30446130,0 16.64028547,-8.30122055,0 16.63501017,-8.29756713,0 16.63022891,-8.29353625,0 16.62598775,-8.28916673,0 16.62232752,-8.28450066,0 16.61928348,-8.27958299,0 16.61688495,-8.27446109,0 16.61515502,-8.26918428,0 16.61411035,-8.26380340,0 16.61376101,-8.25837027,0 16.61411035,-8.25293721,0 16.61515502,-8.24755655,0 16.61688495,-8.24228010,0 16.61928348,-8.23715866,0 16.62232752,-8.23224157,0 16.62598775,-8.22757615,0 16.63022891,-8.22320734,0 16.63501017,-8.21917720,0 16.64028547,-8.21552452,0 16.64600402,-8.21228448,0 16.65211074,-8.20948827,0 16.65854681,-8.20716281,0 16.66525027,-8.20533048,0 16.67215654,-8.20400893,0 16.67919912,-8.20321088,0 16.68631018,-8.20294400,0 16.69342124,-8.20321088,0 16.70046382,-8.20400893,0 16.70737009,-8.20533048,0 16.71407355,-8.20716281,0 16.72050962,-8.20948827,0 16.72661634,-8.21228448,0 16.73233489,-8.21552452,0 16.73761019,-8.21917720,0 16.74239145,-8.22320734,0 16.74663261,-8.22757615,0 16.75029284,-8.23224157,0 16.75333688,-8.23715866,0 16.75573541,-8.24228010,0 16.75746534,-8.24755655,0 16.75851001,-8.25293721,0 16.75885935,-8.25837027,0 16.75851001,-8.26380340,0</coordinates></LinearRing></outerBoundaryIs></Polygon>
</Placemark>
<Placemark>
<name>Revisão interna; sem retração automática</name><styleUrl>#poly</styleUrl>
<description><![CDATA[<b>id:</b> RET_REV_17<br/><b>n_pontos:</b> 1<br/><b>dist_mediana_borda_km:</b> 106.8<br/><b>criterio:</b> Ponto não vermelho interno isolado<br/><b>tipo:</b> Revisão interna; sem retração automática<br/>]]></description>
<Polygon><tessellate>1</tessellate><outerBoundaryIs><LinearRing><coordinates>15.30752651,-10.00994059,0 15.30648184,-10.01534723,0 15.30475191,-10.02064931,0 15.30235338,-10.02579576,0 15.29930934,-10.03073701,0 15.29564911,-10.03542547,0 15.29140795,-10.03981597,0 15.28662669,-10.04386621,0 15.28135139,-10.04753718,0 15.27563284,-10.05079351,0 15.26952612,-10.05360382,0 15.26309005,-10.05594105,0 15.25638659,-10.05778267,0 15.24948032,-10.05911093,0 15.24243774,-10.05991304,0 15.23532668,-10.06018127,0 15.22821562,-10.05991304,0 15.22117304,-10.05911093,0 15.21426677,-10.05778267,0 15.20756331,-10.05594105,0 15.20112724,-10.05360382,0 15.19502052,-10.05079351,0 15.18930197,-10.04753718,0 15.18402667,-10.04386621,0 15.17924541,-10.03981597,0 15.17500425,-10.03542547,0 15.17134402,-10.03073701,0 15.16829998,-10.02579576,0 15.16590145,-10.02064931,0 15.16417152,-10.01534723,0 15.16312685,-10.00994059,0 15.16277751,-10.00448147,0 15.16312685,-9.99902244,0 15.16417152,-9.99361606,0 15.16590145,-9.98831442,0 15.16829998,-9.98316854,0 15.17134402,-9.97822799,0 15.17500425,-9.97354034,0 15.17924541,-9.96915072,0 15.18402667,-9.96510138,0 15.18930197,-9.96143132,0 15.19502052,-9.95817586,0 15.20112724,-9.95536635,0 15.20756331,-9.95302983,0 15.21426677,-9.95118879,0 15.22117304,-9.94986096,0 15.22821562,-9.94905911,0 15.23532668,-9.94879097,0 15.24243774,-9.94905911,0 15.24948032,-9.94986096,0 15.25638659,-9.95118879,0 15.26309005,-9.95302983,0 15.26952612,-9.95536635,0 15.27563284,-9.95817586,0 15.28135139,-9.96143132,0 15.28662669,-9.96510138,0 15.29140795,-9.96915072,0 15.29564911,-9.97354034,0 15.29930934,-9.97822799,0 15.30235338,-9.98316854,0 15.30475191,-9.98831442,0 15.30648184,-9.99361606,0 15.30752651,-9.99902244,0 15.30787585,-10.00448147,0 15.30752651,-10.00994059,0</coordinates></LinearRing></outerBoundaryIs></Polygon>
</Placemark>
<Placemark>
<name>Revisão interna; sem retração automática</name><styleUrl>#poly</styleUrl>
<description><![CDATA[<b>id:</b> RET_REV_18<br/><b>n_pontos:</b> 1<br/><b>dist_mediana_borda_km:</b> 59.4<br/><b>criterio:</b> Ponto não vermelho interno isolado<br/><b>tipo:</b> Revisão interna; sem retração automática<br/>]]></description>
<Polygon><tessellate>1</tessellate><outerBoundaryIs><LinearRing><coordinates>14.89295980,-10.96614516,0 14.89191513,-10.97156810,0 14.89018520,-10.97688617,0 14.88778667,-10.98204816,0 14.88474263,-10.98700433,0 14.88108240,-10.99170695,0 14.87684124,-10.99611072,0 14.87205998,-11.00017321,0 14.86678468,-11.00385529,0 14.86106613,-11.00712147,0 14.85495941,-11.00994029,0 14.84852334,-11.01228459,0 14.84181988,-11.01413178,0 14.83491361,-11.01546407,0 14.82787103,-11.01626861,0 14.82075997,-11.01653766,0 14.81364891,-11.01626861,0 14.80660633,-11.01546407,0 14.79970006,-11.01413178,0 14.79299660,-11.01228459,0 14.78656053,-11.00994029,0 14.78045381,-11.00712147,0 14.77473526,-11.00385529,0 14.76945996,-11.00017321,0 14.76467870,-10.99611072,0 14.76043754,-10.99170695,0 14.75677731,-10.98700433,0 14.75373327,-10.98204816,0 14.75133474,-10.97688617,0 14.74960481,-10.97156810,0 14.74856014,-10.96614516,0 14.74821080,-10.96066959,0 14.74856014,-10.95519411,0 14.74960481,-10.94977147,0 14.75133474,-10.94445387,0 14.75373327,-10.93929253,0 14.75677731,-10.93433713,0 14.76043754,-10.92963540,0 14.76467870,-10.92523259,0 14.76945996,-10.92117111,0 14.77473526,-10.91749003,0 14.78045381,-10.91422482,0 14.78656053,-10.91140688,0 14.79299660,-10.90906336,0 14.79970006,-10.90721680,0 14.80660633,-10.90588499,0 14.81364891,-10.90508074,0 14.82075997,-10.90481180,0 14.82787103,-10.90508074,0 14.83491361,-10.90588499,0 14.84181988,-10.90721680,0 14.84852334,-10.90906336,0 14.85495941,-10.91140688,0 14.86106613,-10.91422482,0 14.86678468,-10.91749003,0 14.87205998,-10.92117111,0 14.87684124,-10.92523259,0 14.88108240,-10.92963540,0 14.88474263,-10.93433713,0 14.88778667,-10.93929253,0 14.89018520,-10.94445387,0 14.89191513,-10.94977147,0 14.89295980,-10.95519411,0 14.89330914,-10.96066959,0 14.89295980,-10.96614516,0</coordinates></LinearRing></outerBoundaryIs></Polygon>
</Placemark>
<Placemark>
<name>Revisão interna; sem retração automática</name><styleUrl>#poly</styleUrl>
<description><![CDATA[<b>id:</b> RET_REV_22<br/><b>n_pontos:</b> 1<br/><b>dist_mediana_borda_km:</b> 45.1<br/><b>criterio:</b> Ponto não vermelho interno isolado<br/><b>tipo:</b> Revisão interna; sem retração automática<br/>]]></description>
<Polygon><tessellate>1</tessellate><outerBoundaryIs><LinearRing><coordinates>15.10223931,-11.92816520,0 15.10119465,-11.93360614,0 15.09946471,-11.93894187,0 15.09706618,-11.94412100,0 15.09402214,-11.94909365,0 15.09036192,-11.95381191,0 15.08612075,-11.95823033,0 15.08133950,-11.96230634,0 15.07606419,-11.96600067,0 15.07034564,-11.96927773,0 15.06423893,-11.97210594,0 15.05780285,-11.97445805,0 15.05109940,-11.97631140,0 15.04419312,-11.97764813,0 15.03715055,-11.97845535,0 15.03003948,-11.97872530,0 15.02292842,-11.97845535,0 15.01588584,-11.97764813,0 15.00897957,-11.97631140,0 15.00227612,-11.97445805,0 14.99584004,-11.97210594,0 14.98973332,-11.96927773,0 14.98401477,-11.96600067,0 14.97873947,-11.96230634,0 14.97395821,-11.95823033,0 14.96971705,-11.95381191,0 14.96605682,-11.94909365,0 14.96301278,-11.94412100,0 14.96061425,-11.93894187,0 14.95888432,-11.93360614,0 14.95783965,-11.92816520,0 14.95749031,-11.92267147,0 14.95783965,-11.91717784,0 14.95888432,-11.91173722,0 14.96061425,-11.90640201,0 14.96301278,-11.90122358,0 14.96605682,-11.89625179,0 14.96971705,-11.89153450,0 14.97395821,-11.88711714,0 14.97873947,-11.88304223,0 14.98401477,-11.87934900,0 14.98973332,-11.87607300,0 14.99584004,-11.87324576,0 15.00227612,-11.87089451,0 15.00897957,-11.86904186,0 15.01588584,-11.86770565,0 15.02292842,-11.86689875,0 15.03003948,-11.86662892,0 15.03715055,-11.86689875,0 15.04419312,-11.86770565,0 15.05109940,-11.86904186,0 15.05780285,-11.87089451,0 15.06423893,-11.87324576,0 15.07034564,-11.87607300,0 15.07606419,-11.87934900,0 15.08133950,-11.88304223,0 15.08612075,-11.88711714,0 15.09036192,-11.89153450,0 15.09402214,-11.89625179,0 15.09706618,-11.90122358,0 15.09946471,-11.90640201,0 15.10119465,-11.91173722,0 15.10223931,-11.91717784,0 15.10258866,-11.92267147,0 15.10223931,-11.92816520,0</coordinates></LinearRing></outerBoundaryIs></Polygon>
</Placemark>
<Placemark>
<name>Revisão interna; sem retração automática</name><styleUrl>#poly</styleUrl>
<description><![CDATA[<b>id:</b> RET_REV_23<br/><b>n_pontos:</b> 1<br/><b>dist_mediana_borda_km:</b> 85.6<br/><b>criterio:</b> Ponto não vermelho interno isolado<br/><b>tipo:</b> Revisão interna; sem retração automática<br/>]]></description>
<Polygon><tessellate>1</tessellate><outerBoundaryIs><LinearRing><coordinates>15.30777852,-11.28541095,0 15.30673385,-11.29083969,0 15.30500392,-11.29616344,0 15.30260538,-11.30133095,0 15.29956135,-11.30629243,0 15.29590112,-11.31100008,0 15.29165996,-11.31540857,0 15.28687870,-11.31947541,0 15.28160340,-11.32316143,0 15.27588485,-11.32643111,0 15.26977813,-11.32925296,0 15.26334205,-11.33159978,0 15.25663860,-11.33344895,0 15.24973233,-11.33478267,0 15.24268975,-11.33558807,0 15.23557869,-11.33585741,0 15.22846762,-11.33558807,0 15.22142504,-11.33478267,0 15.21451877,-11.33344895,0 15.20781532,-11.33159978,0 15.20137924,-11.32925296,0 15.19527252,-11.32643111,0 15.18955398,-11.32316143,0 15.18427867,-11.31947541,0 15.17949742,-11.31540857,0 15.17525625,-11.31100008,0 15.17159603,-11.30629243,0 15.16855199,-11.30133095,0 15.16615345,-11.29616344,0 15.16442352,-11.29083969,0 15.16337886,-11.28541095,0 15.16302951,-11.27992953,0 15.16337886,-11.27444822,0 15.16442352,-11.26901979,0 15.16615345,-11.26369652,0 15.16855199,-11.25852967,0 15.17159603,-11.25356900,0 15.17525625,-11.24886226,0 15.17949742,-11.24445477,0 15.18427867,-11.24038896,0 15.18955398,-11.23670398,0 15.19527252,-11.23343529,0 15.20137924,-11.23061436,0 15.20781532,-11.22826835,0 15.21451877,-11.22641983,0 15.22142504,-11.22508660,0 15.22846762,-11.22428150,0 15.23557869,-11.22401227,0 15.24268975,-11.22428150,0 15.24973233,-11.22508660,0 15.25663860,-11.22641983,0 15.26334205,-11.22826835,0 15.26977813,-11.23061436,0 15.27588485,-11.23343529,0 15.28160340,-11.23670398,0 15.28687870,-11.24038896,0 15.29165996,-11.24445477,0 15.29590112,-11.24886226,0 15.29956135,-11.25356900,0 15.30260538,-11.25852967,0 15.30500392,-11.26369652,0 15.30673385,-11.26901979,0 15.30777852,-11.27444822,0 15.30812786,-11.27992953,0 15.30777852,-11.28541095,0</coordinates></LinearRing></outerBoundaryIs></Polygon>
</Placemark>
<Placemark>
<name>Revisão interna; sem retração automática</name><styleUrl>#poly</styleUrl>
<description><![CDATA[<b>id:</b> RET_REV_25<br/><b>n_pontos:</b> 1<br/><b>dist_mediana_borda_km:</b> 26.9<br/><b>criterio:</b> Ponto não vermelho interno isolado<br/><b>tipo:</b> Revisão interna; sem retração automática<br/>]]></description>
<Polygon><tessellate>1</tessellate><outerBoundaryIs><LinearRing><coordinates>16.55122665,-6.68295502,0 16.55018198,-6.68831696,0 16.54845205,-6.69357518,0 16.54605352,-6.69867903,0 16.54300948,-6.70357935,0 16.53934925,-6.70822896,0 16.53510809,-6.71258305,0 16.53032683,-6.71659969,0 16.52505153,-6.72024019,0 16.51933298,-6.72346947,0 16.51322626,-6.72625644,0 16.50679019,-6.72857425,0 16.50008673,-6.73040056,0 16.49318046,-6.73171778,0 16.48613788,-6.73251322,0 16.47902682,-6.73277922,0 16.47191576,-6.73251322,0 16.46487318,-6.73171778,0 16.45796691,-6.73040056,0 16.45126345,-6.72857425,0 16.44482738,-6.72625644,0 16.43872066,-6.72346947,0 16.43300211,-6.72024019,0 16.42772681,-6.71659969,0 16.42294555,-6.71258305,0 16.41870439,-6.70822896,0 16.41504416,-6.70357935,0 16.41200012,-6.69867903,0 16.40960159,-6.69357518,0 16.40787166,-6.68831696,0 16.40682699,-6.68295502,0 16.40647765,-6.67754099,0 16.40682699,-6.67212703,0 16.40787166,-6.66676526,0 16.40960159,-6.66150732,0 16.41200012,-6.65640385,0 16.41504416,-6.65150398,0 16.41870439,-6.64685490,0 16.42294555,-6.64250138,0 16.42772681,-6.63848533,0 16.43300211,-6.63484543,0 16.43872066,-6.63161671,0 16.44482738,-6.62883026,0 16.45126345,-6.62651292,0 16.45796691,-6.62468699,0 16.46487318,-6.62337005,0 16.47191576,-6.62257478,0 16.47902682,-6.62230883,0 16.48613788,-6.62257478,0 16.49318046,-6.62337005,0 16.50008673,-6.62468699,0 16.50679019,-6.62651292,0 16.51322626,-6.62883026,0 16.51933298,-6.63161671,0 16.52505153,-6.63484543,0 16.53032683,-6.63848533,0 16.53510809,-6.64250138,0 16.53934925,-6.64685490,0 16.54300948,-6.65150398,0 16.54605352,-6.65640385,0 16.54845205,-6.66150732,0 16.55018198,-6.66676526,0 16.55122665,-6.67212703,0 16.55157599,-6.67754099,0 16.55122665,-6.68295502,0</coordinates></LinearRing></outerBoundaryIs></Polygon>
</Placemark>
<Placemark>
<name>Revisão interna; sem retração automática</name><styleUrl>#poly</styleUrl>
<description><![CDATA[<b>id:</b> RET_REV_26<br/><b>n_pontos:</b> 1<br/><b>dist_mediana_borda_km:</b> 119.1<br/><b>criterio:</b> Ponto não vermelho interno isolado<br/><b>tipo:</b> Revisão interna; sem retração automática<br/>]]></description>
<Polygon><tessellate>1</tessellate><outerBoundaryIs><LinearRing><coordinates>17.79492679,-9.21520538,0 17.79388212,-9.22059966,0 17.79215219,-9.22588961,0 17.78975366,-9.23102428,0 17.78670962,-9.23595422,0 17.78304939,-9.24063193,0 17.77880823,-9.24501237,0 17.77402697,-9.24905332,0 17.76875167,-9.25271587,0 17.76303312,-9.25596472,0 17.75692640,-9.25876858,0 17.75049033,-9.26110044,0 17.74378687,-9.26293783,0 17.73688060,-9.26426304,0 17.72983802,-9.26506331,0 17.72272696,-9.26533092,0 17.71561590,-9.26506331,0 17.70857332,-9.26426304,0 17.70166705,-9.26293783,0 17.69496359,-9.26110044,0 17.68852752,-9.25876858,0 17.68242080,-9.25596472,0 17.67670225,-9.25271587,0 17.67142695,-9.24905332,0 17.66664569,-9.24501237,0 17.66240453,-9.24063193,0 17.65874430,-9.23595422,0 17.65570026,-9.23102428,0 17.65330173,-9.22588961,0 17.65157180,-9.22059966,0 17.65052713,-9.21520538,0 17.65017779,-9.20975873,0 17.65052713,-9.20431216,0 17.65157180,-9.19891813,0 17.65330173,-9.19362857,0 17.65570026,-9.18849443,0 17.65874430,-9.18356513,0 17.66240453,-9.17888816,0 17.66664569,-9.17450852,0 17.67142695,-9.17046840,0 17.67670225,-9.16680668,0 17.68242080,-9.16355862,0 17.68852752,-9.16075550,0 17.69496359,-9.15842428,0 17.70166705,-9.15658743,0 17.70857332,-9.15526261,0 17.71561590,-9.15446258,0 17.72272696,-9.15419505,0 17.72983802,-9.15446258,0 17.73688060,-9.15526261,0 17.74378687,-9.15658743,0 17.75049033,-9.15842428,0 17.75692640,-9.16075550,0 17.76303312,-9.16355862,0 17.76875167,-9.16680668,0 17.77402697,-9.17046840,0 17.77880823,-9.17450852,0 17.78304939,-9.17888816,0 17.78670962,-9.18356513,0 17.78975366,-9.18849443,0 17.79215219,-9.19362857,0 17.79388212,-9.19891813,0 17.79492679,-9.20431216,0 17.79527613,-9.20975873,0 17.79492679,-9.21520538,0</coordinates></LinearRing></outerBoundaryIs></Polygon>
</Placemark>
<Placemark>
<name>Revisão interna; sem retração automática</name><styleUrl>#poly</styleUrl>
<description><![CDATA[<b>id:</b> RET_REV_27<br/><b>n_pontos:</b> 1<br/><b>dist_mediana_borda_km:</b> 204.8<br/><b>criterio:</b> Ponto não vermelho interno isolado<br/><b>tipo:</b> Revisão interna; sem retração automática<br/>]]></description>
<Polygon><tessellate>1</tessellate><outerBoundaryIs><LinearRing><coordinates>18.62406021,-9.69182766,0 18.62301554,-9.69722922,0 18.62128561,-9.70252632,0 18.61888708,-9.70766793,0 18.61584304,-9.71260454,0 18.61218281,-9.71728859,0 18.60794165,-9.72167495,0 18.60316039,-9.72572138,0 18.59788509,-9.72938889,0 18.59216654,-9.73264215,0 18.58605982,-9.73544981,0 18.57962375,-9.73778484,0 18.57292029,-9.73962471,0 18.56601402,-9.74095172,0 18.55897144,-9.74175308,0 18.55186038,-9.74202106,0 18.54474932,-9.74175308,0 18.53770674,-9.74095172,0 18.53080047,-9.73962471,0 18.52409701,-9.73778484,0 18.51766094,-9.73544981,0 18.51155422,-9.73264215,0 18.50583567,-9.72938889,0 18.50056037,-9.72572138,0 18.49577911,-9.72167495,0 18.49153795,-9.71728859,0 18.48787772,-9.71260454,0 18.48483368,-9.70766793,0 18.48243515,-9.70252632,0 18.48070522,-9.69722922,0 18.47966055,-9.69182766,0 18.47931121,-9.68637366,0 18.47966055,-9.68091975,0 18.48070522,-9.67551844,0 18.48243515,-9.67022176,0 18.48483368,-9.66508070,0 18.48787772,-9.66014478,0 18.49153795,-9.65546151,0 18.49577911,-9.65107599,0 18.50056037,-9.64703043,0 18.50583567,-9.64336380,0 18.51155422,-9.64011138,0 18.51766094,-9.63730449,0 18.52409701,-9.63497015,0 18.53080047,-9.63313083,0 18.53770674,-9.63180424,0 18.54474932,-9.63100314,0 18.55186038,-9.63073525,0 18.55897144,-9.63100314,0 18.56601402,-9.63180424,0 18.57292029,-9.63313083,0 18.57962375,-9.63497015,0 18.58605982,-9.63730449,0 18.59216654,-9.64011138,0 18.59788509,-9.64336380,0 18.60316039,-9.64703043,0 18.60794165,-9.65107599,0 18.61218281,-9.65546151,0 18.61584304,-9.66014478,0 18.61888708,-9.66508070,0 18.62128561,-9.67022176,0 18.62301554,-9.67551844,0 18.62406021,-9.68091975,0 18.62440955,-9.68637366,0 18.62406021,-9.69182766,0</coordinates></LinearRing></outerBoundaryIs></Polygon>
</Placemark>
<Placemark>
<name>Revisão interna; sem retração automática</name><styleUrl>#poly</styleUrl>
<description><![CDATA[<b>id:</b> RET_REV_39<br/><b>n_pontos:</b> 1<br/><b>dist_mediana_borda_km:</b> 26.6<br/><b>criterio:</b> Ponto não vermelho interno isolado<br/><b>tipo:</b> Revisão interna; sem retração automática<br/>]]></description>
<Polygon><tessellate>1</tessellate><outerBoundaryIs><LinearRing><coordinates>21.52602720,-10.96614516,0 21.52498253,-10.97156810,0 21.52325260,-10.97688617,0 21.52085407,-10.98204816,0 21.51781003,-10.98700433,0 21.51414980,-10.99170695,0 21.50990864,-10.99611072,0 21.50512738,-11.00017321,0 21.49985208,-11.00385529,0 21.49413353,-11.00712147,0 21.48802681,-11.00994029,0 21.48159074,-11.01228459,0 21.47488728,-11.01413178,0 21.46798101,-11.01546407,0 21.46093843,-11.01626861,0 21.45382737,-11.01653766,0 21.44671631,-11.01626861,0 21.43967373,-11.01546407,0 21.43276746,-11.01413178,0 21.42606400,-11.01228459,0 21.41962793,-11.00994029,0 21.41352121,-11.00712147,0 21.40780266,-11.00385529,0 21.40252736,-11.00017321,0 21.39774610,-10.99611072,0 21.39350494,-10.99170695,0 21.38984471,-10.98700433,0 21.38680067,-10.98204816,0 21.38440214,-10.97688617,0 21.38267221,-10.97156810,0 21.38162754,-10.96614516,0 21.38127820,-10.96066959,0 21.38162754,-10.95519411,0 21.38267221,-10.94977147,0 21.38440214,-10.94445387,0 21.38680067,-10.93929253,0 21.38984471,-10.93433713,0 21.39350494,-10.92963540,0 21.39774610,-10.92523259,0 21.40252736,-10.92117111,0 21.40780266,-10.91749003,0 21.41352121,-10.91422482,0 21.41962793,-10.91140688,0 21.42606400,-10.90906336,0 21.43276746,-10.90721680,0 21.43967373,-10.90588499,0 21.44671631,-10.90508074,0 21.45382737,-10.90481180,0 21.46093843,-10.90508074,0 21.46798101,-10.90588499,0 21.47488728,-10.90721680,0 21.48159074,-10.90906336,0 21.48802681,-10.91140688,0 21.49413353,-10.91422482,0 21.49985208,-10.91749003,0 21.50512738,-10.92117111,0 21.50990864,-10.92523259,0 21.51414980,-10.92963540,0 21.51781003,-10.93433713,0 21.52085407,-10.93929253,0 21.52325260,-10.94445387,0 21.52498253,-10.94977147,0 21.52602720,-10.95519411,0 21.52637654,-10.96066959,0 21.52602720,-10.96614516,0</coordinates></LinearRing></outerBoundaryIs></Polygon>
</Placemark>
<Placemark>
<name>Revisão interna; sem retração automática</name><styleUrl>#poly</styleUrl>
<description><![CDATA[<b>id:</b> RET_REV_43<br/><b>n_pontos:</b> 1<br/><b>dist_mediana_borda_km:</b> 74.3<br/><b>criterio:</b> Ponto não vermelho interno isolado<br/><b>tipo:</b> Revisão interna; sem retração automática<br/>]]></description>
<Polygon><tessellate>1</tessellate><outerBoundaryIs><LinearRing><coordinates>20.28232706,-11.12579857,0 20.28128239,-11.13122439,0 20.27955246,-11.13654528,0 20.27715393,-11.14171000,0 20.27410989,-11.14666881,0 20.27044966,-11.15137393,0 20.26620850,-11.15578004,0 20.26142724,-11.15984469,0 20.25615194,-11.16352872,0 20.25043339,-11.16679664,0 20.24432667,-11.16961696,0 20.23789060,-11.17196251,0 20.23118714,-11.17381069,0 20.22428087,-11.17514369,0 20.21723829,-11.17594866,0 20.21012723,-11.17621784,0 20.20301617,-11.17594866,0 20.19597359,-11.17514369,0 20.18906732,-11.17381069,0 20.18236386,-11.17196251,0 20.17592779,-11.16961696,0 20.16982107,-11.16679664,0 20.16410252,-11.16352872,0 20.15882722,-11.15984469,0 20.15404596,-11.15578004,0 20.14980480,-11.15137393,0 20.14614457,-11.14666881,0 20.14310053,-11.14171000,0 20.14070200,-11.13654528,0 20.13897207,-11.13122439,0 20.13792740,-11.12579857,0 20.13757806,-11.12032010,0 20.13792740,-11.11484172,0 20.13897207,-11.10941621,0 20.14070200,-11.10409580,0 20.14310053,-11.09893172,0 20.14614457,-11.09397371,0 20.14980480,-11.08926949,0 20.15404596,-11.08486436,0 20.15882722,-11.08080073,0 20.16410252,-11.07711772,0 20.16982107,-11.07385077,0 20.17592779,-11.07103135,0 20.18236386,-11.06868660,0 20.18906732,-11.06683907,0 20.19597359,-11.06550656,0 20.20301617,-11.06470188,0 20.21012723,-11.06443279,0 20.21723829,-11.06470188,0 20.22428087,-11.06550656,0 20.23118714,-11.06683907,0 20.23789060,-11.06868660,0 20.24432667,-11.07103135,0 20.25043339,-11.07385077,0 20.25615194,-11.07711772,0 20.26142724,-11.08080073,0 20.26620850,-11.08486436,0 20.27044966,-11.08926949,0 20.27410989,-11.09397371,0 20.27715393,-11.09893172,0 20.27955246,-11.10409580,0 20.28128239,-11.10941621,0 20.28232706,-11.11484172,0 20.28267640,-11.12032010,0 20.28232706,-11.12579857,0</coordinates></LinearRing></outerBoundaryIs></Polygon>
</Placemark>
<Placemark>
<name>Revisão interna; sem retração automática</name><styleUrl>#poly</styleUrl>
<description><![CDATA[<b>id:</b> RET_REV_76<br/><b>n_pontos:</b> 1<br/><b>dist_mediana_borda_km:</b> 27.2<br/><b>criterio:</b> Ponto não vermelho interno isolado<br/><b>tipo:</b> Revisão interna; sem retração automática<br/>]]></description>
<Polygon><tessellate>1</tessellate><outerBoundaryIs><LinearRing><coordinates>20.90417713,-11.28553727,0 20.90313246,-11.29096601,0 20.90140253,-11.29628977,0 20.89900400,-11.30145727,0 20.89595996,-11.30641875,0 20.89229973,-11.31112641,0 20.88805857,-11.31553490,0 20.88327731,-11.31960174,0 20.87800201,-11.32328776,0 20.87228346,-11.32655745,0 20.86617674,-11.32937930,0 20.85974067,-11.33172611,0 20.85303721,-11.33357529,0 20.84613094,-11.33490901,0 20.83908836,-11.33571441,0 20.83197730,-11.33598374,0 20.82486624,-11.33571441,0 20.81782366,-11.33490901,0 20.81091739,-11.33357529,0 20.80421393,-11.33172611,0 20.79777786,-11.32937930,0 20.79167114,-11.32655745,0 20.78595259,-11.32328776,0 20.78067729,-11.31960174,0 20.77589603,-11.31553490,0 20.77165487,-11.31112641,0 20.76799464,-11.30641875,0 20.76495060,-11.30145727,0 20.76255207,-11.29628977,0 20.76082214,-11.29096601,0 20.75977747,-11.28553727,0 20.75942813,-11.28005585,0 20.75977747,-11.27457453,0 20.76082214,-11.26914610,0 20.76255207,-11.26382283,0 20.76495060,-11.25865598,0 20.76799464,-11.25369530,0 20.77165487,-11.24898856,0 20.77589603,-11.24458107,0 20.78067729,-11.24051526,0 20.78595259,-11.23683027,0 20.79167114,-11.23356158,0 20.79777786,-11.23074065,0 20.80421393,-11.22839464,0 20.81091739,-11.22654612,0 20.81782366,-11.22521290,0 20.82486624,-11.22440779,0 20.83197730,-11.22413856,0 20.83908836,-11.22440779,0 20.84613094,-11.22521290,0 20.85303721,-11.22654612,0 20.85974067,-11.22839464,0 20.86617674,-11.23074065,0 20.87228346,-11.23356158,0 20.87800201,-11.23683027,0 20.88327731,-11.24051526,0 20.88805857,-11.24458107,0 20.89229973,-11.24898856,0 20.89595996,-11.25369530,0 20.89900400,-11.25865598,0 20.90140253,-11.26382283,0 20.90313246,-11.26914610,0 20.90417713,-11.27457453,0 20.90452647,-11.28005585,0 20.90417713,-11.28553727,0</coordinates></LinearRing></outerBoundaryIs></Polygon>
</Placemark>
<Placemark>
<name>Revisão interna; sem retração automática</name><styleUrl>#poly</styleUrl>
<description><![CDATA[<b>id:</b> RET_REV_125<br/><b>n_pontos:</b> 1<br/><b>dist_mediana_borda_km:</b> 153.1<br/><b>criterio:</b> Ponto não vermelho interno isolado<br/><b>tipo:</b> Revisão interna; sem retração automática<br/>]]></description>
<Polygon><tessellate>1</tessellate><outerBoundaryIs><LinearRing><coordinates>16.13665994,-14.01547914,0 16.13561527,-14.02096477,0 16.13388534,-14.02634436,0 16.13148681,-14.03156607,0 16.12844277,-14.03657962,0 16.12478254,-14.04133671,0 16.12054138,-14.04579150,0 16.11576012,-14.04990108,0 16.11048482,-14.05362585,0 16.10476627,-14.05692991,0 16.09865955,-14.05978143,0 16.09222348,-14.06215294,0 16.08552002,-14.06402157,0 16.07861375,-14.06536932,0 16.07157117,-14.06618320,0 16.06446011,-14.06645537,0 16.05734905,-14.06618320,0 16.05030647,-14.06536932,0 16.04340020,-14.06402157,0 16.03669674,-14.06215294,0 16.03026067,-14.05978143,0 16.02415395,-14.05692991,0 16.01843540,-14.05362585,0 16.01316010,-14.04990108,0 16.00837884,-14.04579150,0 16.00413768,-14.04133671,0 16.00047745,-14.03657962,0 15.99743341,-14.03156607,0 15.99503488,-14.02634436,0 15.99330495,-14.02096477,0 15.99226028,-14.01547914,0 15.99191094,-14.00994030,0 15.99226028,-14.00440158,0 15.99330495,-13.99891634,0 15.99503488,-13.99353738,0 15.99743341,-13.98831651,0 16.00047745,-13.98330398,0 16.00413768,-13.97854807,0 16.00837884,-13.97409455,0 16.01316010,-13.96998629,0 16.01843540,-13.96626285,0 16.02415395,-13.96296006,0 16.03026067,-13.96010971,0 16.03669674,-13.95773923,0 16.04340020,-13.95587144,0 16.05030647,-13.95452431,0 16.05734905,-13.95371082,0 16.06446011,-13.95343878,0 16.07157117,-13.95371082,0 16.07861375,-13.95452431,0 16.08552002,-13.95587144,0 16.09222348,-13.95773923,0 16.09865955,-13.96010971,0 16.10476627,-13.96296006,0 16.11048482,-13.96626285,0 16.11576012,-13.96998629,0 16.12054138,-13.97409455,0 16.12478254,-13.97854807,0 16.12844277,-13.98330398,0 16.13148681,-13.98831651,0 16.13388534,-13.99353738,0 16.13561527,-13.99891634,0 16.13665994,-14.00440158,0 16.13700928,-14.00994030,0 16.13665994,-14.01547914,0</coordinates></LinearRing></outerBoundaryIs></Polygon>
</Placemark>
<Placemark>
<name>Revisão interna; sem retração automática</name><styleUrl>#poly</styleUrl>
<description><![CDATA[<b>id:</b> RET_REV_126<br/><b>n_pontos:</b> 1<br/><b>dist_mediana_borda_km:</b> 111.1<br/><b>criterio:</b> Ponto não vermelho interno isolado<br/><b>tipo:</b> Revisão interna; sem retração automática<br/>]]></description>
<Polygon><tessellate>1</tessellate><outerBoundaryIs><LinearRing><coordinates>15.30752651,-14.82417426,0 15.30648184,-14.82967934,0 15.30475191,-14.83507800,0 15.30235338,-14.84031824,0 15.29930934,-14.84534959,0 15.29564911,-14.85012357,0 15.29140795,-14.85459418,0 15.28662669,-14.85871836,0 15.28135139,-14.86245637,0 15.27563284,-14.86577218,0 15.26952612,-14.86863384,0 15.26309005,-14.87101378,0 15.25638659,-14.87288906,0 15.24948032,-14.87424160,0 15.24243774,-14.87505838,0 15.23532668,-14.87533152,0 15.22821562,-14.87505838,0 15.22117304,-14.87424160,0 15.21426677,-14.87288906,0 15.20756331,-14.87101378,0 15.20112724,-14.86863384,0 15.19502052,-14.86577218,0 15.18930197,-14.86245637,0 15.18402667,-14.85871836,0 15.17924541,-14.85459418,0 15.17500425,-14.85012357,0 15.17134402,-14.84534959,0 15.16829998,-14.84031824,0 15.16590145,-14.83507800,0 15.16417152,-14.82967934,0 15.16312685,-14.82417426,0 15.16277751,-14.81861579,0 15.16312685,-14.81305745,0 15.16417152,-14.80755279,0 15.16590145,-14.80215479,0 15.16829998,-14.79691545,0 15.17134402,-14.79188520,0 15.17500425,-14.78711248,0 15.17924541,-14.78264322,0 15.18402667,-14.77852045,0 15.18930197,-14.77478386,0 15.19502052,-14.77146941,0 15.20112724,-14.76860900,0 15.20756331,-14.76623015,0 15.21426677,-14.76435577,0 15.22117304,-14.76300390,0 15.22821562,-14.76218753,0 15.23532668,-14.76191453,0 15.24243774,-14.76218753,0 15.24948032,-14.76300390,0 15.25638659,-14.76435577,0 15.26309005,-14.76623015,0 15.26952612,-14.76860900,0 15.27563284,-14.77146941,0 15.28135139,-14.77478386,0 15.28662669,-14.77852045,0 15.29140795,-14.78264322,0 15.29564911,-14.78711248,0 15.29930934,-14.79188520,0 15.30235338,-14.79691545,0 15.30475191,-14.80215479,0 15.30648184,-14.80755279,0 15.30752651,-14.81305745,0 15.30787585,-14.81861579,0 15.30752651,-14.82417426,0</coordinates></LinearRing></outerBoundaryIs></Polygon>
</Placemark>
<Placemark>
<name>Revisão interna; sem retração automática</name><styleUrl>#poly</styleUrl>
<description><![CDATA[<b>id:</b> RET_REV_194<br/><b>n_pontos:</b> 1<br/><b>dist_mediana_borda_km:</b> 16.0<br/><b>criterio:</b> Ponto não vermelho interno isolado<br/><b>tipo:</b> Revisão interna; sem retração automática<br/>]]></description>
<Polygon><tessellate>1</tessellate><outerBoundaryIs><LinearRing><coordinates>16.13665994,-17.26878083,0 16.13561527,-17.27435222,0 16.13388534,-17.27981593,0 16.13148681,-17.28511934,0 16.12844277,-17.29021135,0 16.12478254,-17.29504292,0 16.12054138,-17.29956748,0 16.11576012,-17.30374144,0 16.11048482,-17.30752457,0 16.10476627,-17.31088043,0 16.09865955,-17.31377666,0 16.09222348,-17.31618535,0 16.08552002,-17.31808329,0 16.07861375,-17.31945218,0 16.07157117,-17.32027883,0 16.06446011,-17.32055527,0 16.05734905,-17.32027883,0 16.05030647,-17.31945218,0 16.04340020,-17.31808329,0 16.03669674,-17.31618535,0 16.03026067,-17.31377666,0 16.02415395,-17.31088043,0 16.01843540,-17.30752457,0 16.01316010,-17.30374144,0 16.00837884,-17.29956748,0 16.00413768,-17.29504292,0 16.00047745,-17.29021135,0 15.99743341,-17.28511934,0 15.99503488,-17.27981593,0 15.99330495,-17.27435222,0 15.99226028,-17.26878083,0 15.99191094,-17.26315544,0 15.99226028,-17.25753021,0 15.99330495,-17.25195932,0 15.99503488,-17.24649641,0 15.99743341,-17.24119409,0 16.00047745,-17.23610339,0 16.00413768,-17.23127333,0 16.00837884,-17.22675041,0 16.01316010,-17.22257815,0 16.01843540,-17.21879671,0 16.02415395,-17.21544249,0 16.03026067,-17.21254777,0 16.03669674,-17.21014040,0 16.04340020,-17.20824354,0 16.05030647,-17.20687546,0 16.05734905,-17.20604930,0 16.06446011,-17.20577303,0 16.07157117,-17.20604930,0 16.07861375,-17.20687546,0 16.08552002,-17.20824354,0 16.09222348,-17.21014040,0 16.09865955,-17.21254777,0 16.10476627,-17.21544249,0 16.11048482,-17.21879671,0 16.11576012,-17.22257815,0 16.12054138,-17.22675041,0 16.12478254,-17.23127333,0 16.12844277,-17.23610339,0 16.13148681,-17.24119409,0 16.13388534,-17.24649641,0 16.13561527,-17.25195932,0 16.13665994,-17.25753021,0 16.13700928,-17.26315544,0 16.13665994,-17.26878083,0</coordinates></LinearRing></outerBoundaryIs></Polygon>
</Placemark>
<Placemark>
<name>Revisão interna; sem retração automática</name><styleUrl>#poly</styleUrl>
<description><![CDATA[<b>id:</b> RET_REV_205<br/><b>n_pontos:</b> 1<br/><b>dist_mediana_borda_km:</b> 45.8<br/><b>criterio:</b> Ponto não vermelho interno isolado<br/><b>tipo:</b> Revisão interna; sem retração automática<br/>]]></description>
<Polygon><tessellate>1</tessellate><outerBoundaryIs><LinearRing><coordinates>14.68567644,-13.37052491,0 14.68463177,-13.37599589,0 14.68290184,-13.38136110,0 14.68050331,-13.38656887,0 14.67745927,-13.39156901,0 14.67379904,-13.39631337,0 14.66955788,-13.40075625,0 14.66477662,-13.40485482,0 14.65950132,-13.40856962,0 14.65378277,-13.41186483,0 14.64767605,-13.41470872,0 14.64123998,-13.41707387,0 14.63453652,-13.41893749,0 14.62763025,-13.42028163,0 14.62058767,-13.42109333,0 14.61347661,-13.42136477,0 14.60636555,-13.42109333,0 14.59932297,-13.42028163,0 14.59241670,-13.41893749,0 14.58571324,-13.41707387,0 14.57927717,-13.41470872,0 14.57317045,-13.41186483,0 14.56745190,-13.40856962,0 14.56217660,-13.40485482,0 14.55739534,-13.40075625,0 14.55315418,-13.39631337,0 14.54949395,-13.39156901,0 14.54644991,-13.38656887,0 14.54405138,-13.38136110,0 14.54232145,-13.37599589,0 14.54127678,-13.37052491,0 14.54092744,-13.36500085,0 14.54127678,-13.35947691,0 14.54232145,-13.35400629,0 14.54405138,-13.34864167,0 14.54644991,-13.34343471,0 14.54949395,-13.33843554,0 14.55315418,-13.33369228,0 14.55739534,-13.32925062,0 14.56217660,-13.32515329,0 14.56745190,-13.32143975,0 14.57317045,-13.31814574,0 14.57927717,-13.31530296,0 14.58571324,-13.31293879,0 14.59241670,-13.31107596,0 14.59932297,-13.30973242,0 14.60636555,-13.30892108,0 14.61347661,-13.30864977,0 14.62058767,-13.30892108,0 14.62763025,-13.30973242,0 14.63453652,-13.31107596,0 14.64123998,-13.31293879,0 14.64767605,-13.31530296,0 14.65378277,-13.31814574,0 14.65950132,-13.32143975,0 14.66477662,-13.32515329,0 14.66955788,-13.32925062,0 14.67379904,-13.33369228,0 14.67745927,-13.33843554,0 14.68050331,-13.34343471,0 14.68290184,-13.34864167,0 14.68463177,-13.35400629,0 14.68567644,-13.35947691,0 14.68602578,-13.36500085,0 14.68567644,-13.37052491,0</coordinates></LinearRing></outerBoundaryIs></Polygon>
</Placemark>
<Placemark>
<name>Revisão interna; sem retração automática</name><styleUrl>#poly</styleUrl>
<description><![CDATA[<b>id:</b> RET_REV_207<br/><b>n_pontos:</b> 1<br/><b>dist_mediana_borda_km:</b> 255.4<br/><b>criterio:</b> Ponto não vermelho interno isolado<br/><b>tipo:</b> Revisão interna; sem retração automática<br/>]]></description>
<Polygon><tessellate>1</tessellate><outerBoundaryIs><LinearRing><coordinates>18.00221014,-11.76527856,0 18.00116547,-11.77071634,0 17.99943554,-11.77604897,0 17.99703701,-11.78122509,0 17.99399297,-11.78619484,0 17.99033274,-11.79091036,0 17.98609158,-11.79532620,0 17.98131032,-11.79939984,0 17.97603502,-11.80309202,0 17.97031647,-11.80636717,0 17.96420975,-11.80919373,0 17.95777368,-11.81154447,0 17.95107022,-11.81339674,0 17.94416395,-11.81473269,0 17.93712137,-11.81553944,0 17.93001031,-11.81580922,0 17.92289925,-11.81553944,0 17.91585667,-11.81473269,0 17.90895040,-11.81339674,0 17.90224694,-11.81154447,0 17.89581087,-11.80919373,0 17.88970415,-11.80636717,0 17.88398560,-11.80309202,0 17.87871030,-11.79939984,0 17.87392904,-11.79532620,0 17.86968788,-11.79091036,0 17.86602765,-11.78619484,0 17.86298361,-11.78122509,0 17.86058508,-11.77604897,0 17.85885515,-11.77071634,0 17.85781048,-11.76527856,0 17.85746114,-11.75978802,0 17.85781048,-11.75429758,0 17.85885515,-11.74886012,0 17.86058508,-11.74352800,0 17.86298361,-11.73835257,0 17.86602765,-11.73338366,0 17.86968788,-11.72866911,0 17.87392904,-11.72425431,0 17.87871030,-11.72018175,0 17.88398560,-11.71649066,0 17.88970415,-11.71321655,0 17.89581087,-11.71039095,0 17.90224694,-11.70804105,0 17.90895040,-11.70618947,0 17.91585667,-11.70485404,0 17.92289925,-11.70404760,0 17.93001031,-11.70377792,0 17.93712137,-11.70404760,0 17.94416395,-11.70485404,0 17.95107022,-11.70618947,0 17.95777368,-11.70804105,0 17.96420975,-11.71039095,0 17.97031647,-11.71321655,0 17.97603502,-11.71649066,0 17.98131032,-11.72018175,0 17.98609158,-11.72425431,0 17.99033274,-11.72866911,0 17.99399297,-11.73338366,0 17.99703701,-11.73835257,0 17.99943554,-11.74352800,0 18.00116547,-11.74886012,0 18.00221014,-11.75429758,0 18.00255948,-11.75978802,0 18.00221014,-11.76527856,0</coordinates></LinearRing></outerBoundaryIs></Polygon>
</Placemark>
<Placemark>
<name>Revisão interna; sem retração automática</name><styleUrl>#poly</styleUrl>
<description><![CDATA[<b>id:</b> RET_REV_219<br/><b>n_pontos:</b> 1<br/><b>dist_mediana_borda_km:</b> 6.0<br/><b>criterio:</b> Ponto não vermelho interno isolado<br/><b>tipo:</b> Revisão interna; sem retração automática<br/>]]></description>
<Polygon><tessellate>1</tessellate><outerBoundaryIs><LinearRing><coordinates>21.52602720,-13.85407822,0 21.52498253,-13.85956012,0 21.52325260,-13.86493603,0 21.52085407,-13.87015419,0 21.51781003,-13.87516432,0 21.51414980,-13.87991816,0 21.50990864,-13.88436991,0 21.50907144,-13.88508900,0 21.50605690,-13.88696569,0 21.49800460,-13.89095309,0 21.48959070,-13.89414999,0 21.48089620,-13.89652569,0 21.47200490,-13.89805719,0 21.46300260,-13.89872959,0 21.45397600,-13.89853639,0 21.44501220,-13.89747959,0 21.43619760,-13.89556909,0 21.42761710,-13.89282339,0 21.41935360,-13.88926889,0 21.41148670,-13.88493989,0 21.40409230,-13.87987799,0 21.39724170,-13.87413209,0 21.39100090,-13.86775749,0 21.38543000,-13.86081569,0 21.38186985,-13.85534974,0 21.38162754,-13.85407822,0 21.38127820,-13.84854315,0 21.38162754,-13.84300820,0 21.38267221,-13.83752669,0 21.38440214,-13.83215139,0 21.38680067,-13.82693406,0 21.38984471,-13.82192495,0 21.39350494,-13.81717226,0 21.39774610,-13.81272177,0 21.40252736,-13.80861630,0 21.40780266,-13.80489538,0 21.41352121,-13.80159483,0 21.41962793,-13.79874641,0 21.42606400,-13.79637754,0 21.43276746,-13.79451102,0 21.43967373,-13.79316481,0 21.44671631,-13.79235186,0 21.45382737,-13.79208001,0 21.46093843,-13.79235186,0 21.46798101,-13.79316481,0 21.47488728,-13.79451102,0 21.48159074,-13.79637754,0 21.48802681,-13.79874641,0 21.49413353,-13.80159483,0 21.49985208,-13.80489538,0 21.50512738,-13.80861630,0 21.50990864,-13.81272177,0 21.51414980,-13.81717226,0 21.51781003,-13.82192495,0 21.52085407,-13.82693406,0 21.52325260,-13.83215139,0 21.52498253,-13.83752669,0 21.52602720,-13.84300820,0 21.52637654,-13.84854315,0 21.52602720,-13.85407822,0</coordinates></LinearRing></outerBoundaryIs></Polygon>
</Placemark>
<Placemark>
<name>Revisão interna; sem retração automática</name><styleUrl>#poly</styleUrl>
<description><![CDATA[<b>id:</b> RET_REV_229<br/><b>n_pontos:</b> 1<br/><b>dist_mediana_borda_km:</b> 0.6<br/><b>criterio:</b> Ponto não vermelho interno isolado<br/><b>tipo:</b> Revisão interna; sem retração automática<br/>]]></description>
<Polygon><tessellate>1</tessellate><outerBoundaryIs><LinearRing><coordinates>22.76972734,-17.43283175,0 22.76868267,-17.43840800,0 22.76695274,-17.44387649,0 22.76455421,-17.44918453,0 22.76151017,-17.45428100,0 22.75784994,-17.45911679,0 22.75360878,-17.46364531,0 22.74882752,-17.46782292,0 22.74355222,-17.47160937,0 22.73783367,-17.47496816,0 22.73172695,-17.47786693,0 22.72529088,-17.48027773,0 22.71858742,-17.48217733,0 22.71168115,-17.48354742,0 22.70463857,-17.48437479,0 22.69752751,-17.48465147,0 22.69041645,-17.48437479,0 22.68337387,-17.48354742,0 22.67646760,-17.48217733,0 22.66976414,-17.48027773,0 22.66332807,-17.47786693,0 22.65722135,-17.47496816,0 22.65150280,-17.47160937,0 22.64622750,-17.46782292,0 22.64609891,-17.46771057,0 22.64652830,-17.46673999,0 22.65092070,-17.45901729,0 22.65608030,-17.45174509,0 22.66195740,-17.44499329,0 22.66849510,-17.43882689,0 22.67563060,-17.43330519,0 22.68329510,-17.42848139,0 22.69141480,-17.42440169,0 22.69991150,-17.42110549,0 22.70870340,-17.41862429,0 22.71770600,-17.41698199,0 22.72683260,-17.41619429,0 22.73599550,-17.41626879,0 22.74510660,-17.41720469,0 22.75407820,-17.41899299,0 22.76282410,-17.42161629,0 22.76990904,-17.42449957,0 22.77007668,-17.42720145,0 22.76972734,-17.43283175,0</coordinates></LinearRing></outerBoundaryIs></Polygon>
</Placemark>
<Placemark>
<name>Revisão interna; sem retração automática</name><styleUrl>#poly</styleUrl>
<description><![CDATA[<b>id:</b> RET_REV_249<br/><b>n_pontos:</b> 1<br/><b>dist_mediana_borda_km:</b> 65.8<br/><b>criterio:</b> Ponto não vermelho interno isolado<br/><b>tipo:</b> Revisão interna; sem retração automática<br/>]]></description>
<Polygon><tessellate>1</tessellate><outerBoundaryIs><LinearRing><coordinates>18.83134357,-14.66220484,0 18.83029890,-14.66770593,0 18.82856897,-14.67310067,0 18.82617044,-14.67833711,0 18.82312640,-14.68336481,0 18.81946617,-14.68813532,0 18.81522501,-14.69260268,0 18.81044375,-14.69672386,0 18.80516845,-14.70045915,0 18.79944990,-14.70377255,0 18.79334318,-14.70663213,0 18.78690711,-14.70901034,0 18.78020365,-14.71088426,0 18.77329738,-14.71223582,0 18.76625480,-14.71305200,0 18.75914374,-14.71332494,0 18.75203268,-14.71305200,0 18.74499010,-14.71223582,0 18.73808383,-14.71088426,0 18.73138037,-14.70901034,0 18.72494430,-14.70663213,0 18.71883758,-14.70377255,0 18.71311903,-14.70045915,0 18.70784373,-14.69672386,0 18.70306247,-14.69260268,0 18.69882131,-14.68813532,0 18.69516108,-14.68336481,0 18.69211704,-14.67833711,0 18.68971851,-14.67310067,0 18.68798858,-14.66770593,0 18.68694391,-14.66220484,0 18.68659457,-14.65665040,0 18.68694391,-14.65109609,0 18.68798858,-14.64559541,0 18.68971851,-14.64020133,0 18.69211704,-14.63496577,0 18.69516108,-14.62993916,0 18.69882131,-14.62516989,0 18.70306247,-14.62070386,0 18.70784373,-14.61658407,0 18.71311903,-14.61285018,0 18.71883758,-14.60953812,0 18.72494430,-14.60667978,0 18.73138037,-14.60430265,0 18.73808383,-14.60242963,0 18.74499010,-14.60107872,0 18.75203268,-14.60026295,0 18.75914374,-14.59999015,0 18.76625480,-14.60026295,0 18.77329738,-14.60107872,0 18.78020365,-14.60242963,0 18.78690711,-14.60430265,0 18.79334318,-14.60667978,0 18.79944990,-14.60953812,0 18.80516845,-14.61285018,0 18.81044375,-14.61658407,0 18.81522501,-14.62070386,0 18.81946617,-14.62516989,0 18.82312640,-14.62993916,0 18.82617044,-14.63496577,0 18.82856897,-14.64020133,0 18.83029890,-14.64559541,0 18.83134357,-14.65109609,0 18.83169291,-14.65665040,0 18.83134357,-14.66220484,0</coordinates></LinearRing></outerBoundaryIs></Polygon>
</Placemark>
<Placemark>
<name>Revisão interna; sem retração automática</name><styleUrl>#poly</styleUrl>
<description><![CDATA[<b>id:</b> RET_REV_250<br/><b>n_pontos:</b> 1<br/><b>dist_mediana_borda_km:</b> 28.7<br/><b>criterio:</b> Ponto não vermelho interno isolado<br/><b>tipo:</b> Revisão interna; sem retração automática<br/>]]></description>
<Polygon><tessellate>1</tessellate><outerBoundaryIs><LinearRing><coordinates>19.03862692,-15.14846934,0 19.03758225,-15.15398255,0 19.03585232,-15.15938920,0 19.03345379,-15.16463720,0 19.03040975,-15.16967599,0 19.02674952,-15.17445704,0 19.02250836,-15.17893428,0 19.01772710,-15.18306457,0 19.01245180,-15.18680812,0 19.00673325,-15.19012884,0 19.00062653,-15.19299475,0 18.99419046,-15.19537822,0 18.98748700,-15.19725628,0 18.98058073,-15.19861084,0 18.97353815,-15.19942882,0 18.96642709,-15.19970237,0 18.95931603,-15.19942882,0 18.95227345,-15.19861084,0 18.94536718,-15.19725628,0 18.93866372,-15.19537822,0 18.93222765,-15.19299475,0 18.92612093,-15.19012884,0 18.92040238,-15.18680812,0 18.91512708,-15.18306457,0 18.91034582,-15.17893428,0 18.90610466,-15.17445704,0 18.90244443,-15.16967599,0 18.89940039,-15.16463720,0 18.89700186,-15.15938920,0 18.89527193,-15.15398255,0 18.89422726,-15.14846934,0 18.89387792,-15.14290265,0 18.89422726,-15.13733610,0 18.89527193,-15.13182331,0 18.89700186,-15.12641734,0 18.89940039,-15.12117027,0 18.90244443,-15.11613260,0 18.90610466,-15.11135284,0 18.91034582,-15.10687699,0 18.91512708,-15.10274815,0 18.92040238,-15.09900605,0 18.92612093,-15.09568672,0 18.93222765,-15.09282210,0 18.93866372,-15.09043975,0 18.94536718,-15.08856261,0 18.95227345,-15.08720875,0 18.95931603,-15.08639118,0 18.96642709,-15.08611778,0 18.97353815,-15.08639118,0 18.98058073,-15.08720875,0 18.98748700,-15.08856261,0 18.99419046,-15.09043975,0 19.00062653,-15.09282210,0 19.00673325,-15.09568672,0 19.01245180,-15.09900605,0 19.01772710,-15.10274815,0 19.02250836,-15.10687699,0 19.02674952,-15.11135284,0 19.03040975,-15.11613260,0 19.03345379,-15.12117027,0 19.03585232,-15.12641734,0 19.03758225,-15.13182331,0 19.03862692,-15.13733610,0 19.03897626,-15.14290265,0 19.03862692,-15.14846934,0</coordinates></LinearRing></outerBoundaryIs></Polygon>
</Placemark>
<Placemark>
<name>Revisão interna; sem retração automática</name><styleUrl>#poly</styleUrl>
<description><![CDATA[<b>id:</b> RET_REV_265<br/><b>n_pontos:</b> 1<br/><b>dist_mediana_borda_km:</b> 4.3<br/><b>criterio:</b> Ponto não vermelho interno isolado<br/><b>tipo:</b> Revisão interna; sem retração automática<br/>]]></description>
<Polygon><tessellate>1</tessellate><outerBoundaryIs><LinearRing><coordinates>17.79492679,-16.45062768,0 17.79388212,-16.45617559,0 17.79215219,-16.46161628,0 17.78975366,-16.46689732,0 17.78670962,-16.47196786,0 17.78304939,-16.47677904,0 17.77880823,-16.48128450,0 17.77402697,-16.48544084,0 17.76875167,-16.48920800,0 17.76303312,-16.49254968,0 17.75692640,-16.49543367,0 17.75049033,-16.49783219,0 17.74378687,-16.49972211,0 17.73688060,-16.50108521,0 17.72983802,-16.50190836,0 17.72272696,-16.50218363,0 17.71561590,-16.50190836,0 17.71262515,-16.50155880,0 17.71223320,-16.49922639,0 17.71181130,-16.49768959,0 17.71177810,-16.49749159,0 17.70549760,-16.49214629,0 17.69923840,-16.48565999,0 17.69366870,-16.47861289,0 17.68884210,-16.47107279,0 17.68782420,-16.46906549,0 17.68430200,-16.46356259,0 17.68026540,-16.45560199,0 17.67705710,-16.44729789,0 17.67470810,-16.43873019,0 17.67324080,-16.42998149,0 17.67266920,-16.42113619,0 17.67299870,-16.41227929,0 17.67422600,-16.40349629,0 17.67448582,-16.40243586,0 17.67670225,-16.40085376,0 17.68242080,-16.39751362,0 17.68852752,-16.39463104,0 17.69496359,-16.39223377,0 17.70166705,-16.39034488,0 17.70857332,-16.38898253,0 17.71561590,-16.38815984,0 17.72272696,-16.38788473,0 17.72983802,-16.38815984,0 17.73688060,-16.38898253,0 17.74378687,-16.39034488,0 17.75049033,-16.39223377,0 17.75692640,-16.39463104,0 17.76303312,-16.39751362,0 17.76875167,-16.40085376,0 17.77402697,-16.40461932,0 17.77880823,-16.40877405,0 17.78304939,-16.41327798,0 17.78670962,-16.41808774,0 17.78975366,-16.42315703,0 17.79215219,-16.42843706,0 17.79388212,-16.43387699,0 17.79492679,-16.43942443,0 17.79527613,-16.44502598,0 17.79492679,-16.45062768,0</coordinates></LinearRing></outerBoundaryIs></Polygon>
</Placemark>
<Placemark>
<name>Revisão interna; sem retração automática</name><styleUrl>#poly</styleUrl>
<description><![CDATA[<b>id:</b> RET_REV_268<br/><b>n_pontos:</b> 1<br/><b>dist_mediana_borda_km:</b> 61.1<br/><b>criterio:</b> Ponto não vermelho interno isolado<br/><b>tipo:</b> Revisão interna; sem retração automática<br/>]]></description>
<Polygon><tessellate>1</tessellate><outerBoundaryIs><LinearRing><coordinates>16.96579336,-16.12431614,0 16.96474869,-16.12985505,0 16.96301876,-16.13528691,0 16.96062023,-16.14055938,0 16.95757619,-16.14562169,0 16.95391596,-16.15042505,0 16.94967480,-16.15492319,0 16.94489354,-16.15907277,0 16.93961824,-16.16283381,0 16.93389969,-16.16617005,0 16.92779297,-16.16904936,0 16.92135690,-16.17144397,0 16.91465344,-16.17333081,0 16.90774717,-16.17469170,0 16.90070459,-16.17551351,0 16.89359353,-16.17578833,0 16.88648247,-16.17551351,0 16.87943989,-16.17469170,0 16.87253362,-16.17333081,0 16.86583016,-16.17144397,0 16.85939409,-16.16904936,0 16.85328737,-16.16617005,0 16.84756882,-16.16283381,0 16.84229352,-16.15907277,0 16.83751226,-16.15492319,0 16.83327110,-16.15042505,0 16.82961087,-16.14562169,0 16.82656683,-16.14055938,0 16.82416830,-16.13528691,0 16.82243837,-16.12985505,0 16.82139370,-16.12431614,0 16.82104436,-16.11872352,0 16.82139370,-16.11313105,0 16.82243837,-16.10759259,0 16.82416830,-16.10216148,0 16.82656683,-16.09689000,0 16.82961087,-16.09182891,0 16.83327110,-16.08702693,0 16.83751226,-16.08253029,0 16.84229352,-16.07838227,0 16.84756882,-16.07462279,0 16.85328737,-16.07128805,0 16.85939409,-16.06841013,0 16.86583016,-16.06601673,0 16.87253362,-16.06413089,0 16.87943989,-16.06277074,0 16.88648247,-16.06194938,0 16.89359353,-16.06167471,0 16.90070459,-16.06194938,0 16.90774717,-16.06277074,0 16.91465344,-16.06413089,0 16.92135690,-16.06601673,0 16.92779297,-16.06841013,0 16.93389969,-16.07128805,0 16.93961824,-16.07462279,0 16.94489354,-16.07838227,0 16.94967480,-16.08253029,0 16.95391596,-16.08702693,0 16.95757619,-16.09182891,0 16.96062023,-16.09689000,0 16.96301876,-16.10216148,0 16.96474869,-16.10759259,0 16.96579336,-16.11313105,0 16.96614270,-16.11872352,0 16.96579336,-16.12431614,0</coordinates></LinearRing></outerBoundaryIs></Polygon>
</Placemark>
</Document></kml>