<?xml version='1.0' encoding='utf-8'?>
<kml xmlns="http://www.opengis.net/kml/2.2">
  <Document>
    <name>Dados sem ensaio</name>
    <Style id="dados_sem_ensaio">
      <IconStyle>
        <color>ff00aa00</color>
        <scale>0.9</scale>
        <Icon>
          <href>http://maps.google.com/mapfiles/kml/shapes/placemark_circle.png</href>
        </Icon>
      </IconStyle>
    </Style>
    <Placemark>
      <styleUrl>#dados_sem_ensaio</styleUrl>
      <Point>
        <coordinates>18.75914374,-14.65665041,0</coordinates>
      </Point>
    </Placemark>
    <Placemark>
      <styleUrl>#dados_sem_ensaio</styleUrl>
      <Point>
        <coordinates>12.74792641,-6.04666520,0</coordinates>
      </Point>
    </Placemark>
    <Placemark>
      <styleUrl>#dados_sem_ensaio</styleUrl>
      <Point>
        <coordinates>11.91879298,-17.09925172,0</coordinates>
      </Point>
    </Placemark>
    <Placemark>
      <styleUrl>#dados_sem_ensaio</styleUrl>
      <Point>
        <coordinates>17.72272696,-9.52743041,0</coordinates>
      </Point>
    </Placemark>
    <Placemark>
      <styleUrl>#dados_sem_ensaio</styleUrl>
      <Point>
        <coordinates>23.94122764,-11.91987828,0</coordinates>
      </Point>
    </Placemark>
    <Placemark>
      <styleUrl>#dados_sem_ensaio</styleUrl>
      <Point>
        <coordinates>13.36977648,-12.72173821,0</coordinates>
      </Point>
    </Placemark>
    <Placemark>
      <styleUrl>#dados_sem_ensaio</styleUrl>
      <Point>
        <coordinates>23.11209422,-17.59139143,0</coordinates>
      </Point>
    </Placemark>
    <Placemark>
      <styleUrl>#dados_sem_ensaio</styleUrl>
      <Point>
        <coordinates>16.06446011,-17.26315545,0</coordinates>
      </Point>
    </Placemark>
    <Placemark>
      <styleUrl>#dados_sem_ensaio</styleUrl>
      <Point>
        <coordinates>13.99162655,-8.89236495,0</coordinates>
      </Point>
    </Placemark>
    <Placemark>
      <styleUrl>#dados_sem_ensaio</styleUrl>
      <Point>
        <coordinates>16.47902682,-6.67754100,0</coordinates>
      </Point>
    </Placemark>
    <Placemark>
      <styleUrl>#dados_sem_ensaio</styleUrl>
      <Point>
        <coordinates>19.58827716,-17.75572707,0</coordinates>
      </Point>
    </Placemark>
    <Placemark>
      <styleUrl>#dados_sem_ensaio</styleUrl>
      <Point>
        <coordinates>20.62469394,-12.40070693,0</coordinates>
      </Point>
    </Placemark>
    <Placemark>
      <styleUrl>#dados_sem_ensaio</styleUrl>
      <Point>
        <coordinates>15.23532668,-14.81861580,0</coordinates>
      </Point>
    </Placemark>
    <Placemark>
      <styleUrl>#dados_sem_ensaio</styleUrl>
      <Point>
        <coordinates>21.86839408,-15.14290266,0</coordinates>
      </Point>
    </Placemark>
    <Placemark>
      <styleUrl>#dados_sem_ensaio</styleUrl>
      <Point>
        <coordinates>17.51544360,-12.40070693,0</coordinates>
      </Point>
    </Placemark>
    <Placemark>
      <styleUrl>#dados_sem_ensaio</styleUrl>
      <Point>
        <coordinates>12.33335970,-14.81861580,0</coordinates>
      </Point>
    </Placemark>
    <Placemark>
      <styleUrl>#dados_sem_ensaio</styleUrl>
      <Point>
        <coordinates>14.82075997,-10.96066960,0</coordinates>
      </Point>
    </Placemark>
    <Placemark>
      <styleUrl>#dados_sem_ensaio</styleUrl>
      <Point>
        <coordinates>13.99162655,-16.28180859,0</coordinates>
      </Point>
    </Placemark>
    <Placemark>
      <styleUrl>#dados_sem_ensaio</styleUrl>
      <Point>
        <coordinates>17.93001031,-16.28180859,0</coordinates>
      </Point>
    </Placemark>
    <Placemark>
      <styleUrl>#dados_sem_ensaio</styleUrl>
      <Point>
        <coordinates>22.07567744,-11.12032011,0</coordinates>
      </Point>
    </Placemark>
    <Placemark>
      <styleUrl>#dados_sem_ensaio</styleUrl>
      <Point>
        <coordinates>20.00284388,-16.11872353,0</coordinates>
      </Point>
    </Placemark>
    <Placemark>
      <styleUrl>#dados_sem_ensaio</styleUrl>
      <Point>
        <coordinates>15.44261004,-12.72173821,0</coordinates>
      </Point>
    </Placemark>
    <Placemark>
      <styleUrl>#dados_sem_ensaio</styleUrl>
      <Point>
        <coordinates>17.10087689,-8.10002943,0</coordinates>
      </Point>
    </Placemark>
    <Placemark>
      <styleUrl>#dados_sem_ensaio</styleUrl>
      <Point>
        <coordinates>21.86839408,-13.52607490,0</coordinates>
      </Point>
    </Placemark>
    <Placemark>
      <styleUrl>#dados_sem_ensaio</styleUrl>
      <Point>
        <coordinates>15.85717675,-9.68637367,0</coordinates>
      </Point>
    </Placemark>
    <Placemark>
      <styleUrl>#dados_sem_ensaio</styleUrl>
      <Point>
        <coordinates>17.51544360,-10.96066960,0</coordinates>
      </Point>
    </Placemark>
    <Placemark>
      <styleUrl>#dados_sem_ensaio</styleUrl>
      <Point>
        <coordinates>21.66111073,-16.77186434,0</coordinates>
      </Point>
    </Placemark>
    <Placemark>
      <styleUrl>#dados_sem_ensaio</styleUrl>
      <Point>
        <coordinates>20.21012723,-11.12032011,0</coordinates>
      </Point>
    </Placemark>
    <Placemark>
      <styleUrl>#dados_sem_ensaio</styleUrl>
      <Point>
        <coordinates>22.49024415,-12.40070693,0</coordinates>
      </Point>
    </Placemark>
    <Placemark>
      <styleUrl>#dados_sem_ensaio</styleUrl>
      <Point>
        <coordinates>13.78434319,-14.49480167,0</coordinates>
      </Point>
    </Placemark>
    <Placemark>
      <styleUrl>#dados_sem_ensaio</styleUrl>
      <Point>
        <coordinates>16.06446011,-11.59978845,0</coordinates>
      </Point>
    </Placemark>
    <Placemark>
      <styleUrl>#dados_sem_ensaio</styleUrl>
      <Point>
        <coordinates>12.54064305,-13.68725517,0</coordinates>
      </Point>
    </Placemark>
    <Placemark>
      <styleUrl>#dados_sem_ensaio</styleUrl>
      <Point>
        <coordinates>21.45382737,-17.92021012,0</coordinates>
      </Point>
    </Placemark>
    <Placemark>
      <styleUrl>#dados_sem_ensaio</styleUrl>
      <Point>
        <coordinates>15.44261004,-16.11872353,0</coordinates>
      </Point>
    </Placemark>
    <Placemark>
      <styleUrl>#dados_sem_ensaio</styleUrl>
      <Point>
        <coordinates>12.12607634,-15.95576919,0</coordinates>
      </Point>
    </Placemark>
    <Placemark>
      <styleUrl>#dados_sem_ensaio</styleUrl>
      <Point>
        <coordinates>13.99162655,-17.42720146,0</coordinates>
      </Point>
    </Placemark>
    <Placemark>
      <styleUrl>#dados_sem_ensaio</styleUrl>
      <Point>
        <coordinates>14.19890990,-10.00448148,0</coordinates>
      </Point>
    </Placemark>
    <Placemark>
      <styleUrl>#dados_sem_ensaio</styleUrl>
      <Point>
        <coordinates>16.06446011,-14.00994031,0</coordinates>
      </Point>
    </Placemark>
    <Placemark>
      <styleUrl>#dados_sem_ensaio</styleUrl>
      <Point>
        <coordinates>14.61347661,-13.52607490,0</coordinates>
      </Point>
    </Placemark>
    <Placemark>
      <styleUrl>#dados_sem_ensaio</styleUrl>
      <Point>
        <coordinates>13.78434319,-11.59978845,0</coordinates>
      </Point>
    </Placemark>
    <Placemark>
      <styleUrl>#dados_sem_ensaio</styleUrl>
      <Point>
        <coordinates>23.73394429,-12.88240173,0</coordinates>
      </Point>
    </Placemark>
    <Placemark>
      <styleUrl>#dados_sem_ensaio</styleUrl>
      <Point>
        <coordinates>18.96642709,-15.63024630,0</coordinates>
      </Point>
    </Placemark>
    <Placemark>
      <styleUrl>#dados_sem_ensaio</styleUrl>
      <Point>
        <coordinates>13.36977648,-15.46767457,0</coordinates>
      </Point>
    </Placemark>
    <Placemark>
      <styleUrl>#dados_sem_ensaio</styleUrl>
      <Point>
        <coordinates>18.55186038,-17.09925172,0</coordinates>
      </Point>
    </Placemark>
    <Placemark>
      <styleUrl>#dados_sem_ensaio</styleUrl>
      <Point>
        <coordinates>16.47902682,-8.89236495,0</coordinates>
      </Point>
    </Placemark>
    <Placemark>
      <styleUrl>#dados_sem_ensaio</styleUrl>
      <Point>
        <coordinates>16.89359353,-10.16364865,0</coordinates>
      </Point>
    </Placemark>
    <Placemark>
      <styleUrl>#dados_sem_ensaio</styleUrl>
      <Point>
        <coordinates>20.62469394,-17.26315545,0</coordinates>
      </Point>
    </Placemark>
    <Placemark>
      <styleUrl>#dados_sem_ensaio</styleUrl>
      <Point>
        <coordinates>21.24654401,-15.95576919,0</coordinates>
      </Point>
    </Placemark>
    <Placemark>
      <styleUrl>#dados_sem_ensaio</styleUrl>
      <Point>
        <coordinates>12.95520976,-16.60837736,0</coordinates>
      </Point>
    </Placemark>
    <Placemark>
      <styleUrl>#dados_sem_ensaio</styleUrl>
      <Point>
        <coordinates>18.75914374,-9.84539026,0</coordinates>
      </Point>
    </Placemark>
    <Placemark>
      <styleUrl>#dados_sem_ensaio</styleUrl>
      <Point>
        <coordinates>15.02804333,-11.91987828,0</coordinates>
      </Point>
    </Placemark>
    <Placemark>
      <styleUrl>#dados_sem_ensaio</styleUrl>
      <Point>
        <coordinates>16.47902682,-16.44502599,0</coordinates>
      </Point>
    </Placemark>
    <Placemark>
      <styleUrl>#dados_sem_ensaio</styleUrl>
      <Point>
        <coordinates>19.79556052,-14.98069937,0</coordinates>
      </Point>
    </Placemark>
    <Placemark>
      <styleUrl>#dados_sem_ensaio</styleUrl>
      <Point>
        <coordinates>15.02804333,-16.93548857,0</coordinates>
      </Point>
    </Placemark>
    <Placemark>
      <styleUrl>#dados_sem_ensaio</styleUrl>
      <Point>
        <coordinates>23.11209422,-11.28005586,0</coordinates>
      </Point>
    </Placemark>
    <Placemark>
      <styleUrl>#dados_sem_ensaio</styleUrl>
      <Point>
        <coordinates>21.66111073,-14.33306808,0</coordinates>
      </Point>
    </Placemark>
    <Placemark>
      <styleUrl>#dados_sem_ensaio</styleUrl>
      <Point>
        <coordinates>21.45382737,-11.75978803,0</coordinates>
      </Point>
    </Placemark>
    <Placemark>
      <styleUrl>#dados_sem_ensaio</styleUrl>
      <Point>
        <coordinates>18.13729367,-11.59978845,0</coordinates>
      </Point>
    </Placemark>
    <Placemark>
      <styleUrl>#dados_sem_ensaio</styleUrl>
      <Point>
        <coordinates>19.58827716,-16.93548857,0</coordinates>
      </Point>
    </Placemark>
    <Placemark>
      <styleUrl>#dados_sem_ensaio</styleUrl>
      <Point>
        <coordinates>16.47902682,-7.46725980,0</coordinates>
      </Point>
    </Placemark>
    <Placemark>
      <styleUrl>#dados_sem_ensaio</styleUrl>
      <Point>
        <coordinates>21.45382737,-12.72173821,0</coordinates>
      </Point>
    </Placemark>
    <Placemark>
      <styleUrl>#dados_sem_ensaio</styleUrl>
      <Point>
        <coordinates>14.19890990,-12.40070693,0</coordinates>
      </Point>
    </Placemark>
    <Placemark>
      <styleUrl>#dados_sem_ensaio</styleUrl>
      <Point>
        <coordinates>22.49024415,-17.09925172,0</coordinates>
      </Point>
    </Placemark>
    <Placemark>
      <styleUrl>#dados_sem_ensaio</styleUrl>
      <Point>
        <coordinates>18.96642709,-16.44502599,0</coordinates>
      </Point>
    </Placemark>
    <Placemark>
      <styleUrl>#dados_sem_ensaio</styleUrl>
      <Point>
        <coordinates>20.83197730,-16.60837736,0</coordinates>
      </Point>
    </Placemark>
    <Placemark>
      <styleUrl>#dados_sem_ensaio</styleUrl>
      <Point>
        <coordinates>21.03926066,-13.36500086,0</coordinates>
      </Point>
    </Placemark>
    <Placemark>
      <styleUrl>#dados_sem_ensaio</styleUrl>
      <Point>
        <coordinates>22.28296079,-17.75572707,0</coordinates>
      </Point>
    </Placemark>
    <Placemark>
      <styleUrl>#dados_sem_ensaio</styleUrl>
      <Point>
        <coordinates>21.24654401,-11.12032011,0</coordinates>
      </Point>
    </Placemark>
    <Placemark>
      <styleUrl>#dados_sem_ensaio</styleUrl>
      <Point>
        <coordinates>20.62469394,-17.92021012,0</coordinates>
      </Point>
    </Placemark>
    <Placemark>
      <styleUrl>#dados_sem_ensaio</styleUrl>
      <Point>
        <coordinates>22.49024415,-11.75978803,0</coordinates>
      </Point>
    </Placemark>
    <Placemark>
      <styleUrl>#dados_sem_ensaio</styleUrl>
      <Point>
        <coordinates>13.16249312,-14.81861580,0</coordinates>
      </Point>
    </Placemark>
    <Placemark>
      <styleUrl>#dados_sem_ensaio</styleUrl>
      <Point>
        <coordinates>13.57705983,-16.93548857,0</coordinates>
      </Point>
    </Placemark>
    <Placemark>
      <styleUrl>#dados_sem_ensaio</styleUrl>
      <Point>
        <coordinates>13.16249312,-13.36500086,0</coordinates>
      </Point>
    </Placemark>
    <Placemark>
      <styleUrl>#dados_sem_ensaio</styleUrl>
      <Point>
        <coordinates>15.23532668,-10.00448148,0</coordinates>
      </Point>
    </Placemark>
    <Placemark>
      <styleUrl>#dados_sem_ensaio</styleUrl>
      <Point>
        <coordinates>21.24654401,-14.81861580,0</coordinates>
      </Point>
    </Placemark>
    <Placemark>
      <styleUrl>#dados_sem_ensaio</styleUrl>
      <Point>
        <coordinates>12.54064305,-15.46767457,0</coordinates>
      </Point>
    </Placemark>
    <Placemark>
      <styleUrl>#dados_sem_ensaio</styleUrl>
      <Point>
        <coordinates>14.19890990,-14.00994031,0</coordinates>
      </Point>
    </Placemark>
    <Placemark>
      <styleUrl>#dados_sem_ensaio</styleUrl>
      <Point>
        <coordinates>17.93001031,-10.48221604,0</coordinates>
      </Point>
    </Placemark>
    <Placemark>
      <styleUrl>#dados_sem_ensaio</styleUrl>
      <Point>
        <coordinates>19.79556052,-15.63024630,0</coordinates>
      </Point>
    </Placemark>
    <Placemark>
      <styleUrl>#dados_sem_ensaio</styleUrl>
      <Point>
        <coordinates>11.91879298,-16.44502599,0</coordinates>
      </Point>
    </Placemark>
    <Placemark>
      <styleUrl>#dados_sem_ensaio</styleUrl>
      <Point>
        <coordinates>15.85717675,-11.12032011,0</coordinates>
      </Point>
    </Placemark>
    <Placemark>
      <styleUrl>#dados_sem_ensaio</styleUrl>
      <Point>
        <coordinates>22.69752751,-12.88240173,0</coordinates>
      </Point>
    </Placemark>
    <Placemark>
      <styleUrl>#dados_sem_ensaio</styleUrl>
      <Point>
        <coordinates>23.52666093,-12.40070693,0</coordinates>
      </Point>
    </Placemark>
    <Placemark>
      <styleUrl>#dados_sem_ensaio</styleUrl>
      <Point>
        <coordinates>20.83197730,-11.59978845,0</coordinates>
      </Point>
    </Placemark>
    <Placemark>
      <styleUrl>#dados_sem_ensaio</styleUrl>
      <Point>
        <coordinates>14.19890990,-9.36855920,0</coordinates>
      </Point>
    </Placemark>
    <Placemark>
      <styleUrl>#dados_sem_ensaio</styleUrl>
      <Point>
        <coordinates>14.82075997,-13.04316572,0</coordinates>
      </Point>
    </Placemark>
    <Placemark>
      <styleUrl>#dados_sem_ensaio</styleUrl>
      <Point>
        <coordinates>21.86839408,-12.24033634,0</coordinates>
      </Point>
    </Placemark>
    <Placemark>
      <styleUrl>#dados_sem_ensaio</styleUrl>
      <Point>
        <coordinates>17.51544360,-10.00448148,0</coordinates>
      </Point>
    </Placemark>
    <Placemark>
      <styleUrl>#dados_sem_ensaio</styleUrl>
      <Point>
        <coordinates>21.86839408,-15.79294398,0</coordinates>
      </Point>
    </Placemark>
    <Placemark>
      <styleUrl>#dados_sem_ensaio</styleUrl>
      <Point>
        <coordinates>20.62469394,-15.79294398,0</coordinates>
      </Point>
    </Placemark>
    <Placemark>
      <styleUrl>#dados_sem_ensaio</styleUrl>
      <Point>
        <coordinates>12.74792641,-17.09925172,0</coordinates>
      </Point>
    </Placemark>
    <Placemark>
      <styleUrl>#dados_sem_ensaio</styleUrl>
      <Point>
        <coordinates>17.10087689,-8.73376907,0</coordinates>
      </Point>
    </Placemark>
    <Placemark>
      <styleUrl>#dados_sem_ensaio</styleUrl>
      <Point>
        <coordinates>13.36977648,-16.11872353,0</coordinates>
      </Point>
    </Placemark>
    <Placemark>
      <styleUrl>#dados_sem_ensaio</styleUrl>
      <Point>
        <coordinates>18.75914374,-17.59139143,0</coordinates>
      </Point>
    </Placemark>
    <Placemark>
      <styleUrl>#dados_sem_ensaio</styleUrl>
      <Point>
        <coordinates>21.66111073,-17.42720146,0</coordinates>
      </Point>
    </Placemark>
    <Placemark>
      <styleUrl>#dados_sem_ensaio</styleUrl>
      <Point>
        <coordinates>20.21012723,-16.77186434,0</coordinates>
      </Point>
    </Placemark>
    <Placemark>
      <styleUrl>#dados_sem_ensaio</styleUrl>
      <Point>
        <coordinates>17.10087689,-9.36855920,0</coordinates>
      </Point>
    </Placemark>
    <Placemark>
      <styleUrl>#dados_sem_ensaio</styleUrl>
      <Point>
        <coordinates>13.99162655,-15.63024630,0</coordinates>
      </Point>
    </Placemark>
    <Placemark>
      <styleUrl>#dados_sem_ensaio</styleUrl>
      <Point>
        <coordinates>13.78434319,-13.20403162,0</coordinates>
      </Point>
    </Placemark>
    <Placemark>
      <styleUrl>#dados_sem_ensaio</styleUrl>
      <Point>
        <coordinates>12.54064305,-14.33306808,0</coordinates>
      </Point>
    </Placemark>
    <Placemark>
      <styleUrl>#dados_sem_ensaio</styleUrl>
      <Point>
        <coordinates>14.19890990,-16.77186434,0</coordinates>
      </Point>
    </Placemark>
    <Placemark>
      <styleUrl>#dados_sem_ensaio</styleUrl>
      <Point>
        <coordinates>17.72272696,-16.77186434,0</coordinates>
      </Point>
    </Placemark>
    <Placemark>
      <styleUrl>#dados_sem_ensaio</styleUrl>
      <Point>
        <coordinates>20.83197730,-12.88240173,0</coordinates>
      </Point>
    </Placemark>
    <Placemark>
      <styleUrl>#dados_sem_ensaio</styleUrl>
      <Point>
        <coordinates>21.86839408,-16.28180859,0</coordinates>
      </Point>
    </Placemark>
    <Placemark>
      <styleUrl>#dados_sem_ensaio</styleUrl>
      <Point>
        <coordinates>13.16249312,-13.84854316,0</coordinates>
      </Point>
    </Placemark>
    <Placemark>
      <styleUrl>#dados_sem_ensaio</styleUrl>
      <Point>
        <coordinates>21.24654401,-12.24033634,0</coordinates>
      </Point>
    </Placemark>
    <Placemark>
      <styleUrl>#dados_sem_ensaio</styleUrl>
      <Point>
        <coordinates>22.07567744,-12.88240173,0</coordinates>
      </Point>
    </Placemark>
    <Placemark>
      <styleUrl>#dados_sem_ensaio</styleUrl>
      <Point>
        <coordinates>17.10087689,-7.46725980,0</coordinates>
      </Point>
    </Placemark>
    <Placemark>
      <styleUrl>#dados_sem_ensaio</styleUrl>
      <Point>
        <coordinates>23.11209422,-11.75978803,0</coordinates>
      </Point>
    </Placemark>
    <Placemark>
      <styleUrl>#dados_sem_ensaio</styleUrl>
      <Point>
        <coordinates>18.96642709,-15.14290266,0</coordinates>
      </Point>
    </Placemark>
    <Placemark>
      <styleUrl>#dados_sem_ensaio</styleUrl>
      <Point>
        <coordinates>21.24654401,-15.46767457,0</coordinates>
      </Point>
    </Placemark>
    <Placemark>
      <styleUrl>#dados_sem_ensaio</styleUrl>
      <Point>
        <coordinates>16.89359353,-10.64161890,0</coordinates>
      </Point>
    </Placemark>
    <Placemark>
      <styleUrl>#dados_sem_ensaio</styleUrl>
      <Point>
        <coordinates>20.00284388,-17.26315545,0</coordinates>
      </Point>
    </Placemark>
    <Placemark>
      <styleUrl>#dados_sem_ensaio</styleUrl>
      <Point>
        <coordinates>14.61347661,-17.26315545,0</coordinates>
      </Point>
    </Placemark>
    <Placemark>
      <styleUrl>#dados_sem_ensaio</styleUrl>
      <Point>
        <coordinates>15.23532668,-11.28005586,0</coordinates>
      </Point>
    </Placemark>
    <Placemark>
      <styleUrl>#dados_sem_ensaio</styleUrl>
      <Point>
        <coordinates>18.34457703,-9.52743041,0</coordinates>
      </Point>
    </Placemark>
    <Placemark>
      <styleUrl>#dados_sem_ensaio</styleUrl>
      <Point>
        <coordinates>19.58827716,-16.44502599,0</coordinates>
      </Point>
    </Placemark>
    <Placemark>
      <styleUrl>#dados_sem_ensaio</styleUrl>
      <Point>
        <coordinates>18.34457703,-16.60837736,0</coordinates>
      </Point>
    </Placemark>
    <Placemark>
      <styleUrl>#dados_sem_ensaio</styleUrl>
      <Point>
        <coordinates>16.68631018,-9.68637367,0</coordinates>
      </Point>
    </Placemark>
    <Placemark>
      <styleUrl>#dados_sem_ensaio</styleUrl>
      <Point>
        <coordinates>13.78434319,-15.14290266,0</coordinates>
      </Point>
    </Placemark>
    <Placemark>
      <styleUrl>#dados_sem_ensaio</styleUrl>
      <Point>
        <coordinates>19.38099381,-15.95576919,0</coordinates>
      </Point>
    </Placemark>
    <Placemark>
      <styleUrl>#dados_sem_ensaio</styleUrl>
      <Point>
        <coordinates>21.03926066,-17.59139143,0</coordinates>
      </Point>
    </Placemark>
    <Placemark>
      <styleUrl>#dados_sem_ensaio</styleUrl>
      <Point>
        <coordinates>21.45382737,-13.84854316,0</coordinates>
      </Point>
    </Placemark>
    <Placemark>
      <styleUrl>#dados_sem_ensaio</styleUrl>
      <Point>
        <coordinates>12.33335970,-16.77186434,0</coordinates>
      </Point>
    </Placemark>
    <Placemark>
      <styleUrl>#dados_sem_ensaio</styleUrl>
      <Point>
        <coordinates>15.44261004,-16.60837736,0</coordinates>
      </Point>
    </Placemark>
    <Placemark>
      <styleUrl>#dados_sem_ensaio</styleUrl>
      <Point>
        <coordinates>15.44261004,-17.26315545,0</coordinates>
      </Point>
    </Placemark>
    <Placemark>
      <styleUrl>#dados_sem_ensaio</styleUrl>
      <Point>
        <coordinates>19.17371045,-17.26315545,0</coordinates>
      </Point>
    </Placemark>
    <Placemark>
      <styleUrl>#dados_sem_ensaio</styleUrl>
      <Point>
        <coordinates>16.89359353,-16.11872353,0</coordinates>
      </Point>
    </Placemark>
    <Placemark>
      <styleUrl>#dados_sem_ensaio</styleUrl>
      <Point>
        <coordinates>18.55186038,-16.11872353,0</coordinates>
      </Point>
    </Placemark>
    <Placemark>
      <styleUrl>#dados_sem_ensaio</styleUrl>
      <Point>
        <coordinates>12.54064305,-16.28180859,0</coordinates>
      </Point>
    </Placemark>
    <Placemark>
      <styleUrl>#dados_sem_ensaio</styleUrl>
      <Point>
        <coordinates>14.19890990,-11.28005586,0</coordinates>
      </Point>
    </Placemark>
    <Placemark>
      <styleUrl>#dados_sem_ensaio</styleUrl>
      <Point>
        <coordinates>21.66111073,-11.43987818,0</coordinates>
      </Point>
    </Placemark>
    <Placemark>
      <styleUrl>#dados_sem_ensaio</styleUrl>
      <Point>
        <coordinates>17.72272696,-11.28005586,0</coordinates>
      </Point>
    </Placemark>
    <Placemark>
      <styleUrl>#dados_sem_ensaio</styleUrl>
      <Point>
        <coordinates>19.38099381,-15.30522721,0</coordinates>
      </Point>
    </Placemark>
    <Placemark>
      <styleUrl>#dados_sem_ensaio</styleUrl>
      <Point>
        <coordinates>21.24654401,-16.93548857,0</coordinates>
      </Point>
    </Placemark>
    <Placemark>
      <styleUrl>#dados_sem_ensaio</styleUrl>
      <Point>
        <coordinates>17.72272696,-15.95576919,0</coordinates>
      </Point>
    </Placemark>
    <Placemark>
      <styleUrl>#dados_sem_ensaio</styleUrl>
      <Point>
        <coordinates>13.99162655,-13.52607490,0</coordinates>
      </Point>
    </Placemark>
    <Placemark>
      <styleUrl>#dados_sem_ensaio</styleUrl>
      <Point>
        <coordinates>16.89359353,-7.15121389,0</coordinates>
      </Point>
    </Placemark>
    <Placemark>
      <styleUrl>#dados_sem_ensaio</styleUrl>
      <Point>
        <coordinates>16.27174346,-16.77186434,0</coordinates>
      </Point>
    </Placemark>
    <Placemark>
      <styleUrl>#dados_sem_ensaio</styleUrl>
      <Point>
        <coordinates>22.28296079,-16.77186434,0</coordinates>
      </Point>
    </Placemark>
    <Placemark>
      <styleUrl>#dados_sem_ensaio</styleUrl>
      <Point>
        <coordinates>22.49024415,-11.28005586,0</coordinates>
      </Point>
    </Placemark>
    <Placemark>
      <styleUrl>#dados_sem_ensaio</styleUrl>
      <Point>
        <coordinates>13.78434319,-15.95576919,0</coordinates>
      </Point>
    </Placemark>
    <Placemark>
      <styleUrl>#dados_sem_ensaio</styleUrl>
      <Point>
        <coordinates>20.83197730,-16.11872353,0</coordinates>
      </Point>
    </Placemark>
    <Placemark>
      <styleUrl>#dados_sem_ensaio</styleUrl>
      <Point>
        <coordinates>20.21012723,-17.75572707,0</coordinates>
      </Point>
    </Placemark>
    <Placemark>
      <styleUrl>#dados_sem_ensaio</styleUrl>
      <Point>
        <coordinates>16.06446011,-6.83538080,0</coordinates>
      </Point>
    </Placemark>
    <Placemark>
      <styleUrl>#dados_sem_ensaio</styleUrl>
      <Point>
        <coordinates>21.86839408,-14.65665041,0</coordinates>
      </Point>
    </Placemark>
    <Placemark>
      <styleUrl>#dados_sem_ensaio</styleUrl>
      <Point>
        <coordinates>13.78434319,-12.24033634,0</coordinates>
      </Point>
    </Placemark>
    <Placemark>
      <styleUrl>#dados_sem_ensaio</styleUrl>
      <Point>
        <coordinates>22.90481086,-12.24033634,0</coordinates>
      </Point>
    </Placemark>
    <Placemark>
      <styleUrl>#dados_sem_ensaio</styleUrl>
      <Point>
        <coordinates>17.30816024,-12.72173821,0</coordinates>
      </Point>
    </Placemark>
    <Placemark>
      <styleUrl>#dados_sem_ensaio</styleUrl>
      <Point>
        <coordinates>18.96642709,-16.93548857,0</coordinates>
      </Point>
    </Placemark>
    <Placemark>
      <styleUrl>#dados_sem_ensaio</styleUrl>
      <Point>
        <coordinates>16.06446011,-9.05102775,0</coordinates>
      </Point>
    </Placemark>
    <Placemark>
      <styleUrl>#dados_sem_ensaio</styleUrl>
      <Point>
        <coordinates>21.66111073,-13.20403162,0</coordinates>
      </Point>
    </Placemark>
    <Placemark>
      <styleUrl>#dados_sem_ensaio</styleUrl>
      <Point>
        <coordinates>20.00284388,-15.30522721,0</coordinates>
      </Point>
    </Placemark>
    <Placemark>
      <styleUrl>#dados_sem_ensaio</styleUrl>
      <Point>
        <coordinates>22.07567744,-11.59978845,0</coordinates>
      </Point>
    </Placemark>
    <Placemark>
      <styleUrl>#dados_sem_ensaio</styleUrl>
      <Point>
        <coordinates>16.68631018,-8.25837028,0</coordinates>
      </Point>
    </Placemark>
    <Placemark>
      <styleUrl>#dados_sem_ensaio</styleUrl>
      <Point>
        <coordinates>16.68631018,-9.20975874,0</coordinates>
      </Point>
    </Placemark>
    <Placemark>
      <styleUrl>#dados_sem_ensaio</styleUrl>
      <Point>
        <coordinates>12.12607634,-15.30522721,0</coordinates>
      </Point>
    </Placemark>
    <Placemark>
      <styleUrl>#dados_sem_ensaio</styleUrl>
      <Point>
        <coordinates>12.95520976,-15.30522721,0</coordinates>
      </Point>
    </Placemark>
    <Placemark>
      <styleUrl>#dados_sem_ensaio</styleUrl>
      <Point>
        <coordinates>16.89359353,-7.78352835,0</coordinates>
      </Point>
    </Placemark>
    <Placemark>
      <styleUrl>#dados_sem_ensaio</styleUrl>
      <Point>
        <coordinates>16.27174346,-9.84539026,0</coordinates>
      </Point>
    </Placemark>
    <Placemark>
      <styleUrl>#dados_sem_ensaio</styleUrl>
      <Point>
        <coordinates>20.41741059,-16.28180859,0</coordinates>
      </Point>
    </Placemark>
    <Placemark>
      <styleUrl>#dados_sem_ensaio</styleUrl>
      <Point>
        <coordinates>23.94122764,-12.56117375,0</coordinates>
      </Point>
    </Placemark>
    <Placemark>
      <styleUrl>#dados_sem_ensaio</styleUrl>
      <Point>
        <coordinates>21.03926066,-12.56117375,0</coordinates>
      </Point>
    </Placemark>
    <Placemark>
      <styleUrl>#dados_sem_ensaio</styleUrl>
      <Point>
        <coordinates>22.69752751,-17.42720146,0</coordinates>
      </Point>
    </Placemark>
    <Placemark>
      <styleUrl>#dados_sem_ensaio</styleUrl>
      <Point>
        <coordinates>22.28296079,-12.08006059,0</coordinates>
      </Point>
    </Placemark>
    <Placemark>
      <styleUrl>#dados_sem_ensaio</styleUrl>
      <Point>
        <coordinates>20.83197730,-12.08006059,0</coordinates>
      </Point>
    </Placemark>
    <Placemark>
      <styleUrl>#dados_sem_ensaio</styleUrl>
      <Point>
        <coordinates>13.78434319,-16.60837736,0</coordinates>
      </Point>
    </Placemark>
    <Placemark>
      <styleUrl>#dados_sem_ensaio</styleUrl>
      <Point>
        <coordinates>12.95520976,-13.04316572,0</coordinates>
      </Point>
    </Placemark>
    <Placemark>
      <styleUrl>#dados_sem_ensaio</styleUrl>
      <Point>
        <coordinates>21.45382737,-16.44502599,0</coordinates>
      </Point>
    </Placemark>
    <Placemark>
      <styleUrl>#dados_sem_ensaio</styleUrl>
      <Point>
        <coordinates>12.74792641,-14.65665041,0</coordinates>
      </Point>
    </Placemark>
    <Placemark>
      <styleUrl>#dados_sem_ensaio</styleUrl>
      <Point>
        <coordinates>17.30816024,-10.32289306,0</coordinates>
      </Point>
    </Placemark>
    <Placemark>
      <styleUrl>#dados_sem_ensaio</styleUrl>
      <Point>
        <coordinates>22.07567744,-17.26315545,0</coordinates>
      </Point>
    </Placemark>
    <Placemark>
      <styleUrl>#dados_sem_ensaio</styleUrl>
      <Point>
        <coordinates>20.41741059,-12.72173821,0</coordinates>
      </Point>
    </Placemark>
    <Placemark>
      <styleUrl>#dados_sem_ensaio</styleUrl>
      <Point>
        <coordinates>23.31937758,-12.72173821,0</coordinates>
      </Point>
    </Placemark>
    <Placemark>
      <styleUrl>#dados_sem_ensaio</styleUrl>
      <Point>
        <coordinates>12.74792641,-14.00994031,0</coordinates>
      </Point>
    </Placemark>
    <Placemark>
      <styleUrl>#dados_sem_ensaio</styleUrl>
      <Point>
        <coordinates>21.86839408,-14.00994031,0</coordinates>
      </Point>
    </Placemark>
    <Placemark>
      <styleUrl>#dados_sem_ensaio</styleUrl>
      <Point>
        <coordinates>19.58827716,-14.65665041,0</coordinates>
      </Point>
    </Placemark>
    <Placemark>
      <styleUrl>#dados_sem_ensaio</styleUrl>
      <Point>
        <coordinates>21.24654401,-13.04316572,0</coordinates>
      </Point>
    </Placemark>
    <Placemark>
      <styleUrl>#dados_sem_ensaio</styleUrl>
      <Point>
        <coordinates>21.66111073,-15.46767457,0</coordinates>
      </Point>
    </Placemark>
    <Placemark>
      <styleUrl>#dados_sem_ensaio</styleUrl>
      <Point>
        <coordinates>12.95520976,-16.11872353,0</coordinates>
      </Point>
    </Placemark>
    <Placemark>
      <styleUrl>#dados_sem_ensaio</styleUrl>
      <Point>
        <coordinates>14.19890990,-14.33306808,0</coordinates>
      </Point>
    </Placemark>
    <Placemark>
      <styleUrl>#dados_sem_ensaio</styleUrl>
      <Point>
        <coordinates>21.03926066,-17.26315545,0</coordinates>
      </Point>
    </Placemark>
    <Placemark>
      <styleUrl>#dados_sem_ensaio</styleUrl>
      <Point>
        <coordinates>13.78434319,-12.56117375,0</coordinates>
      </Point>
    </Placemark>
    <Placemark>
      <styleUrl>#dados_sem_ensaio</styleUrl>
      <Point>
        <coordinates>21.86839408,-12.56117375,0</coordinates>
      </Point>
    </Placemark>
    <Placemark>
      <styleUrl>#dados_sem_ensaio</styleUrl>
      <Point>
        <coordinates>12.54064305,-15.14290266,0</coordinates>
      </Point>
    </Placemark>
    <Placemark>
      <styleUrl>#dados_sem_ensaio</styleUrl>
      <Point>
        <coordinates>13.99162655,-17.09925172,0</coordinates>
      </Point>
    </Placemark>
    <Placemark>
      <styleUrl>#dados_sem_ensaio</styleUrl>
      <Point>
        <coordinates>18.96642709,-15.95576919,0</coordinates>
      </Point>
    </Placemark>
    <Placemark>
      <styleUrl>#dados_sem_ensaio</styleUrl>
      <Point>
        <coordinates>21.24654401,-11.43987818,0</coordinates>
      </Point>
    </Placemark>
    <Placemark>
      <styleUrl>#dados_sem_ensaio</styleUrl>
      <Point>
        <coordinates>20.62469394,-17.59139143,0</coordinates>
      </Point>
    </Placemark>
    <Placemark>
      <styleUrl>#dados_sem_ensaio</styleUrl>
      <Point>
        <coordinates>11.91879298,-16.77186434,0</coordinates>
      </Point>
    </Placemark>
    <Placemark>
      <styleUrl>#dados_sem_ensaio</styleUrl>
      <Point>
        <coordinates>13.36977648,-13.04316572,0</coordinates>
      </Point>
    </Placemark>
    <Placemark>
      <styleUrl>#dados_sem_ensaio</styleUrl>
      <Point>
        <coordinates>20.62469394,-16.93548857,0</coordinates>
      </Point>
    </Placemark>
    <Placemark>
      <styleUrl>#dados_sem_ensaio</styleUrl>
      <Point>
        <coordinates>17.72272696,-9.20975874,0</coordinates>
      </Point>
    </Placemark>
    <Placemark>
      <styleUrl>#dados_sem_ensaio</styleUrl>
      <Point>
        <coordinates>20.21012723,-15.63024630,0</coordinates>
      </Point>
    </Placemark>
    <Placemark>
      <styleUrl>#dados_sem_ensaio</styleUrl>
      <Point>
        <coordinates>12.54064305,-15.95576919,0</coordinates>
      </Point>
    </Placemark>
    <Placemark>
      <styleUrl>#dados_sem_ensaio</styleUrl>
      <Point>
        <coordinates>15.02804333,-17.26315545,0</coordinates>
      </Point>
    </Placemark>
    <Placemark>
      <styleUrl>#dados_sem_ensaio</styleUrl>
      <Point>
        <coordinates>15.44261004,-16.93548857,0</coordinates>
      </Point>
    </Placemark>
    <Placemark>
      <styleUrl>#dados_sem_ensaio</styleUrl>
      <Point>
        <coordinates>19.17371045,-17.59139143,0</coordinates>
      </Point>
    </Placemark>
    <Placemark>
      <styleUrl>#dados_sem_ensaio</styleUrl>
      <Point>
        <coordinates>21.45382737,-15.14290266,0</coordinates>
      </Point>
    </Placemark>
    <Placemark>
      <styleUrl>#dados_sem_ensaio</styleUrl>
      <Point>
        <coordinates>21.45382737,-13.52607490,0</coordinates>
      </Point>
    </Placemark>
    <Placemark>
      <styleUrl>#dados_sem_ensaio</styleUrl>
      <Point>
        <coordinates>21.86839408,-17.92021012,0</coordinates>
      </Point>
    </Placemark>
    <Placemark>
      <styleUrl>#dados_sem_ensaio</styleUrl>
      <Point>
        <coordinates>13.16249312,-16.93548857,0</coordinates>
      </Point>
    </Placemark>
    <Placemark>
      <styleUrl>#dados_sem_ensaio</styleUrl>
      <Point>
        <coordinates>13.36977648,-16.60837736,0</coordinates>
      </Point>
    </Placemark>
    <Placemark>
      <styleUrl>#dados_sem_ensaio</styleUrl>
      <Point>
        <coordinates>13.36977648,-14.49480167,0</coordinates>
      </Point>
    </Placemark>
    <Placemark>
      <styleUrl>#dados_sem_ensaio</styleUrl>
      <Point>
        <coordinates>16.47902682,-10.16364865,0</coordinates>
      </Point>
    </Placemark>
    <Placemark>
      <styleUrl>#dados_sem_ensaio</styleUrl>
      <Point>
        <coordinates>19.58827716,-17.26315545,0</coordinates>
      </Point>
    </Placemark>
    <Placemark>
      <styleUrl>#dados_sem_ensaio</styleUrl>
      <Point>
        <coordinates>12.33335970,-17.09925172,0</coordinates>
      </Point>
    </Placemark>
    <Placemark>
      <styleUrl>#dados_sem_ensaio</styleUrl>
      <Point>
        <coordinates>15.44261004,-9.68637367,0</coordinates>
      </Point>
    </Placemark>
    <Placemark>
      <styleUrl>#dados_sem_ensaio</styleUrl>
      <Point>
        <coordinates>17.30816024,-7.78352835,0</coordinates>
      </Point>
    </Placemark>
    <Placemark>
      <styleUrl>#dados_sem_ensaio</styleUrl>
      <Point>
        <coordinates>18.34457703,-9.84539026,0</coordinates>
      </Point>
    </Placemark>
    <Placemark>
      <styleUrl>#dados_sem_ensaio</styleUrl>
      <Point>
        <coordinates>13.78434319,-11.91987828,0</coordinates>
      </Point>
    </Placemark>
    <Placemark>
      <styleUrl>#dados_sem_ensaio</styleUrl>
      <Point>
        <coordinates>21.86839408,-11.91987828,0</coordinates>
      </Point>
    </Placemark>
    <Placemark>
      <styleUrl>#dados_sem_ensaio</styleUrl>
      <Point>
        <coordinates>23.94122764,-12.24033634,0</coordinates>
      </Point>
    </Placemark>
    <Placemark>
      <styleUrl>#dados_sem_ensaio</styleUrl>
      <Point>
        <coordinates>12.12607634,-15.63024630,0</coordinates>
      </Point>
    </Placemark>
    <Placemark>
      <styleUrl>#dados_sem_ensaio</styleUrl>
      <Point>
        <coordinates>12.95520976,-15.63024630,0</coordinates>
      </Point>
    </Placemark>
    <Placemark>
      <styleUrl>#dados_sem_ensaio</styleUrl>
      <Point>
        <coordinates>19.38099381,-15.63024630,0</coordinates>
      </Point>
    </Placemark>
    <Placemark>
      <styleUrl>#dados_sem_ensaio</styleUrl>
      <Point>
        <coordinates>13.36977648,-15.79294398,0</coordinates>
      </Point>
    </Placemark>
    <Placemark>
      <styleUrl>#dados_sem_ensaio</styleUrl>
      <Point>
        <coordinates>17.30816024,-10.64161890,0</coordinates>
      </Point>
    </Placemark>
    <Placemark>
      <styleUrl>#dados_sem_ensaio</styleUrl>
      <Point>
        <coordinates>20.00284388,-16.44502599,0</coordinates>
      </Point>
    </Placemark>
    <Placemark>
      <styleUrl>#dados_sem_ensaio</styleUrl>
      <Point>
        <coordinates>14.19890990,-11.59978845,0</coordinates>
      </Point>
    </Placemark>
    <Placemark>
      <styleUrl>#dados_sem_ensaio</styleUrl>
      <Point>
        <coordinates>17.72272696,-11.59978845,0</coordinates>
      </Point>
    </Placemark>
    <Placemark>
      <styleUrl>#dados_sem_ensaio</styleUrl>
      <Point>
        <coordinates>20.83197730,-11.28005586,0</coordinates>
      </Point>
    </Placemark>
    <Placemark>
      <styleUrl>#dados_sem_ensaio</styleUrl>
      <Point>
        <coordinates>22.69752751,-17.75572707,0</coordinates>
      </Point>
    </Placemark>
    <Placemark>
      <styleUrl>#dados_sem_ensaio</styleUrl>
      <Point>
        <coordinates>22.69752751,-11.12032011,0</coordinates>
      </Point>
    </Placemark>
    <Placemark>
      <styleUrl>#dados_sem_ensaio</styleUrl>
      <Point>
        <coordinates>16.06446011,-11.28005586,0</coordinates>
      </Point>
    </Placemark>
    <Placemark>
      <styleUrl>#dados_sem_ensaio</styleUrl>
      <Point>
        <coordinates>19.79556052,-15.95576919,0</coordinates>
      </Point>
    </Placemark>
    <Placemark>
      <styleUrl>#dados_sem_ensaio</styleUrl>
      <Point>
        <coordinates>11.91879298,-16.11872353,0</coordinates>
      </Point>
    </Placemark>
    <Placemark>
      <styleUrl>#dados_sem_ensaio</styleUrl>
      <Point>
        <coordinates>21.45382737,-16.11872353,0</coordinates>
      </Point>
    </Placemark>
    <Placemark>
      <styleUrl>#dados_sem_ensaio</styleUrl>
      <Point>
        <coordinates>12.95520976,-13.52607490,0</coordinates>
      </Point>
    </Placemark>
    <Placemark>
      <styleUrl>#dados_sem_ensaio</styleUrl>
      <Point>
        <coordinates>17.51544360,-9.68637367,0</coordinates>
      </Point>
    </Placemark>
    <Placemark>
      <styleUrl>#dados_sem_ensaio</styleUrl>
      <Point>
        <coordinates>21.45382737,-17.26315545,0</coordinates>
      </Point>
    </Placemark>
    <Placemark>
      <styleUrl>#dados_sem_ensaio</styleUrl>
      <Point>
        <coordinates>19.79556052,-17.42720146,0</coordinates>
      </Point>
    </Placemark>
    <Placemark>
      <styleUrl>#dados_sem_ensaio</styleUrl>
      <Point>
        <coordinates>21.03926066,-11.75978803,0</coordinates>
      </Point>
    </Placemark>
    <Placemark>
      <styleUrl>#dados_sem_ensaio</styleUrl>
      <Point>
        <coordinates>22.69752751,-11.59978845,0</coordinates>
      </Point>
    </Placemark>
    <Placemark>
      <styleUrl>#dados_sem_ensaio</styleUrl>
      <Point>
        <coordinates>23.31937758,-11.59978845,0</coordinates>
      </Point>
    </Placemark>
    <Placemark>
      <styleUrl>#dados_sem_ensaio</styleUrl>
      <Point>
        <coordinates>21.66111073,-12.88240173,0</coordinates>
      </Point>
    </Placemark>
    <Placemark>
      <styleUrl>#dados_sem_ensaio</styleUrl>
      <Point>
        <coordinates>22.49024415,-12.72173821,0</coordinates>
      </Point>
    </Placemark>
    <Placemark>
      <styleUrl>#dados_sem_ensaio</styleUrl>
      <Point>
        <coordinates>23.11209422,-12.88240173,0</coordinates>
      </Point>
    </Placemark>
    <Placemark>
      <styleUrl>#dados_sem_ensaio</styleUrl>
      <Point>
        <coordinates>21.45382737,-12.40070693,0</coordinates>
      </Point>
    </Placemark>
    <Placemark>
      <styleUrl>#dados_sem_ensaio</styleUrl>
      <Point>
        <coordinates>18.13729367,-16.77186434,0</coordinates>
      </Point>
    </Placemark>
    <Placemark>
      <styleUrl>#dados_sem_ensaio</styleUrl>
      <Point>
        <coordinates>20.41741059,-16.60837736,0</coordinates>
      </Point>
    </Placemark>
    <Placemark>
      <styleUrl>#dados_sem_ensaio</styleUrl>
      <Point>
        <coordinates>13.16249312,-15.14290266,0</coordinates>
      </Point>
    </Placemark>
    <Placemark>
      <styleUrl>#dados_sem_ensaio</styleUrl>
      <Point>
        <coordinates>13.16249312,-15.95576919,0</coordinates>
      </Point>
    </Placemark>
    <Placemark>
      <styleUrl>#dados_sem_ensaio</styleUrl>
      <Point>
        <coordinates>13.78434319,-8.73376907,0</coordinates>
      </Point>
    </Placemark>
    <Placemark>
      <styleUrl>#dados_sem_ensaio</styleUrl>
      <Point>
        <coordinates>16.27174346,-8.73376907,0</coordinates>
      </Point>
    </Placemark>
    <Placemark>
      <styleUrl>#dados_sem_ensaio</styleUrl>
      <Point>
        <coordinates>11.91879298,-15.79294398,0</coordinates>
      </Point>
    </Placemark>
    <Placemark>
      <styleUrl>#dados_sem_ensaio</styleUrl>
      <Point>
        <coordinates>18.13729367,-9.68637367,0</coordinates>
      </Point>
    </Placemark>
    <Placemark>
      <styleUrl>#dados_sem_ensaio</styleUrl>
      <Point>
        <coordinates>13.16249312,-16.28180859,0</coordinates>
      </Point>
    </Placemark>
    <Placemark>
      <styleUrl>#dados_sem_ensaio</styleUrl>
      <Point>
        <coordinates>22.07567744,-12.40070693,0</coordinates>
      </Point>
    </Placemark>
    <Placemark>
      <styleUrl>#dados_sem_ensaio</styleUrl>
      <Point>
        <coordinates>13.57705983,-12.40070693,0</coordinates>
      </Point>
    </Placemark>
    <Placemark>
      <styleUrl>#dados_sem_ensaio</styleUrl>
      <Point>
        <coordinates>20.21012723,-15.95576919,0</coordinates>
      </Point>
    </Placemark>
    <Placemark>
      <styleUrl>#dados_sem_ensaio</styleUrl>
      <Point>
        <coordinates>19.58827716,-16.11872353,0</coordinates>
      </Point>
    </Placemark>
    <Placemark>
      <styleUrl>#dados_sem_ensaio</styleUrl>
      <Point>
        <coordinates>21.66111073,-17.75572707,0</coordinates>
      </Point>
    </Placemark>
    <Placemark>
      <styleUrl>#dados_sem_ensaio</styleUrl>
      <Point>
        <coordinates>21.45382737,-10.96066960,0</coordinates>
      </Point>
    </Placemark>
    <Placemark>
      <styleUrl>#dados_sem_ensaio</styleUrl>
      <Point>
        <coordinates>22.69752751,-12.56117375,0</coordinates>
      </Point>
    </Placemark>
    <Placemark>
      <styleUrl>#dados_sem_ensaio</styleUrl>
      <Point>
        <coordinates>20.83197730,-17.42720146,0</coordinates>
      </Point>
    </Placemark>
    <Placemark>
      <styleUrl>#dados_sem_ensaio</styleUrl>
      <Point>
        <coordinates>18.55186038,-17.42720146,0</coordinates>
      </Point>
    </Placemark>
    <Placemark>
      <styleUrl>#dados_sem_ensaio</styleUrl>
      <Point>
        <coordinates>21.03926066,-16.44502599,0</coordinates>
      </Point>
    </Placemark>
    <Placemark>
      <styleUrl>#dados_sem_ensaio</styleUrl>
      <Point>
        <coordinates>12.12607634,-16.60837736,0</coordinates>
      </Point>
    </Placemark>
    <Placemark>
      <styleUrl>#dados_sem_ensaio</styleUrl>
      <Point>
        <coordinates>19.17371045,-16.60837736,0</coordinates>
      </Point>
    </Placemark>
    <Placemark>
      <styleUrl>#dados_sem_ensaio</styleUrl>
      <Point>
        <coordinates>19.79556052,-16.60837736,0</coordinates>
      </Point>
    </Placemark>
    <Placemark>
      <styleUrl>#dados_sem_ensaio</styleUrl>
      <Point>
        <coordinates>16.68631018,-10.00448148,0</coordinates>
      </Point>
    </Placemark>
    <Placemark>
      <styleUrl>#dados_sem_ensaio</styleUrl>
      <Point>
        <coordinates>13.99162655,-12.08006059,0</coordinates>
      </Point>
    </Placemark>
    <Placemark>
      <styleUrl>#dados_sem_ensaio</styleUrl>
      <Point>
        <coordinates>21.45382737,-12.08006059,0</coordinates>
      </Point>
    </Placemark>
    <Placemark>
      <styleUrl>#dados_sem_ensaio</styleUrl>
      <Point>
        <coordinates>12.12607634,-16.93548857,0</coordinates>
      </Point>
    </Placemark>
    <Placemark>
      <styleUrl>#dados_sem_ensaio</styleUrl>
      <Point>
        <coordinates>20.21012723,-17.42720146,0</coordinates>
      </Point>
    </Placemark>
    <Placemark>
      <styleUrl>#dados_sem_ensaio</styleUrl>
      <Point>
        <coordinates>19.38099381,-17.42720146,0</coordinates>
      </Point>
    </Placemark>
    <Placemark>
      <styleUrl>#dados_sem_ensaio</styleUrl>
      <Point>
        <coordinates>22.28296079,-17.42720146,0</coordinates>
      </Point>
    </Placemark>
    <Placemark>
      <styleUrl>#dados_sem_ensaio</styleUrl>
      <Point>
        <coordinates>17.93001031,-11.75978803,0</coordinates>
      </Point>
    </Placemark>
    <Placemark>
      <styleUrl>#dados_sem_ensaio</styleUrl>
      <Point>
        <coordinates>13.57705983,-14.65665041,0</coordinates>
      </Point>
    </Placemark>
    <Placemark>
      <styleUrl>#dados_sem_ensaio</styleUrl>
      <Point>
        <coordinates>22.07567744,-16.44502599,0</coordinates>
      </Point>
    </Placemark>
    <Placemark>
      <styleUrl>#dados_sem_ensaio</styleUrl>
      <Point>
        <coordinates>12.12607634,-16.28180859,0</coordinates>
      </Point>
    </Placemark>
    <Placemark>
      <styleUrl>#dados_sem_ensaio</styleUrl>
      <Point>
        <coordinates>19.79556052,-16.28180859,0</coordinates>
      </Point>
    </Placemark>
    <Placemark>
      <styleUrl>#dados_sem_ensaio</styleUrl>
      <Point>
        <coordinates>18.13729367,-16.44502599,0</coordinates>
      </Point>
    </Placemark>
    <Placemark>
      <styleUrl>#dados_sem_ensaio</styleUrl>
      <Point>
        <coordinates>13.78434319,-15.46767457,0</coordinates>
      </Point>
    </Placemark>
    <Placemark>
      <styleUrl>#dados_sem_ensaio</styleUrl>
      <Point>
        <coordinates>22.69752751,-11.91987828,0</coordinates>
      </Point>
    </Placemark>
    <Placemark>
      <styleUrl>#dados_sem_ensaio</styleUrl>
      <Point>
        <coordinates>13.16249312,-12.88240173,0</coordinates>
      </Point>
    </Placemark>
    <Placemark>
      <styleUrl>#dados_sem_ensaio</styleUrl>
      <Point>
        <coordinates>13.78434319,-17.26315545,0</coordinates>
      </Point>
    </Placemark>
    <Placemark>
      <styleUrl>#dados_sem_ensaio</styleUrl>
      <Point>
        <coordinates>14.82075997,-17.09925172,0</coordinates>
      </Point>
    </Placemark>
    <Placemark>
      <styleUrl>#dados_sem_ensaio</styleUrl>
      <Point>
        <coordinates>19.79556052,-17.09925172,0</coordinates>
      </Point>
    </Placemark>
    <Placemark>
      <styleUrl>#dados_sem_ensaio</styleUrl>
      <Point>
        <coordinates>20.83197730,-17.09925172,0</coordinates>
      </Point>
    </Placemark>
    <Placemark>
      <styleUrl>#dados_sem_ensaio</styleUrl>
      <Point>
        <coordinates>18.75914374,-17.26315545,0</coordinates>
      </Point>
    </Placemark>
    <Placemark>
      <styleUrl>#dados_sem_ensaio</styleUrl>
      <Point>
        <coordinates>17.51544360,-10.48221604,0</coordinates>
      </Point>
    </Placemark>
    <Placemark>
      <styleUrl>#dados_sem_ensaio</styleUrl>
      <Point>
        <coordinates>13.36977648,-14.98069937,0</coordinates>
      </Point>
    </Placemark>
    <Placemark>
      <styleUrl>#dados_sem_ensaio</styleUrl>
      <Point>
        <coordinates>14.40619326,-9.84539026,0</coordinates>
      </Point>
    </Placemark>
    <Placemark>
      <styleUrl>#dados_sem_ensaio</styleUrl>
      <Point>
        <coordinates>17.30816024,-9.84539026,0</coordinates>
      </Point>
    </Placemark>
    <Placemark>
      <styleUrl>#dados_sem_ensaio</styleUrl>
      <Point>
        <coordinates>17.72272696,-9.84539026,0</coordinates>
      </Point>
    </Placemark>
    <Placemark>
      <styleUrl>#dados_sem_ensaio</styleUrl>
      <Point>
        <coordinates>17.72272696,-10.80110298,0</coordinates>
      </Point>
    </Placemark>
    <Placemark>
      <styleUrl>#dados_sem_ensaio</styleUrl>
      <Point>
        <coordinates>18.34457703,-16.93548857,0</coordinates>
      </Point>
    </Placemark>
    <Placemark>
      <styleUrl>#dados_sem_ensaio</styleUrl>
      <Point>
        <coordinates>12.74792641,-16.77186434,0</coordinates>
      </Point>
    </Placemark>
    <Placemark>
      <styleUrl>#dados_sem_ensaio</styleUrl>
      <Point>
        <coordinates>12.54064305,-16.60837736,0</coordinates>
      </Point>
    </Placemark>
    <Placemark>
      <styleUrl>#dados_sem_ensaio</styleUrl>
      <Point>
        <coordinates>21.86839408,-16.60837736,0</coordinates>
      </Point>
    </Placemark>
    <Placemark>
      <styleUrl>#dados_sem_ensaio</styleUrl>
      <Point>
        <coordinates>17.10087689,-10.80110298,0</coordinates>
      </Point>
    </Placemark>
    <Placemark>
      <styleUrl>#dados_sem_ensaio</styleUrl>
      <Point>
        <coordinates>19.58827716,-15.14290266,0</coordinates>
      </Point>
    </Placemark>
    <Placemark>
      <styleUrl>#dados_sem_ensaio</styleUrl>
      <Point>
        <coordinates>22.28296079,-11.43987818,0</coordinates>
      </Point>
    </Placemark>
    <Placemark>
      <styleUrl>#dados_sem_ensaio</styleUrl>
      <Point>
        <coordinates>22.90481086,-11.43987818,0</coordinates>
      </Point>
    </Placemark>
    <Placemark>
      <styleUrl>#dados_sem_ensaio</styleUrl>
      <Point>
        <coordinates>21.45382737,-17.59139143,0</coordinates>
      </Point>
    </Placemark>
    <Placemark>
      <styleUrl>#dados_sem_ensaio</styleUrl>
      <Point>
        <coordinates>20.83197730,-17.75572707,0</coordinates>
      </Point>
    </Placemark>
    <Placemark>
      <styleUrl>#dados_sem_ensaio</styleUrl>
      <Point>
        <coordinates>22.49024415,-17.59139143,0</coordinates>
      </Point>
    </Placemark>
    <Placemark>
      <styleUrl>#dados_sem_ensaio</styleUrl>
      <Point>
        <coordinates>17.30816024,-8.25837028,0</coordinates>
      </Point>
    </Placemark>
    <Placemark>
      <styleUrl>#dados_sem_ensaio</styleUrl>
      <Point>
        <coordinates>12.33335970,-15.79294398,0</coordinates>
      </Point>
    </Placemark>
    <Placemark>
      <styleUrl>#dados_sem_ensaio</styleUrl>
      <Point>
        <coordinates>21.66111073,-15.95576919,0</coordinates>
      </Point>
    </Placemark>
    <Placemark>
      <styleUrl>#dados_sem_ensaio</styleUrl>
      <Point>
        <coordinates>21.03926066,-15.79294398,0</coordinates>
      </Point>
    </Placemark>
    <Placemark>
      <styleUrl>#dados_sem_ensaio</styleUrl>
      <Point>
        <coordinates>13.57705983,-15.30522721,0</coordinates>
      </Point>
    </Placemark>
    <Placemark>
      <styleUrl>#dados_sem_ensaio</styleUrl>
      <Point>
        <coordinates>20.00284388,-15.79294398,0</coordinates>
      </Point>
    </Placemark>
    <Placemark>
      <styleUrl>#dados_sem_ensaio</styleUrl>
      <Point>
        <coordinates>19.58827716,-15.79294398,0</coordinates>
      </Point>
    </Placemark>
    <Placemark>
      <styleUrl>#dados_sem_ensaio</styleUrl>
      <Point>
        <coordinates>16.68631018,-7.30920963,0</coordinates>
      </Point>
    </Placemark>
    <Placemark>
      <styleUrl>#dados_sem_ensaio</styleUrl>
      <Point>
        <coordinates>18.55186038,-9.68637367,0</coordinates>
      </Point>
    </Placemark>
    <Placemark>
      <styleUrl>#dados_sem_ensaio</styleUrl>
      <Point>
        <coordinates>21.66111073,-14.98069937,0</coordinates>
      </Point>
    </Placemark>
    <Placemark>
      <styleUrl>#dados_sem_ensaio</styleUrl>
      <Point>
        <coordinates>13.57705983,-16.28180859,0</coordinates>
      </Point>
    </Placemark>
    <Placemark>
      <styleUrl>#dados_sem_ensaio</styleUrl>
      <Point>
        <coordinates>12.33335970,-16.11872353,0</coordinates>
      </Point>
    </Placemark>
    <Placemark>
      <styleUrl>#dados_sem_ensaio</styleUrl>
      <Point>
        <coordinates>22.28296079,-12.56117375,0</coordinates>
      </Point>
    </Placemark>
    <Placemark>
      <styleUrl>#dados_sem_ensaio</styleUrl>
      <Point>
        <coordinates>18.96642709,-17.42720146,0</coordinates>
      </Point>
    </Placemark>
    <Placemark>
      <styleUrl>#dados_sem_ensaio</styleUrl>
      <Point>
        <coordinates>21.24654401,-17.42720146,0</coordinates>
      </Point>
    </Placemark>
    <Placemark>
      <styleUrl>#dados_sem_ensaio</styleUrl>
      <Point>
        <coordinates>13.57705983,-14.33306808,0</coordinates>
      </Point>
    </Placemark>
    <Placemark>
      <styleUrl>#dados_sem_ensaio</styleUrl>
      <Point>
        <coordinates>12.33335970,-14.49480167,0</coordinates>
      </Point>
    </Placemark>
    <Placemark>
      <styleUrl>#dados_sem_ensaio</styleUrl>
      <Point>
        <coordinates>18.75914374,-16.60837736,0</coordinates>
      </Point>
    </Placemark>
    <Placemark>
      <styleUrl>#dados_sem_ensaio</styleUrl>
      <Point>
        <coordinates>12.74792641,-16.44502599,0</coordinates>
      </Point>
    </Placemark>
    <Placemark>
      <styleUrl>#dados_sem_ensaio</styleUrl>
      <Point>
        <coordinates>11.71150963,-16.60837736,0</coordinates>
      </Point>
    </Placemark>
    <Placemark>
      <styleUrl>#dados_sem_ensaio</styleUrl>
      <Point>
        <coordinates>18.55186038,-16.44502599,0</coordinates>
      </Point>
    </Placemark>
    <Placemark>
      <styleUrl>#dados_sem_ensaio</styleUrl>
      <Point>
        <coordinates>21.24654401,-16.60837736,0</coordinates>
      </Point>
    </Placemark>
    <Placemark>
      <styleUrl>#dados_sem_ensaio</styleUrl>
      <Point>
        <coordinates>15.23532668,-16.77186434,0</coordinates>
      </Point>
    </Placemark>
    <Placemark>
      <styleUrl>#dados_sem_ensaio</styleUrl>
      <Point>
        <coordinates>20.00284388,-16.93548857,0</coordinates>
      </Point>
    </Placemark>
    <Placemark>
      <styleUrl>#dados_sem_ensaio</styleUrl>
      <Point>
        <coordinates>12.54064305,-16.93548857,0</coordinates>
      </Point>
    </Placemark>
    <Placemark>
      <styleUrl>#dados_sem_ensaio</styleUrl>
      <Point>
        <coordinates>18.55186038,-16.77186434,0</coordinates>
      </Point>
    </Placemark>
    <Placemark>
      <styleUrl>#dados_sem_ensaio</styleUrl>
      <Point>
        <coordinates>19.38099381,-16.77186434,0</coordinates>
      </Point>
    </Placemark>
    <Placemark>
      <styleUrl>#dados_sem_ensaio</styleUrl>
      <Point>
        <coordinates>21.86839408,-16.93548857,0</coordinates>
      </Point>
    </Placemark>
    <Placemark>
      <styleUrl>#dados_sem_ensaio</styleUrl>
      <Point>
        <coordinates>21.03926066,-16.77186434,0</coordinates>
      </Point>
    </Placemark>
    <Placemark>
      <styleUrl>#dados_sem_ensaio</styleUrl>
      <Point>
        <coordinates>18.75914374,-16.28180859,0</coordinates>
      </Point>
    </Placemark>
    <Placemark>
      <styleUrl>#dados_sem_ensaio</styleUrl>
      <Point>
        <coordinates>20.62469394,-16.44502599,0</coordinates>
      </Point>
    </Placemark>
    <Placemark>
      <styleUrl>#dados_sem_ensaio</styleUrl>
      <Point>
        <coordinates>14.19890990,-16.44502599,0</coordinates>
      </Point>
    </Placemark>
    <Placemark>
      <styleUrl>#dados_sem_ensaio</styleUrl>
      <Point>
        <coordinates>17.72272696,-16.44502599,0</coordinates>
      </Point>
    </Placemark>
    <Placemark>
      <styleUrl>#dados_sem_ensaio</styleUrl>
      <Point>
        <coordinates>12.33335970,-16.44502599,0</coordinates>
      </Point>
    </Placemark>
    <Placemark>
      <styleUrl>#dados_sem_ensaio</styleUrl>
      <Point>
        <coordinates>19.38099381,-16.28180859,0</coordinates>
      </Point>
    </Placemark>
    <Placemark>
      <styleUrl>#dados_sem_ensaio</styleUrl>
      <Point>
        <coordinates>13.57705983,-15.63024630,0</coordinates>
      </Point>
    </Placemark>
    <Placemark>
      <styleUrl>#dados_sem_ensaio</styleUrl>
      <Point>
        <coordinates>19.58827716,-15.46767457,0</coordinates>
      </Point>
    </Placemark>
    <Placemark>
      <styleUrl>#dados_sem_ensaio</styleUrl>
      <Point>
        <coordinates>18.96642709,-14.81861580,0</coordinates>
      </Point>
    </Placemark>
    <Placemark>
      <styleUrl>#dados_sem_ensaio</styleUrl>
      <Point>
        <coordinates>21.24654401,-11.91987828,0</coordinates>
      </Point>
    </Placemark>
    <Placemark>
      <styleUrl>#dados_sem_ensaio</styleUrl>
      <Point>
        <coordinates>21.86839408,-13.04316572,0</coordinates>
      </Point>
    </Placemark>
    <Placemark>
      <styleUrl>#dados_sem_ensaio</styleUrl>
      <Point>
        <coordinates>20.41741059,-17.09925172,0</coordinates>
      </Point>
    </Placemark>
    <Placemark>
      <styleUrl>#dados_sem_ensaio</styleUrl>
      <Point>
        <coordinates>14.19890990,-17.26315545,0</coordinates>
      </Point>
    </Placemark>
    <Placemark>
      <styleUrl>#dados_sem_ensaio</styleUrl>
      <Point>
        <coordinates>15.23532668,-17.09925172,0</coordinates>
      </Point>
    </Placemark>
    <Placemark>
      <styleUrl>#dados_sem_ensaio</styleUrl>
      <Point>
        <coordinates>15.64989339,-17.09925172,0</coordinates>
      </Point>
    </Placemark>
    <Placemark>
      <styleUrl>#dados_sem_ensaio</styleUrl>
      <Point>
        <coordinates>16.68631018,-10.48221604,0</coordinates>
      </Point>
    </Placemark>
    <Placemark>
      <styleUrl>#dados_sem_ensaio</styleUrl>
      <Point>
        <coordinates>17.10087689,-10.48221604,0</coordinates>
      </Point>
    </Placemark>
    <Placemark>
      <styleUrl>#dados_sem_ensaio</styleUrl>
      <Point>
        <coordinates>16.89359353,-9.84539026,0</coordinates>
      </Point>
    </Placemark>
    <Placemark>
      <styleUrl>#dados_sem_ensaio</styleUrl>
      <Point>
        <coordinates>21.86839408,-11.28005586,0</coordinates>
      </Point>
    </Placemark>
    <Placemark>
      <styleUrl>#dados_sem_ensaio</styleUrl>
      <Point>
        <coordinates>20.00284388,-17.59139143,0</coordinates>
      </Point>
    </Placemark>
    <Placemark>
      <styleUrl>#dados_sem_ensaio</styleUrl>
      <Point>
        <coordinates>21.86839408,-17.59139143,0</coordinates>
      </Point>
    </Placemark>
    <Placemark>
      <styleUrl>#dados_sem_ensaio</styleUrl>
      <Point>
        <coordinates>21.24654401,-17.75572707,0</coordinates>
      </Point>
    </Placemark>
    <Placemark>
      <styleUrl>#dados_sem_ensaio</styleUrl>
      <Point>
        <coordinates>21.66111073,-13.68725517,0</coordinates>
      </Point>
    </Placemark>
    <Placemark>
      <styleUrl>#dados_sem_ensaio</styleUrl>
      <Point>
        <coordinates>21.86839408,-14.17144813,0</coordinates>
      </Point>
    </Placemark>
    <Placemark>
      <styleUrl>#dados_sem_ensaio</styleUrl>
      <Point>
        <coordinates>12.54064305,-13.84854316,0</coordinates>
      </Point>
    </Placemark>
    <Placemark>
      <styleUrl>#dados_sem_ensaio</styleUrl>
      <Point>
        <coordinates>13.16249312,-13.68725517,0</coordinates>
      </Point>
    </Placemark>
    <Placemark>
      <styleUrl>#dados_sem_ensaio</styleUrl>
      <Point>
        <coordinates>17.72272696,-11.12032011,0</coordinates>
      </Point>
    </Placemark>
    <Placemark>
      <styleUrl>#dados_sem_ensaio</styleUrl>
      <Point>
        <coordinates>23.11209422,-11.12032011,0</coordinates>
      </Point>
    </Placemark>
    <Placemark>
      <styleUrl>#dados_sem_ensaio</styleUrl>
      <Point>
        <coordinates>13.78434319,-16.11872353,0</coordinates>
      </Point>
    </Placemark>
    <Placemark>
      <styleUrl>#dados_sem_ensaio</styleUrl>
      <Point>
        <coordinates>17.72272696,-16.11872353,0</coordinates>
      </Point>
    </Placemark>
    <Placemark>
      <styleUrl>#dados_sem_ensaio</styleUrl>
      <Point>
        <coordinates>20.83197730,-15.95576919,0</coordinates>
      </Point>
    </Placemark>
    <Placemark>
      <styleUrl>#dados_sem_ensaio</styleUrl>
      <Point>
        <coordinates>13.99162655,-13.36500086,0</coordinates>
      </Point>
    </Placemark>
    <Placemark>
      <styleUrl>#dados_sem_ensaio</styleUrl>
      <Point>
        <coordinates>14.61347661,-13.36500086,0</coordinates>
      </Point>
    </Placemark>
    <Placemark>
      <styleUrl>#dados_sem_ensaio</styleUrl>
      <Point>
        <coordinates>21.45382737,-13.36500086,0</coordinates>
      </Point>
    </Placemark>
    <Placemark>
      <styleUrl>#dados_sem_ensaio</styleUrl>
      <Point>
        <coordinates>21.86839408,-13.36500086,0</coordinates>
      </Point>
    </Placemark>
    <Placemark>
      <styleUrl>#dados_sem_ensaio</styleUrl>
      <Point>
        <coordinates>14.19890990,-10.16364865,0</coordinates>
      </Point>
    </Placemark>
    <Placemark>
      <styleUrl>#dados_sem_ensaio</styleUrl>
      <Point>
        <coordinates>21.45382737,-11.59978845,0</coordinates>
      </Point>
    </Placemark>
    <Placemark>
      <styleUrl>#dados_sem_ensaio</styleUrl>
      <Point>
        <coordinates>22.07567744,-11.75978803,0</coordinates>
      </Point>
    </Placemark>
    <Placemark>
      <styleUrl>#dados_sem_ensaio</styleUrl>
      <Point>
        <coordinates>12.74792641,-14.49480167,0</coordinates>
      </Point>
    </Placemark>
    <Placemark>
      <styleUrl>#dados_sem_ensaio</styleUrl>
      <Point>
        <coordinates>21.86839408,-14.49480167,0</coordinates>
      </Point>
    </Placemark>
    <Placemark>
      <styleUrl>#dados_sem_ensaio</styleUrl>
      <Point>
        <coordinates>20.83197730,-12.72173821,0</coordinates>
      </Point>
    </Placemark>
    <Placemark>
      <styleUrl>#dados_sem_ensaio</styleUrl>
      <Point>
        <coordinates>22.07567744,-12.72173821,0</coordinates>
      </Point>
    </Placemark>
    <Placemark>
      <styleUrl>#dados_sem_ensaio</styleUrl>
      <Point>
        <coordinates>23.73394429,-12.72173821,0</coordinates>
      </Point>
    </Placemark>
    <Placemark>
      <styleUrl>#dados_sem_ensaio</styleUrl>
      <Point>
        <coordinates>22.49024415,-12.24033634,0</coordinates>
      </Point>
    </Placemark>
    <Placemark>
      <styleUrl>#dados_sem_ensaio</styleUrl>
      <Point>
        <coordinates>22.90481086,-12.40070693,0</coordinates>
      </Point>
    </Placemark>
    <Placemark>
      <styleUrl>#dados_sem_ensaio</styleUrl>
      <Point>
        <coordinates>18.13729367,-9.52743041,0</coordinates>
      </Point>
    </Placemark>
    <Placemark>
      <styleUrl>#dados_sem_ensaio</styleUrl>
      <Point>
        <coordinates>12.33335970,-15.30522721,0</coordinates>
      </Point>
    </Placemark>
    <Placemark>
      <styleUrl>#dados_sem_ensaio</styleUrl>
      <Point>
        <coordinates>19.79556052,-15.30522721,0</coordinates>
      </Point>
    </Placemark>
    <Placemark>
      <styleUrl>#dados_sem_ensaio</styleUrl>
      <Point>
        <coordinates>20.83197730,-11.75978803,0</coordinates>
      </Point>
    </Placemark>
    <Placemark>
      <styleUrl>#dados_sem_ensaio</styleUrl>
      <Point>
        <coordinates>21.03926066,-16.11872353,0</coordinates>
      </Point>
    </Placemark>
    <Placemark>
      <styleUrl>#dados_sem_ensaio</styleUrl>
      <Point>
        <coordinates>21.03926066,-12.88240173,0</coordinates>
      </Point>
    </Placemark>
    <Placemark>
      <styleUrl>#dados_sem_ensaio</styleUrl>
      <Point>
        <coordinates>21.03926066,-12.08006059,0</coordinates>
      </Point>
    </Placemark>
    <Placemark>
      <styleUrl>#dados_sem_ensaio</styleUrl>
      <Point>
        <coordinates>21.03926066,-11.59978845,0</coordinates>
      </Point>
    </Placemark>
    <Placemark>
      <styleUrl>#dados_sem_ensaio</styleUrl>
      <Point>
        <coordinates>21.45382737,-16.77186434,0</coordinates>
      </Point>
    </Placemark>
    <Placemark>
      <styleUrl>#dados_sem_ensaio</styleUrl>
      <Point>
        <coordinates>21.45382737,-12.88240173,0</coordinates>
      </Point>
    </Placemark>
    <Placemark>
      <styleUrl>#dados_sem_ensaio</styleUrl>
      <Point>
        <coordinates>21.66111073,-17.26315545,0</coordinates>
      </Point>
    </Placemark>
    <Placemark>
      <styleUrl>#dados_sem_ensaio</styleUrl>
      <Point>
        <coordinates>21.66111073,-16.44502599,0</coordinates>
      </Point>
    </Placemark>
    <Placemark>
      <styleUrl>#dados_sem_ensaio</styleUrl>
      <Point>
        <coordinates>21.66111073,-16.11872353,0</coordinates>
      </Point>
    </Placemark>
    <Placemark>
      <styleUrl>#dados_sem_ensaio</styleUrl>
      <Point>
        <coordinates>21.66111073,-13.84854316,0</coordinates>
      </Point>
    </Placemark>
    <Placemark>
      <styleUrl>#dados_sem_ensaio</styleUrl>
      <Point>
        <coordinates>21.66111073,-12.72173821,0</coordinates>
      </Point>
    </Placemark>
    <Placemark>
      <styleUrl>#dados_sem_ensaio</styleUrl>
      <Point>
        <coordinates>21.66111073,-12.40070693,0</coordinates>
      </Point>
    </Placemark>
    <Placemark>
      <styleUrl>#dados_sem_ensaio</styleUrl>
      <Point>
        <coordinates>21.66111073,-12.08006059,0</coordinates>
      </Point>
    </Placemark>
    <Placemark>
      <styleUrl>#dados_sem_ensaio</styleUrl>
      <Point>
        <coordinates>21.66111073,-11.75978803,0</coordinates>
      </Point>
    </Placemark>
    <Placemark>
      <styleUrl>#dados_sem_ensaio</styleUrl>
      <Point>
        <coordinates>21.86839408,-11.59978845,0</coordinates>
      </Point>
    </Placemark>
    <Placemark>
      <styleUrl>#dados_sem_ensaio</styleUrl>
      <Point>
        <coordinates>21.86839408,-11.12032011,0</coordinates>
      </Point>
    </Placemark>
    <Placemark>
      <styleUrl>#dados_sem_ensaio</styleUrl>
      <Point>
        <coordinates>22.07567744,-17.59139143,0</coordinates>
      </Point>
    </Placemark>
    <Placemark>
      <styleUrl>#dados_sem_ensaio</styleUrl>
      <Point>
        <coordinates>22.07567744,-16.93548857,0</coordinates>
      </Point>
    </Placemark>
    <Placemark>
      <styleUrl>#dados_sem_ensaio</styleUrl>
      <Point>
        <coordinates>22.07567744,-12.24033634,0</coordinates>
      </Point>
    </Placemark>
    <Placemark>
      <styleUrl>#dados_sem_ensaio</styleUrl>
      <Point>
        <coordinates>22.07567744,-11.28005586,0</coordinates>
      </Point>
    </Placemark>
    <Placemark>
      <styleUrl>#dados_sem_ensaio</styleUrl>
      <Point>
        <coordinates>22.49024415,-12.88240173,0</coordinates>
      </Point>
    </Placemark>
    <Placemark>
      <styleUrl>#dados_sem_ensaio</styleUrl>
      <Point>
        <coordinates>22.49024415,-11.59978845,0</coordinates>
      </Point>
    </Placemark>
    <Placemark>
      <styleUrl>#dados_sem_ensaio</styleUrl>
      <Point>
        <coordinates>22.69752751,-17.09925172,0</coordinates>
      </Point>
    </Placemark>
    <Placemark>
      <styleUrl>#dados_sem_ensaio</styleUrl>
      <Point>
        <coordinates>22.69752751,-11.28005586,0</coordinates>
      </Point>
    </Placemark>
    <Placemark>
      <styleUrl>#dados_sem_ensaio</styleUrl>
      <Point>
        <coordinates>23.52666093,-12.88240173,0</coordinates>
      </Point>
    </Placemark>
    <Placemark>
      <styleUrl>#dados_sem_ensaio</styleUrl>
      <Point>
        <coordinates>12.95520976,-16.93548857,0</coordinates>
      </Point>
    </Placemark>
    <Placemark>
      <styleUrl>#dados_sem_ensaio</styleUrl>
      <Point>
        <coordinates>12.95520976,-13.36500086,0</coordinates>
      </Point>
    </Placemark>
    <Placemark>
      <styleUrl>#dados_sem_ensaio</styleUrl>
      <Point>
        <coordinates>13.16249312,-15.63024630,0</coordinates>
      </Point>
    </Placemark>
    <Placemark>
      <styleUrl>#dados_sem_ensaio</styleUrl>
      <Point>
        <coordinates>13.99162655,-16.60837736,0</coordinates>
      </Point>
    </Placemark>
    <Placemark>
      <styleUrl>#dados_sem_ensaio</styleUrl>
      <Point>
        <coordinates>13.99162655,-15.95576919,0</coordinates>
      </Point>
    </Placemark>
    <Placemark>
      <styleUrl>#dados_sem_ensaio</styleUrl>
      <Point>
        <coordinates>13.99162655,-14.49480167,0</coordinates>
      </Point>
    </Placemark>
    <Placemark>
      <styleUrl>#dados_sem_ensaio</styleUrl>
      <Point>
        <coordinates>13.99162655,-12.56117375,0</coordinates>
      </Point>
    </Placemark>
    <Placemark>
      <styleUrl>#dados_sem_ensaio</styleUrl>
      <Point>
        <coordinates>15.85717675,-11.28005586,0</coordinates>
      </Point>
    </Placemark>
    <Placemark>
      <styleUrl>#dados_sem_ensaio</styleUrl>
      <Point>
        <coordinates>16.27174346,-6.67754100,0</coordinates>
      </Point>
    </Placemark>
    <Placemark>
      <styleUrl>#dados_sem_ensaio</styleUrl>
      <Point>
        <coordinates>16.47902682,-10.00448148,0</coordinates>
      </Point>
    </Placemark>
    <Placemark>
      <styleUrl>#dados_sem_ensaio</styleUrl>
      <Point>
        <coordinates>17.51544360,-12.72173821,0</coordinates>
      </Point>
    </Placemark>
  </Document>
</kml>